{
"type": "FeatureCollection",
"name": "all_OKEC",
"crs": { "type": "name", "properties": { "name": "urn:ogc:def:crs:EPSG::32636" } },
"features": [
{ "type": "Feature", "properties": { "Field1": 19, "object_name": "Бетонный скейт-парк DC Plaza на ул. Введенская, д.9", "website": "https://fk-ramps.ru/projects/sankt-peterburg-betonnyy-skeyt-park", "is_small_wheels": 1, "is_big_wheels": 0, "build_year": 2015, "material_type": "Бетон", "current_score": 4.5, "s_index_current": 0.45, "current_score_fact": 1, "future_score_2029": 0.85, "s_index_2029": 0.85, "condition_fact": "Аварийное", "area_sqm": 600, "hierarchy_level": "Районного значения", "access_mode": "Публичный", "shelter_type": "Под открытым небом", "manufacturer": "FK-ramps", "has_pump": "-", "Y": 59.956103, "X": 30.303042, "address": "Введенская улица, 11, Санкт-Петербург, 197198", "link_yandexmap": "https://yandex.ru/maps/-/CPQrUVkG" }, "geometry": { "type": "Point", "coordinates": [ 349398.424506529700011, 6649591.590934568084776 ] } },
{ "type": "Feature", "properties": { "Field1": 21, "object_name": "Скейт-парк на Политрука Пасечника", "website": "-", "is_small_wheels": 1, "is_big_wheels": 0, "build_year": 2016, "material_type": "Железо", "current_score": 0.0, "s_index_current": 0.0, "current_score_fact": 5, "future_score_2029": 3.5, "s_index_2029": 3.5, "condition_fact": "Удовлетворительное", "area_sqm": 600, "hierarchy_level": "Районного значения", "access_mode": "Публичный", "shelter_type": "Под открытым небом", "manufacturer": "-", "has_pump": "-", "Y": 59.779843, "X": 30.105942, "address": "улица Политрука Пасечника, Санкт-Петербург", "link_yandexmap": "https://yandex.ru/maps/-/CPQnM64F" }, "geometry": { "type": "Point", "coordinates": [ 337538.920712616469245, 6630439.770250364206731 ] } },
{ "type": "Feature", "properties": { "Field1": 16, "object_name": "Скейт-парк на Планерной улице", "website": "https://fk-ramps.ru/projects/skate-park-na-planernoj-spb", "is_small_wheels": 1, "is_big_wheels": 0, "build_year": 2017, "material_type": "Каркас", "current_score": 0.0, "s_index_current": 0.0, "current_score_fact": 5, "future_score_2029": 2.0, "s_index_2029": 2.0, "condition_fact": "Удовлетворительное", "area_sqm": 550, "hierarchy_level": "Районного значения", "access_mode": "Публичный", "shelter_type": "Под открытым небом", "manufacturer": "FK-ramps", "has_pump": "-", "Y": 60.014674, "X": 30.233809, "address": "территория Озеро Долгое, Санкт-Петербург", "link_yandexmap": "https://yandex.ru/maps/-/CPQrJLlX" }, "geometry": { "type": "Point", "coordinates": [ 345806.587487205571961, 6656270.307296198792756 ] } },
{ "type": "Feature", "properties": { "Field1": 3, "object_name": "Скейт-парк в Парголово", "website": "https://fk-ramps.ru/projects/skejt-park-v-pargolovo-peterburg", "is_small_wheels": 1, "is_big_wheels": 0, "build_year": 2019, "material_type": "Каркас", "current_score": 0.0, "s_index_current": 0.0, "current_score_fact": 0, "future_score_2029": 0.0, "s_index_2029": 0.0, "condition_fact": "Аварийное", "area_sqm": 300, "hierarchy_level": "Местного значения", "access_mode": "Публичный", "shelter_type": "Под открытым небом", "manufacturer": "FK-ramps", "has_pump": "-", "Y": 60.074136, "X": 30.231642, "address": "территория Пригородный, посёлок Парголово, Санкт-Петербург", "link_yandexmap": "https://yandex.ru/maps/-/CPQrF2Zr" }, "geometry": { "type": "Point", "coordinates": [ 345963.116165810031816, 6662893.678988613188267 ] } },
{ "type": "Feature", "properties": { "Field1": 6, "object_name": "Скейт-парк в Кронштадте", "website": "https://fk-ramps.ru/projects/skejt-park-v-kronshtadte", "is_small_wheels": 1, "is_big_wheels": 0, "build_year": 2019, "material_type": "Каркас", "current_score": 0.0, "s_index_current": 0.0, "current_score_fact": 0, "future_score_2029": 0.0, "s_index_2029": 0.0, "condition_fact": "Аварийное", "area_sqm": 400, "hierarchy_level": "Местного значения", "access_mode": "Публичный", "shelter_type": "Под открытым небом", "manufacturer": "-", "has_pump": "-", "Y": 60.006382, "X": 29.733716, "address": "остров Котлин, Кронштадт, Санкт-Петербург", "link_yandexmap": "https://yandex.ru/maps/-/CPQrJFmC" }, "geometry": { "type": "Point", "coordinates": [ 317898.689797475468367, 6656619.217316730879247 ] } },
{ "type": "Feature", "properties": { "Field1": 10, "object_name": "Скейт-плаза на Граничной улице", "website": "-", "is_small_wheels": 1, "is_big_wheels": 0, "build_year": 2019, "material_type": "Бетон", "current_score": 6.5, "s_index_current": 0.65, "current_score_fact": 1, "future_score_2029": 0.85, "s_index_2029": 0.85, "condition_fact": "Аварийное", "area_sqm": 400, "hierarchy_level": "Местного значения", "access_mode": "Публичный", "shelter_type": "Под открытым небом", "manufacturer": "-", "has_pump": "-", "Y": 60.005304, "X": 30.134711, "address": "Граничная улица, Санкт-Петербург", "link_yandexmap": "https://yandex.ru/maps/-/CPQrUB0o" }, "geometry": { "type": "Point", "coordinates": [ 340239.711073590209708, 6655462.669157184660435 ] } },
{ "type": "Feature", "properties": { "Field1": 12, "object_name": "Скейт-парк в Левашово", "website": "https://fk-ramps.ru/projects/derevyannyj-skejtpark-v-levashovo-peterburg", "is_small_wheels": 1, "is_big_wheels": 1, "build_year": 2019, "material_type": "Каркас", "current_score": 0.0, "s_index_current": 0.0, "current_score_fact": 5, "future_score_2029": 2.0, "s_index_2029": 2.0, "condition_fact": "Удовлетворительное", "area_sqm": 450, "hierarchy_level": "Местного значения", "access_mode": "Публичный", "shelter_type": "Под открытым небом", "manufacturer": "FK-ramps", "has_pump": "-", "Y": 60.107416, "X": 30.185344, "address": "посёлок Левашово, Санкт-Петербург", "link_yandexmap": "https://yandex.ru/maps/-/CPQrF8I9" }, "geometry": { "type": "Point", "coordinates": [ 343545.894569484749809, 6666706.618496020324528 ] } },
{ "type": "Feature", "properties": { "Field1": 7, "object_name": "Скейт-парк в Петергофе возле 542-й школы", "website": "https://fk-ramps.ru/projects/skejt-park-v-petergofe", "is_small_wheels": 1, "is_big_wheels": 1, "build_year": 2020, "material_type": "Каркас", "current_score": 0.0, "s_index_current": 0.0, "current_score_fact": 0, "future_score_2029": 0.0, "s_index_2029": 0.0, "condition_fact": "Аварийное", "area_sqm": 400, "hierarchy_level": "Местного значения", "access_mode": "Публичный", "shelter_type": "Под открытым небом", "manufacturer": "FK-ramps", "has_pump": "-", "Y": 59.876167, "X": 29.927299, "address": "Петергоф, Санкт-Петербург", "link_yandexmap": "https://yandex.ru/maps/-/CPQrRU~A" }, "geometry": { "type": "Point", "coordinates": [ 328012.676739862072282, 6641610.646994728595018 ] } },
{ "type": "Feature", "properties": { "Field1": 17, "object_name": "Скейт-парк в Ломоносове возле СОШ №417", "website": "https://fk-ramps.ru/projects/skejt-park-v-lomonosove", "is_small_wheels": 1, "is_big_wheels": 1, "build_year": 2020, "material_type": "Каркас", "current_score": 0.0, "s_index_current": 0.0, "current_score_fact": 0, "future_score_2029": 0.0, "s_index_2029": 0.0, "condition_fact": "Аварийное", "area_sqm": 600, "hierarchy_level": "Районного значения", "access_mode": "Публичный", "shelter_type": "Под открытым небом", "manufacturer": "FK-ramps", "has_pump": "-", "Y": 59.901712, "X": 29.814964, "address": "улица Жоры Антоненко, 1, Ломоносов, Санкт-Петербург, 198411", "link_yandexmap": "https://yandex.ru/maps/-/CPQVIBpP" }, "geometry": { "type": "Point", "coordinates": [ 321864.983814391714986, 6644750.44080353807658 ] } },
{ "type": "Feature", "properties": { "Field1": 29, "object_name": "Скейт-парк в Молодежном", "website": "https://fk-ramps.ru/projects/skejt-park-v-molodezhnom-spb", "is_small_wheels": 1, "is_big_wheels": 1, "build_year": 2020, "material_type": "Каркас", "current_score": 0.0, "s_index_current": 0.0, "current_score_fact": 0, "future_score_2029": 0.0, "s_index_2029": 0.0, "condition_fact": "Неизвестно", "area_sqm": 800, "hierarchy_level": "Районного значения", "access_mode": "Публичный", "shelter_type": "Под открытым небом", "manufacturer": "FK-ramps", "has_pump": "-", "Y": 60.192814, "X": 29.510714, "address": "посёлок Молодёжное, Курортный район, Санкт-Петербург", "link_yandexmap": "https://yandex.ru/maps/-/CPQryAmr" }, "geometry": { "type": "Point", "coordinates": [ 306569.844984891242348, 6677997.814289904199541 ] } },
{ "type": "Feature", "properties": { "Field1": 48, "object_name": "Экстрим-кластер СПОТПОДМОСТОМ", "website": "https://fk-ramps.ru/projects/sportivnyj-klaster-spotpodmostom-v-peterburge", "is_small_wheels": 1, "is_big_wheels": 1, "build_year": 2020, "material_type": "Бетон", "current_score": 7.0, "s_index_current": 0.7, "current_score_fact": 8, "future_score_2029": 6.8, "s_index_2029": 6.8, "condition_fact": "Хорошее", "area_sqm": 3000, "hierarchy_level": "Городского значения", "access_mode": "Публичный", "shelter_type": "Частично крытый", "manufacturer": "FK-ramps", "has_pump": "Асфальт", "Y": 59.994618, "X": 30.300192, "address": "Коломяжский путепровод, Санкт-Петербург", "link_yandexmap": "https://yandex.ru/maps/-/CPQr4Mld" }, "geometry": { "type": "Point", "coordinates": [ 349414.36129426851403, 6653885.015583746135235 ] } },
{ "type": "Feature", "properties": { "Field1": 4, "object_name": "Двойная рампа на пр. Косыгина", "website": "https://fk-ramps.ru/projects/dvojnaya-rampa-na-pr-kosygina-spb", "is_small_wheels": 1, "is_big_wheels": 1, "build_year": 2021, "material_type": "Каркас", "current_score": 0.0, "s_index_current": 0.0, "current_score_fact": 5, "future_score_2029": 2.0, "s_index_2029": 2.0, "condition_fact": "Удовлетворительное", "area_sqm": 300, "hierarchy_level": "Местного значения", "access_mode": "Публичный", "shelter_type": "Под открытым небом", "manufacturer": "FK-ramps", "has_pump": "-", "Y": 59.941518, "X": 30.451432, "address": "муниципальный округ Пороховые, Красногвардейский район, Санкт-Петербург", "link_yandexmap": "https://yandex.ru/maps/-/CPQrFFPF" }, "geometry": { "type": "Point", "coordinates": [ 357619.357520119403489, 6647639.639381134882569 ] } },
{ "type": "Feature", "properties": { "Field1": 26, "object_name": "Бетонный скейт-парк в парке Боевого Братства", "website": "https://fk-ramps.ru/projects/betonnyj-skejtpark-ul-dzhona-rida-8a", "is_small_wheels": 1, "is_big_wheels": 0, "build_year": 2021, "material_type": "Бетон", "current_score": 7.5, "s_index_current": 0.75, "current_score_fact": 8, "future_score_2029": 6.8, "s_index_2029": 6.8, "condition_fact": "Хорошее", "area_sqm": 650, "hierarchy_level": "Районного значения", "access_mode": "Публичный", "shelter_type": "Под открытым небом", "manufacturer": "FK-ramps", "has_pump": "-", "Y": 59.919671, "X": 30.452041, "address": "муниципальный округ Правобережный, Невский район, Санкт-Петербург", "link_yandexmap": "https://yandex.ru/maps/-/CPQrQQZj" }, "geometry": { "type": "Point", "coordinates": [ 357559.717578659998253, 6645206.502219570800662 ] } },
{ "type": "Feature", "properties": { "Field1": 27, "object_name": "Бетонный скейт-парк в Красном Селе ", "website": "https://fk-ramps.ru/projects/betonnyj-skejtpark-v-krasnom-sele-ul-spirina-10a", "is_small_wheels": 1, "is_big_wheels": 0, "build_year": 2021, "material_type": "Бетон", "current_score": 7.5, "s_index_current": 0.75, "current_score_fact": 8, "future_score_2029": 6.8, "s_index_2029": 6.8, "condition_fact": "Хорошее", "area_sqm": 700, "hierarchy_level": "Районного значения", "access_mode": "Публичный", "shelter_type": "Под открытым небом", "manufacturer": "FK-ramps", "has_pump": "-", "Y": 59.742556, "X": 30.087573, "address": "Красное Село, Санкт-Петербург", "link_yandexmap": "https://yandex.ru/maps/-/CPQrQCot" }, "geometry": { "type": "Point", "coordinates": [ 336325.799435878871009, 6626335.166588745079935 ] } },
{ "type": "Feature", "properties": { "Field1": 28, "object_name": "Бетонный скейт-парк на ул. Комунны 47", "website": "https://fk-ramps.ru/projects/betonnyj-skejtpark-ul-kommuny-47", "is_small_wheels": 1, "is_big_wheels": 0, "build_year": 2021, "material_type": "Бетон", "current_score": 7.5, "s_index_current": 0.75, "current_score_fact": 8, "future_score_2029": 6.8, "s_index_2029": 6.8, "condition_fact": "Хорошее", "area_sqm": 700, "hierarchy_level": "Районного значения", "access_mode": "Публичный", "shelter_type": "Под открытым небом", "manufacturer": "FK-ramps", "has_pump": "-", "Y": 59.959628, "X": 30.492621, "address": "территория Пороховые, Санкт-Петербург", "link_yandexmap": "https://yandex.ru/maps/-/CPQrQJzz" }, "geometry": { "type": "Point", "coordinates": [ 359996.133022426452953, 6649567.628016670234501 ] } },
{ "type": "Feature", "properties": { "Field1": 23, "object_name": "Скейт-парк в парке Остров фортов", "website": "https://fk-ramps.ru/projects/skejtpark-ostrov-fortov-kronshtadt", "is_small_wheels": 1, "is_big_wheels": 1, "build_year": 2021, "material_type": "Каркас", "current_score": 0.0, "s_index_current": 0.0, "current_score_fact": 0, "future_score_2029": 0.0, "s_index_2029": 0.0, "condition_fact": "Аварийное", "area_sqm": 650, "hierarchy_level": "Районного значения", "access_mode": "Публичный", "shelter_type": "Под открытым небом", "manufacturer": "FK-ramps", "has_pump": "-", "Y": 59.994285, "X": 29.748366, "address": "Музейно-исторический парк Остров фортов, Кронштадт, Санкт-Петербург", "link_yandexmap": "https://yandex.ru/maps/-/CPUNJA5g" }, "geometry": { "type": "Point", "coordinates": [ 318648.78243827278493, 6655232.829743495211005 ] } },
{ "type": "Feature", "properties": { "Field1": 25, "object_name": "Бетонный скейт-парк возле ФОК Ветеранов", "website": "https://fk-ramps.ru/projects/betonnyj-skejtpark-pr-veteranov-58", "is_small_wheels": 1, "is_big_wheels": 1, "build_year": 2021, "material_type": "Бетон", "current_score": 7.5, "s_index_current": 0.75, "current_score_fact": 8, "future_score_2029": 6.8, "s_index_2029": 6.8, "condition_fact": "Хорошее", "area_sqm": 650, "hierarchy_level": "Районного значения", "access_mode": "Публичный", "shelter_type": "Под открытым небом", "manufacturer": "FK-ramps", "has_pump": "-", "Y": 59.837849, "X": 30.233771, "address": "муниципальный округ Ульянка, Кировский район, Санкт-Петербург", "link_yandexmap": "https://yandex.ru/maps/-/CPQrMPIb" }, "geometry": { "type": "Point", "coordinates": [ 344981.551482655457221, 6636589.44584296643734 ] } },
{ "type": "Feature", "properties": { "Field1": 30, "object_name": "Бетонный скейт-парк возле ФОК Антонова-Овсеенко", "website": "https://fk-ramps.ru/projects/betonnyj-skejtpark-ul-antonova-ovseenko-2a", "is_small_wheels": 1, "is_big_wheels": 1, "build_year": 2021, "material_type": "Бетон", "current_score": 7.5, "s_index_current": 0.75, "current_score_fact": 8, "future_score_2029": 6.8, "s_index_2029": 6.8, "condition_fact": "Хорошее", "area_sqm": 850, "hierarchy_level": "Районного значения", "access_mode": "Публичный", "shelter_type": "Под открытым небом", "manufacturer": "FK-ramps", "has_pump": "-", "Y": 59.906804, "X": 30.455793, "address": "муниципальный округ Невский, Невский район, Санкт-Петербург", "link_yandexmap": "https://yandex.ru/maps/-/CPQnv2pE" }, "geometry": { "type": "Point", "coordinates": [ 357714.333467984804884, 6643766.187174719758332 ] } },
{ "type": "Feature", "properties": { "Field1": 51, "object_name": "Экстрим-кластер в Металлострое", "website": "https://fk-ramps.ru/projects/betonnyj-skejt-park-v-metallostroe", "is_small_wheels": 1, "is_big_wheels": 1, "build_year": 2021, "material_type": "Бетон", "current_score": 7.5, "s_index_current": 0.75, "current_score_fact": 8, "future_score_2029": 6.8, "s_index_2029": 6.8, "condition_fact": "Хорошее", "area_sqm": 3500, "hierarchy_level": "Городского значения", "access_mode": "Публичный", "shelter_type": "Под открытым небом", "manufacturer": "FK-ramps", "has_pump": "Асфальт", "Y": 59.811887, "X": 30.55551, "address": "посёлок Металлострой, Колпинский район, Санкт-Петербург", "link_yandexmap": "https://yandex.ru/maps/-/CPQrYV1A" }, "geometry": { "type": "Point", "coordinates": [ 362899.25596739933826, 6632990.369057700037956 ] } },
{ "type": "Feature", "properties": { "Field1": 50, "object_name": "Экстрим-кластер под мостом Бетанкура", "website": "https://fk-ramps.ru/projects/betonnyj-boul-i-pamptrek-pod-mostom-betankura", "is_small_wheels": 1, "is_big_wheels": 1, "build_year": 2021, "material_type": "Комбинированный", "current_score": 4.0, "s_index_current": 0.5, "current_score_fact": 8, "future_score_2029": 5.6, "s_index_2029": 5.6, "condition_fact": "Хорошее", "area_sqm": 3200, "hierarchy_level": "Городского значения", "access_mode": "Публичный", "shelter_type": "Частично крытый", "manufacturer": "FK-ramps", "has_pump": "Асфальт", "Y": 59.958658, "X": 30.266853, "address": "мост Бетанкура, Санкт-Петербург", "link_yandexmap": "https://yandex.ru/maps/-/CPQrm6oX" }, "geometry": { "type": "Point", "coordinates": [ 347390.096342109085526, 6649958.897670915350318 ] } },
{ "type": "Feature", "properties": { "Field1": 37, "object_name": "Бетонный скейт-парк в Новоохтинском парке", "website": "https://fk-ramps.ru/projects/betonnyj-skejt-park-v-murino", "is_small_wheels": 1, "is_big_wheels": 0, "build_year": 2022, "material_type": "Бетон", "current_score": 8.0, "s_index_current": 0.8, "current_score_fact": 8, "future_score_2029": 6.8, "s_index_2029": 6.8, "condition_fact": "Хорошее", "area_sqm": 1470, "hierarchy_level": "Городского значения", "access_mode": "Публичный", "shelter_type": "Под открытым небом", "manufacturer": "-", "has_pump": "-", "Y": 60.03893, "X": 30.449608, "address": "Новоохтинский парк, Санкт-Петербург", "link_yandexmap": "https://yandex.ru/maps/-/CPQrMC4r" }, "geometry": { "type": "Point", "coordinates": [ 357935.720121183432639, 6658486.731032132171094 ] } },
{ "type": "Feature", "properties": { "Field1": 36, "object_name": "Бетонный скейт-парк в Нижне-Ивановском сквере", "website": "https://fk-ramps.ru/projects/betonnyj-skejt-park-na-ul-dobrovoltsev-spb", "is_small_wheels": 1, "is_big_wheels": 1, "build_year": 2022, "material_type": "Бетон", "current_score": 8.0, "s_index_current": 0.8, "current_score_fact": 8, "future_score_2029": 6.8, "s_index_2029": 6.8, "condition_fact": "Хорошее", "area_sqm": 1450, "hierarchy_level": "Городского значения", "access_mode": "Публичный", "shelter_type": "Под открытым небом", "manufacturer": "FK-ramps", "has_pump": "-", "Y": 59.836081, "X": 30.164364, "address": "Нижне-Ивановский сквер, Санкт-Петербург", "link_yandexmap": "https://yandex.ru/maps/-/CPQnzJ5n" }, "geometry": { "type": "Point", "coordinates": [ 341085.135908173280768, 6636557.135815137065947 ] } },
{ "type": "Feature", "properties": { "Field1": 40, "object_name": "Скейт-парк на Школьной улице", "website": "-", "is_small_wheels": 1, "is_big_wheels": 1, "build_year": 2022, "material_type": "Каркас", "current_score": 0.99999999999999978, "s_index_current": 0.2, "current_score_fact": 1, "future_score_2029": 0.4, "s_index_2029": 0.4, "condition_fact": "Аварийное", "area_sqm": 1700, "hierarchy_level": "Городского значения", "access_mode": "Публичный", "shelter_type": "Под открытым небом", "manufacturer": "FK-ramps", "has_pump": "-", "Y": 59.992842, "X": 30.203635, "address": "исторический район Северо-Приморская часть, Санкт-Петербург", "link_yandexmap": "https://yandex.ru/maps/-/CPQrNRZn" }, "geometry": { "type": "Point", "coordinates": [ 344022.497464029642288, 6653911.120430368930101 ] } },
{ "type": "Feature", "properties": { "Field1": 45, "object_name": "Скейт-парк на набережной Макарова", "website": "https://fk-ramps.ru/projects/skejtpark-na-naberezhnoj-makarova-spb", "is_small_wheels": 1, "is_big_wheels": 1, "build_year": 2022, "material_type": "Комбинированный", "current_score": 4.8, "s_index_current": 0.6, "current_score_fact": 8, "future_score_2029": 5.6, "s_index_2029": 5.6, "condition_fact": "Хорошее", "area_sqm": 2100, "hierarchy_level": "Городского значения", "access_mode": "Публичный", "shelter_type": "Частично крытый", "manufacturer": "FK-ramps", "has_pump": "-", "Y": 59.9588, "X": 30.235761, "address": "набережная Макарова, Санкт-Петербург", "link_yandexmap": "https://yandex.ru/maps/-/CPQr4P5r" }, "geometry": { "type": "Point", "coordinates": [ 345655.350671255670022, 6650046.82798579800874 ] } },
{ "type": "Feature", "properties": { "Field1": 15, "object_name": "Бетонный скейт-парк на ул. Сизова", "website": "https://fk-ramps.ru/projects/betonnyj-skejt-park-na-ul-sizova-spb", "is_small_wheels": 1, "is_big_wheels": 0, "build_year": 2022, "material_type": "Бетон", "current_score": 8.0, "s_index_current": 0.8, "current_score_fact": 8, "future_score_2029": 6.8, "s_index_2029": 6.8, "condition_fact": "Хорошее", "area_sqm": 540, "hierarchy_level": "Районного значения", "access_mode": "Публичный", "shelter_type": "Под открытым небом", "manufacturer": "-", "has_pump": "-", "Y": 60.003965, "X": 30.272545, "address": "проспект Сизова, Санкт-Петербург", "link_yandexmap": "https://yandex.ru/maps/-/CPQrEMLx" }, "geometry": { "type": "Point", "coordinates": [ 347915.811659851693548, 6654988.649564521387219 ] } },
{ "type": "Feature", "properties": { "Field1": 18, "object_name": "Скейт-парк в Петро-Славянке", "website": "https://fk-ramps.ru/projects/skejtpark-v-petro-slavyanke-spb", "is_small_wheels": 1, "is_big_wheels": 1, "build_year": 2022, "material_type": "Каркас", "current_score": 0.99999999999999978, "s_index_current": 0.2, "current_score_fact": 1, "future_score_2029": 0.4, "s_index_2029": 0.4, "condition_fact": "Неизвестно", "area_sqm": 600, "hierarchy_level": "Районного значения", "access_mode": "Публичный", "shelter_type": "Под открытым небом", "manufacturer": "FK-ramps", "has_pump": "-", "Y": 59.800764, "X": 30.516606, "address": "посёлок Петро-Славянка, Колпинский район, Санкт-Петербург", "link_yandexmap": "https://yandex.ru/maps/-/CPQrFMMB" }, "geometry": { "type": "Point", "coordinates": [ 360671.557914158678614, 6631833.369552000425756 ] } },
{ "type": "Feature", "properties": { "Field1": 20, "object_name": "Скейт-парк возле Газпром Арены", "website": "https://fk-ramps.ru/projects/skejt-park-vozle-gazprom-areny", "is_small_wheels": 1, "is_big_wheels": 1, "build_year": 2022, "material_type": "Каркас", "current_score": 1.0, "s_index_current": 0.2, "current_score_fact": 8, "future_score_2029": 3.2, "s_index_2029": 3.2, "condition_fact": "Хорошее", "area_sqm": 600, "hierarchy_level": "Районного значения", "access_mode": "Публичный", "shelter_type": "Частично крытый", "manufacturer": "FK-ramps", "has_pump": "-", "Y": 59.969695, "X": 30.222689, "address": "Южная дорога, Санкт-Петербург", "link_yandexmap": "https://yandex.ru/maps/-/CPQrVR10" }, "geometry": { "type": "Point", "coordinates": [ 344976.671020358335227, 6651290.028677118010819 ] } },
{ "type": "Feature", "properties": { "Field1": 38, "object_name": "Экстрим-кластер в Пушкине", "website": "https://fk-ramps.ru/projects/skejt-park-i-pamp-trek-v-pushkine", "is_small_wheels": 1, "is_big_wheels": 1, "build_year": 2022, "material_type": "Бетон", "current_score": 8.0, "s_index_current": 0.8, "current_score_fact": 8, "future_score_2029": 6.8, "s_index_2029": 6.8, "condition_fact": "Хорошее", "area_sqm": 1485, "hierarchy_level": "Городского значения", "access_mode": "Публичный", "shelter_type": "Под открытым небом", "manufacturer": "FK-ramps", "has_pump": "Асфальт", "Y": 59.735508, "X": 30.422185, "address": "Пушкин, Санкт-Петербург", "link_yandexmap": "https://yandex.ru/maps/-/CPQrI-5b" }, "geometry": { "type": "Point", "coordinates": [ 355093.350900928257033, 6624772.12444063834846 ] } },
{ "type": "Feature", "properties": { "Field1": 31, "object_name": "Скейт-парк на пр. Стачек", "website": "https://fk-ramps.ru/projects/derevyannyj-skejt-park-na-pr-stachek-spb", "is_small_wheels": 1, "is_big_wheels": 1, "build_year": 2022, "material_type": "Каркас", "current_score": 0.99999999999999978, "s_index_current": 0.2, "current_score_fact": 5, "future_score_2029": 2.0, "s_index_2029": 2.0, "condition_fact": "Удовлетворительное", "area_sqm": 900, "hierarchy_level": "Районного значения", "access_mode": "Публичный", "shelter_type": "Частично крытый", "manufacturer": "FK-ramps", "has_pump": "Каркасный", "Y": 59.864934, "X": 30.261232, "address": "Санкт-Петербург, Ново-Автовский путепровод", "link_yandexmap": "https://yandex.ru/maps/-/CPQV5RYM" }, "geometry": { "type": "Point", "coordinates": [ 346644.574628899223171, 6639540.119720111601055 ] } },
{ "type": "Feature", "properties": { "Field1": 35, "object_name": "Памп-трек на Оптиков", "website": "https://fk-ramps.ru/projects/pamp-trek-fk-ramps-na-ul-optikov-peterburg", "is_small_wheels": 1, "is_big_wheels": 1, "build_year": 2023, "material_type": "Бетон", "current_score": 8.5, "s_index_current": 0.85, "current_score_fact": 8, "future_score_2029": 7.225, "s_index_2029": 7.225, "condition_fact": "Хорошее", "area_sqm": 1400, "hierarchy_level": "Городского значения", "access_mode": "Публичный", "shelter_type": "Под открытым небом", "manufacturer": "FK-ramps", "has_pump": "-", "Y": 59.998553, "X": 30.232877, "address": "исторический район Северо-Приморская часть, Санкт-Петербург", "link_yandexmap": "https://yandex.ru/maps/-/CPQneP5X" }, "geometry": { "type": "Point", "coordinates": [ 345679.545303653983865, 6654478.16756971552968 ] } },
{ "type": "Feature", "properties": { "Field1": 8, "object_name": "Скейт-парк в ЖК Чистое Небо", "website": "-", "is_small_wheels": 1, "is_big_wheels": 0, "build_year": 2023, "material_type": "Каркас", "current_score": 1.9999999999999996, "s_index_current": 0.4, "current_score_fact": 1, "future_score_2029": 0.4, "s_index_2029": 0.4, "condition_fact": "Аварийное", "area_sqm": 400, "hierarchy_level": "Местного значения", "access_mode": "Публичный", "shelter_type": "Под открытым небом", "manufacturer": "-", "has_pump": "-", "Y": 60.040377, "X": 30.227714, "address": "жилой комплекс Чистое Небо, муниципальный округ Коломяги, Приморский район, Санкт-Петербург", "link_yandexmap": "https://yandex.ru/maps/-/CPQrBZ42" }, "geometry": { "type": "Point", "coordinates": [ 345586.975872094393708, 6659145.353972746990621 ] } },
{ "type": "Feature", "properties": { "Field1": 9, "object_name": "Скейт-парк в ЖК ЦДС Московский", "website": "-", "is_small_wheels": 1, "is_big_wheels": 0, "build_year": 2023, "material_type": "Каркас", "current_score": 1.9999999999999996, "s_index_current": 0.4, "current_score_fact": 2, "future_score_2029": 0.8, "s_index_2029": 0.8, "condition_fact": "Неизвестно", "area_sqm": 400, "hierarchy_level": "Местного значения", "access_mode": "Публичный", "shelter_type": "Под открытым небом", "manufacturer": "-", "has_pump": "-", "Y": 59.813996, "X": 30.345474, "address": "Пулковское шоссе, 42к9", "link_yandexmap": "https://yandex.ru/maps/-/CPQjvIjB" }, "geometry": { "type": "Point", "coordinates": [ 351132.666291464411188, 6633678.346910233609378 ] } },
{ "type": "Feature", "properties": { "Field1": 22, "object_name": "Бетонный скейт-парк в Стрельне", "website": "https://fk-ramps.ru/projects/betonnyj-skejtpark-v-strelne-spb", "is_small_wheels": 1, "is_big_wheels": 0, "build_year": 2023, "material_type": "Бетон", "current_score": 8.5, "s_index_current": 0.85, "current_score_fact": 8, "future_score_2029": 7.225, "s_index_2029": 7.225, "condition_fact": "Хорошее", "area_sqm": 600, "hierarchy_level": "Районного значения", "access_mode": "Публичный", "shelter_type": "Под открытым небом", "manufacturer": "FK-ramps", "has_pump": "-", "Y": 59.854509, "X": 30.007471, "address": "посёлок Стрельна, Петродворцовый район, Санкт-Петербург", "link_yandexmap": "https://yandex.ru/maps/-/CPQn72ZB" }, "geometry": { "type": "Point", "coordinates": [ 332389.090318245464005, 6638994.790200780145824 ] } },
{ "type": "Feature", "properties": { "Field1": 24, "object_name": "Скейт-парк в Петергофе", "website": "https://fk-ramps.ru/projects/karkasnyj-skejt-park-na-ul-razvodnoj-v-petergofe", "is_small_wheels": 1, "is_big_wheels": 1, "build_year": 2023, "material_type": "Каркас", "current_score": 1.9999999999999996, "s_index_current": 0.4, "current_score_fact": 5, "future_score_2029": 2.0, "s_index_2029": 2.0, "condition_fact": "Удовлетворительное", "area_sqm": 650, "hierarchy_level": "Районного значения", "access_mode": "Публичный", "shelter_type": "Под открытым небом", "manufacturer": "FK-ramps", "has_pump": "-", "Y": 59.875129, "X": 29.894677, "address": "Петергоф, Санкт-Петербург", "link_yandexmap": "https://yandex.ru/maps/-/CPQry0me" }, "geometry": { "type": "Point", "coordinates": [ 326182.198812117916532, 6641580.32257841899991 ] } },
{ "type": "Feature", "properties": { "Field1": 43, "object_name": "Экстрим-кластер в парке Авиаторов", "website": "https://fk-ramps.ru/projects/skejtpark-i-pamptrek-v-parke-aviatorov-spb", "is_small_wheels": 1, "is_big_wheels": 1, "build_year": 2023, "material_type": "Комбинированный", "current_score": 5.6, "s_index_current": 0.7, "current_score_fact": 8, "future_score_2029": 5.6, "s_index_2029": 5.6, "condition_fact": "Хорошее", "area_sqm": 1970, "hierarchy_level": "Городского значения", "access_mode": "Публичный", "shelter_type": "Под открытым небом", "manufacturer": "FK-ramps", "has_pump": "Асфальт", "Y": 59.865998, "X": 30.297569, "address": "парк Авиаторов, Санкт-Петербург", "link_yandexmap": " https://yandex.ru/maps/-/CPQVVRyl" }, "geometry": { "type": "Point", "coordinates": [ 348683.320708443992771, 6639574.960121719166636 ] } },
{ "type": "Feature", "properties": { "Field1": 52, "object_name": "Экстрим-кластер в парке 300-летия", "website": "https://fk-ramps.ru/projects/park-300-letiya", "is_small_wheels": 1, "is_big_wheels": 1, "build_year": 2023, "material_type": "Комбинированный", "current_score": 5.6, "s_index_current": 0.7, "current_score_fact": 8, "future_score_2029": 5.6, "s_index_2029": 5.6, "condition_fact": "Хорошее", "area_sqm": 4000, "hierarchy_level": "Городского значения", "access_mode": "Публичный", "shelter_type": "Под открытым небом", "manufacturer": "FK-ramps", "has_pump": "Асфальт", "Y": 59.982688, "X": 30.198243, "address": "парк имени 300-летия Санкт-Петербурга, Санкт-Петербург", "link_yandexmap": "https://yandex.ru/maps/-/CPQreB95" }, "geometry": { "type": "Point", "coordinates": [ 343673.966135243477765, 6652793.698888146318495 ] } },
{ "type": "Feature", "properties": { "Field1": 54, "object_name": "Экстрим-кластер в Харламовом сквере, Колпино", "website": "-", "is_small_wheels": 1, "is_big_wheels": 1, "build_year": 2023, "material_type": "Бетон", "current_score": 8.5, "s_index_current": 0.85, "current_score_fact": 5, "future_score_2029": 4.25, "s_index_2029": 4.25, "condition_fact": "Удовлетворительное", "area_sqm": 5000, "hierarchy_level": "Городского значения", "access_mode": "Публичный", "shelter_type": "Под открытым небом", "manufacturer": "-", "has_pump": "Асфальт", "Y": 59.736964, "X": 30.626203, "address": "Харламов сквер, Колпино, Санкт-Петербург", "link_yandexmap": "https://yandex.ru/maps/-/CPQrUPpP" }, "geometry": { "type": "Point", "coordinates": [ 366564.244757407461293, 6624506.037530590780079 ] } },
{ "type": "Feature", "properties": { "Field1": 44, "object_name": "Скейт-парк под Поклонногорским путепроводом", "website": "https://fk-ramps.ru/projects/skejt-park-pod-poklonnogorskim-mostom-spb", "is_small_wheels": 1, "is_big_wheels": 1, "build_year": 2023, "material_type": "Каркас", "current_score": 1.9999999999999996, "s_index_current": 0.4, "current_score_fact": 8, "future_score_2029": 3.2, "s_index_2029": 3.2, "condition_fact": "Хорошее", "area_sqm": 2000, "hierarchy_level": "Городского значения", "access_mode": "Публичный", "shelter_type": "Частично крытый", "manufacturer": "FK-ramps", "has_pump": "Каркасный", "Y": 60.025878, "X": 30.309852, "address": "Поклонногорский путепровод, Санкт-Петербург", "link_yandexmap": "https://yandex.ru/maps/-/CPQrVIZ7" }, "geometry": { "type": "Point", "coordinates": [ 350094.561540727736428, 6657342.501286894083023 ] } },
{ "type": "Feature", "properties": { "Field1": 49, "object_name": "Экстрим-кластер под мостом Непокоренных", "website": "https://fk-ramps.ru/projects/ekstrim-klaster-pod-mostom-nepokorennyh", "is_small_wheels": 1, "is_big_wheels": 1, "build_year": 2024, "material_type": "Комбинированный", "current_score": 6.4, "s_index_current": 0.8, "current_score_fact": 8, "future_score_2029": 5.6, "s_index_2029": 5.6, "condition_fact": "Хорошее", "area_sqm": 3100, "hierarchy_level": "Городского значения", "access_mode": "Публичный", "shelter_type": "Частично крытый", "manufacturer": "FK-ramps", "has_pump": "-", "Y": 59.991907, "X": 30.43212, "address": "Ново-Шафировский путепровод, Санкт-Петербург", "link_yandexmap": "https://yandex.ru/maps/-/CPQraQ12" }, "geometry": { "type": "Point", "coordinates": [ 356758.586931049940176, 6653290.214524455368519 ] } },
{ "type": "Feature", "properties": { "Field1": 1, "object_name": "Скейт-парк в Осиновой Роще", "website": "-", "is_small_wheels": 1, "is_big_wheels": 0, "build_year": 2024, "material_type": "Каркас", "current_score": 3.0, "s_index_current": 0.6, "current_score_fact": 8, "future_score_2029": 3.2, "s_index_2029": 3.2, "condition_fact": "Хорошее", "area_sqm": 150, "hierarchy_level": "Местного значения", "access_mode": "Публичный", "shelter_type": "Под открытым небом", "manufacturer": "FK-ramps", "has_pump": "-", "Y": 60.10512, "X": 30.261821, "address": "исторический район Осиновая Роща, посёлок Парголово, Санкт-Петербург", "link_yandexmap": "https://yandex.ru/maps/-/CPQr5PZV" }, "geometry": { "type": "Point", "coordinates": [ 347784.659477053210139, 6666272.401545880362391 ] } },
{ "type": "Feature", "properties": { "Field1": 11, "object_name": "Скейт-парк в Павловске", "website": "https://fk-ramps.ru/projects/karkasnyj-skejt-park-v-pavlovske", "is_small_wheels": 1, "is_big_wheels": 0, "build_year": 2024, "material_type": "Каркас", "current_score": 3.0, "s_index_current": 0.6, "current_score_fact": 8, "future_score_2029": 3.2, "s_index_2029": 3.2, "condition_fact": "Хорошее", "area_sqm": 400, "hierarchy_level": "Местного значения", "access_mode": "Публичный", "shelter_type": "Под открытым небом", "manufacturer": "FK-ramps", "has_pump": "-", "Y": 59.684638, "X": 30.444319, "address": "улица Просвещения, Павловск, Пушкинский район, Санкт-Петербург", "link_yandexmap": "https://yandex.ru/maps/-/CPQrBH1R" }, "geometry": { "type": "Point", "coordinates": [ 356118.929996296879835, 6619061.709386643953621 ] } },
{ "type": "Feature", "properties": { "Field1": 32, "object_name": "Скейт-парк на Елагином острове", "website": "-", "is_small_wheels": 1, "is_big_wheels": 0, "build_year": 2024, "material_type": "Каркас", "current_score": 3.0, "s_index_current": 0.6, "current_score_fact": 8, "future_score_2029": 3.2, "s_index_2029": 3.2, "condition_fact": "Хорошее", "area_sqm": 900, "hierarchy_level": "Районного значения", "access_mode": "Публичный", "shelter_type": "Под открытым небом", "manufacturer": "-", "has_pump": "-", "Y": 59.980223, "X": 30.25285, "address": "Елагин остров, Санкт-Петербург", "link_yandexmap": "https://yandex.ru/maps/-/CPQrND21" }, "geometry": { "type": "Point", "coordinates": [ 346708.225288720102981, 6652391.535829939879477 ] } },
{ "type": "Feature", "properties": { "Field1": 13, "object_name": "Скейт-парк в Зеленогорском парке культуры и отдыха", "website": "https://fk-ramps.ru/projects/karkasnyj-skejt-park-v-zelenogorske", "is_small_wheels": 1, "is_big_wheels": 1, "build_year": 2024, "material_type": "Каркас", "current_score": 3.0, "s_index_current": 0.6, "current_score_fact": 8, "future_score_2029": 3.2, "s_index_2029": 3.2, "condition_fact": "Хорошее", "area_sqm": 500, "hierarchy_level": "Районного значения", "access_mode": "Публичный", "shelter_type": "Под открытым небом", "manufacturer": "FK-ramps", "has_pump": "-", "Y": 60.191489, "X": 29.697314, "address": "Зеленогорский парк культуры и отдыха, Зеленогорск, Санкт-Петербург", "link_yandexmap": "https://yandex.ru/maps/-/CPQruQ9m" }, "geometry": { "type": "Point", "coordinates": [ 316900.751886729965918, 6677318.051647025160491 ] } },
{ "type": "Feature", "properties": { "Field1": 14, "object_name": "Памп-трек в Александровской", "website": "https://fk-ramps.ru/projects/asfaltovyj-pamp-trek-v-aleksandrovskoj", "is_small_wheels": 1, "is_big_wheels": 1, "build_year": 2024, "material_type": "Бетон", "current_score": 9.0, "s_index_current": 0.9, "current_score_fact": 9, "future_score_2029": 7.65, "s_index_2029": 7.65, "condition_fact": "Хорошее", "area_sqm": 510, "hierarchy_level": "Районного значения", "access_mode": "Публичный", "shelter_type": "Под открытым небом", "manufacturer": "FK-ramps", "has_pump": "-", "Y": 59.733833, "X": 30.323658, "address": "Санкт-Петербург, Пушкинский район, посёлок Александровская", "link_yandexmap": "https://yandex.ru/maps/-/CPQn4Tl7" }, "geometry": { "type": "Point", "coordinates": [ 349549.274190462077968, 6624805.103780853562057 ] } },
{ "type": "Feature", "properties": { "Field1": 34, "object_name": "Скейт-парк на СКА арене", "website": "https://fk-ramps.ru/projects/betonnyj-skejtpark-ska-arena", "is_small_wheels": 1, "is_big_wheels": 1, "build_year": 2024, "material_type": "Бетон", "current_score": 9.0, "s_index_current": 0.9, "current_score_fact": 9, "future_score_2029": 7.65, "s_index_2029": 7.65, "condition_fact": "Хорошее", "area_sqm": 1000, "hierarchy_level": "Районного значения", "access_mode": "Публичный", "shelter_type": "Под открытым небом", "manufacturer": "FK-ramps", "has_pump": "-", "Y": 59.865376, "X": 30.346149, "address": "муниципальный округ Гагаринское, Московский район, Санкт-Петербург", "link_yandexmap": "https://yandex.ru/maps/-/CPQnvCL4" }, "geometry": { "type": "Point", "coordinates": [ 351399.701616632402875, 6639395.724688906222582 ] } },
{ "type": "Feature", "properties": { "Field1": 42, "object_name": "Экстрим-кластер в Сестрорецке", "website": "https://fk-ramps.ru/projects/ekstrim-klaster-v-sestroretske-spb", "is_small_wheels": 1, "is_big_wheels": 1, "build_year": 2024, "material_type": "Комбинированный", "current_score": 6.4, "s_index_current": 0.8, "current_score_fact": 8, "future_score_2029": 5.6, "s_index_2029": 5.6, "condition_fact": "Хорошее", "area_sqm": 1913, "hierarchy_level": "Городского значения", "access_mode": "Публичный", "shelter_type": "Под открытым небом", "manufacturer": "FK-ramps", "has_pump": "Асфальт", "Y": 60.106286, "X": 29.978908, "address": "Сестрорецк, Санкт-Петербург", "link_yandexmap": "https://yandex.ru/maps/-/CPQrmNNx" }, "geometry": { "type": "Point", "coordinates": [ 332070.461118555394933, 6667087.699412535876036 ] } },
{ "type": "Feature", "properties": { "Field1": 53, "object_name": "Экстрим-кластер в Колпино", "website": "https://fk-ramps.ru/projects/ekstrim-klaster-v-kolpino", "is_small_wheels": 1, "is_big_wheels": 1, "build_year": 2024, "material_type": "Комбинированный", "current_score": 6.4, "s_index_current": 0.8, "current_score_fact": 8, "future_score_2029": 5.6, "s_index_2029": 5.6, "condition_fact": "Хорошее", "area_sqm": 4000, "hierarchy_level": "Городского значения", "access_mode": "Публичный", "shelter_type": "Под открытым небом", "manufacturer": "FK-ramps", "has_pump": "Асфальт", "Y": 59.739389, "X": 30.587369, "address": "Колпино, Санкт-Петербург", "link_yandexmap": "https://yandex.ru/maps/-/CPQraC1X" }, "geometry": { "type": "Point", "coordinates": [ 364391.763293677126057, 6624854.752889606170356 ] } },
{ "type": "Feature", "properties": { "Field1": 55, "object_name": "Экстрим-кластер под Дунайским путепроводом", "website": "-", "is_small_wheels": 1, "is_big_wheels": 1, "build_year": 2024, "material_type": "Комбинированный", "current_score": 6.4, "s_index_current": 0.8, "current_score_fact": 5, "future_score_2029": 3.5, "s_index_2029": 3.5, "condition_fact": "Удовлетворительное", "area_sqm": 6000, "hierarchy_level": "Городского значения", "access_mode": "Публичный", "shelter_type": "Частично крытый", "manufacturer": "-", "has_pump": "Асфальт", "Y": 59.834019, "X": 30.376288, "address": "Дунайский путепровод", "link_yandexmap": "https://yandex.ru/maps/-/CPQnq2JW" }, "geometry": { "type": "Point", "coordinates": [ 352948.421170999878086, 6635838.218000685796142 ] } },
{ "type": "Feature", "properties": { "Field1": 33, "object_name": "Скейт-парк в ЖК Юнтолово", "website": "-", "is_small_wheels": 1, "is_big_wheels": 1, "build_year": 2024, "material_type": "Комбинированный", "current_score": 6.4, "s_index_current": 0.8, "current_score_fact": 8, "future_score_2029": 5.6, "s_index_2029": 5.6, "condition_fact": "Хорошее", "area_sqm": 1000, "hierarchy_level": "Районного значения", "access_mode": "Публичный", "shelter_type": "Под открытым небом", "manufacturer": "FK-ramps", "has_pump": "Асфальт", "Y": 60.031432, "X": 30.135399, "address": "жилой комплекс Юнтолово, муниципальный округ Лахта-Ольгино, Приморский район, Санкт-Петербург", "link_yandexmap": "https://yandex.ru/maps/-/CPQrV80V" }, "geometry": { "type": "Point", "coordinates": [ 340404.096417242079042, 6658369.010417148470879 ] } },
{ "type": "Feature", "properties": { "Field1": 47, "object_name": "Экстрим-кластер в Горелово", "website": "https://fk-ramps.ru/projects/karkasnyj-skejt-park-v-gorelovo", "is_small_wheels": 1, "is_big_wheels": 1, "build_year": 2024, "material_type": "Каркас", "current_score": 3.0, "s_index_current": 0.6, "current_score_fact": 3, "future_score_2029": 1.2, "s_index_2029": 1.2, "condition_fact": "Неизвестно", "area_sqm": 2700, "hierarchy_level": "Городского значения", "access_mode": "Публичный", "shelter_type": "Под открытым небом", "manufacturer": "FK-ramps", "has_pump": "Каркасный", "Y": 59.785992, "X": 30.152055, "address": "исторический район Сосновка, Красносельский район, Санкт-Петербур", "link_yandexmap": "https://yandex.ru/maps/-/CPQruZZ4" }, "geometry": { "type": "Point", "coordinates": [ 340155.882025356113445, 6631011.999267508275807 ] } },
{ "type": "Feature", "properties": { "Field1": 41, "object_name": "Скейт-парк на Дунайском проспекте", "website": "https://fk-ramps.ru/projects/karkasnyj-skejt-park-na-pulkovskom-shosse", "is_small_wheels": 1, "is_big_wheels": 1, "build_year": 2024, "material_type": "Каркас", "current_score": 3.0, "s_index_current": 0.6, "current_score_fact": 8, "future_score_2029": 3.2, "s_index_2029": 3.2, "condition_fact": "Хорошее", "area_sqm": 1900, "hierarchy_level": "Городского значения", "access_mode": "Публичный", "shelter_type": "Частично крытый", "manufacturer": "FK-ramps", "has_pump": "Каркасный", "Y": 59.830337, "X": 30.32119, "address": "Дунайский проспект, Санкт-Петербург", "link_yandexmap": "https://yandex.ru/maps/-/CPQrRWZP" }, "geometry": { "type": "Point", "coordinates": [ 349844.860264643852133, 6635551.982430462725461 ] } },
{ "type": "Feature", "properties": { "Field1": 5, "object_name": "Скейт-парк в ЖК Северная Долина", "website": "-", "is_small_wheels": 1, "is_big_wheels": 0, "build_year": 2024, "material_type": "Каркас", "current_score": 3.0, "s_index_current": 0.6, "current_score_fact": 8, "future_score_2029": 3.2, "s_index_2029": 3.2, "condition_fact": "Хорошее", "area_sqm": 300, "hierarchy_level": "Местного значения", "access_mode": "Публичный", "shelter_type": "Под открытым небом", "manufacturer": "-", "has_pump": "Каркасный", "Y": 60.085005, "X": 30.34719, "address": "жилой комплекс Северная Долина, посёлок Парголово, Санкт-Петербург", "link_yandexmap": "https://yandex.ru/maps/-/CPQr5CmP" }, "geometry": { "type": "Point", "coordinates": [ 352438.659323358209804, 6663839.788524872623384 ] } },
{ "type": "Feature", "properties": { "Field1": 39, "object_name": "Бетонный скейт-парк на Передовиков", "website": "https://fk-ramps.ru/projects/betonnyj-skejt-park-na-peredovikov-spb", "is_small_wheels": 1, "is_big_wheels": 1, "build_year": 2025, "material_type": "Бетон", "current_score": 9.5, "s_index_current": 0.95, "current_score_fact": 9, "future_score_2029": 8.075, "s_index_2029": 8.075, "condition_fact": "Хорошее", "area_sqm": 1600, "hierarchy_level": "Городского значения", "access_mode": "Публичный", "shelter_type": "Под открытым небом", "manufacturer": "FK-ramps", "has_pump": "-", "Y": 59.945093, "X": 30.457775, "address": "исторический район Малиновка, Красногвардейский район, Санкт-Петербург", "link_yandexmap": "https://yandex.ru/maps/-/CPQnvYJn" }, "geometry": { "type": "Point", "coordinates": [ 357988.897815873206127, 6648023.950116734020412 ] } },
{ "type": "Feature", "properties": { "Field1": 2, "object_name": "Скейт-парк в Колпино", "website": "-", "is_small_wheels": 1, "is_big_wheels": 0, "build_year": 2025, "material_type": "Каркас", "current_score": 4.0, "s_index_current": 0.8, "current_score_fact": 8, "future_score_2029": 3.2, "s_index_2029": 3.2, "condition_fact": "Хорошее", "area_sqm": 270, "hierarchy_level": "Местного значения", "access_mode": "Публичный", "shelter_type": "Под открытым небом", "manufacturer": "FK-ramps", "has_pump": "-", "Y": 59.752161, "X": 30.575237, "address": "Колпино, Санкт-Петербург", "link_yandexmap": "https://yandex.ru/maps/-/CPQrRN2n" }, "geometry": { "type": "Point", "coordinates": [ 363762.055395130068064, 6626301.330659094266593 ] } },
{ "type": "Feature", "properties": { "Field1": 46, "object_name": "Экстрим-кластер в Кронштадте", "website": "https://fk-ramps.ru/projects/ekstrim-klaster-v-kronshtadte", "is_small_wheels": 1, "is_big_wheels": 1, "build_year": 2025, "material_type": "Комбинированный", "current_score": 7.2, "s_index_current": 0.9, "current_score_fact": 8, "future_score_2029": 5.6, "s_index_2029": 5.6, "condition_fact": "Хорошее", "area_sqm": 2380, "hierarchy_level": "Городского значения", "access_mode": "Публичный", "shelter_type": "Под открытым небом", "manufacturer": "FK-ramps", "has_pump": "Асфальт", "Y": 60.005847, "X": 29.761286, "address": "остров Котлин, Кронштадт, Санкт-Петербург", "link_yandexmap": "https://yandex.ru/maps/-/CPQri2-f" }, "geometry": { "type": "Point", "coordinates": [ 319432.026860282639973, 6656484.072374744340777 ] } }
]
}
