{
"type": "FeatureCollection",
"name": "Isochrons_1500m",
"crs": { "type": "name", "properties": { "name": "urn:ogc:def:crs:EPSG::32636" } },
"features": [
{ "type": "Feature", "properties": { "ID": null, "CENTER_LON": "30.261773994276457", "CENTER_LAT": "60.10518072402721", "AA_METERS": 1500, "AA_MODE": "foot-hiking", "TOTAL_POP": "1139", "lead_id": 0 }, "geometry": { "type": "MultiPolygon", "coordinates": [ [ [ [ 346634.060771124437451, 6666917.142812737263739 ], [ 346751.989094595890492, 6667252.845688357949257 ], [ 347003.712679082993418, 6667505.478866077959538 ], [ 347108.12146205373574, 6667589.991234444081783 ], [ 347116.051342894788831, 6667593.340271133929491 ], [ 347354.047169266676065, 6667689.689401711337268 ], [ 347381.969002683530562, 6667696.109769831411541 ], [ 347617.390929979272187, 6667708.067188532091677 ], [ 347808.571541780838743, 6667685.08031664788723 ], [ 347827.76336275076028, 6667682.27738721575588 ], [ 348123.404777902294882, 6667507.800829181447625 ], [ 348398.60545220784843, 6667423.836861819960177 ], [ 348456.194201084668748, 6667387.340376360341907 ], [ 348680.857735124125611, 6667239.368862416595221 ], [ 348942.674214025144465, 6666982.289924364537001 ], [ 349061.66889210959198, 6666900.016797515563667 ], [ 349194.382002561120316, 6666773.589741858653724 ], [ 349270.088501011079643, 6666665.56368659902364 ], [ 349273.156154296651948, 6666652.169874131679535 ], [ 349256.917050084972288, 6666541.342251667752862 ], [ 349186.3230676028179, 6666372.874785745516419 ], [ 349025.66656911931932, 6665962.26506485696882 ], [ 348792.258890897617675, 6665744.754807284101844 ], [ 348628.267573503078893, 6665628.978387255221605 ], [ 348410.760718852980062, 6665515.863508104346693 ], [ 348392.825453210272826, 6665521.06376741360873 ], [ 348307.184651648625731, 6665590.829066780395806 ], [ 348024.120269823935814, 6665342.858671560883522 ], [ 348006.500645824708045, 6665363.768708688206971 ], [ 347921.950036466121674, 6665462.487101431004703 ], [ 347688.065746592415962, 6665472.180507537908852 ], [ 347577.49568908062065, 6665316.658605813980103 ], [ 347496.89594897913048, 6665109.386751017533243 ], [ 347468.135495857801288, 6665100.657862489111722 ], [ 347434.705107026151381, 6665098.813010448589921 ], [ 347277.57540260348469, 6665123.071728492155671 ], [ 347269.83941580564715, 6665131.198250072076917 ], [ 347265.929517562617548, 6665142.956586099229753 ], [ 347095.863356659712736, 6665521.097784262150526 ], [ 346917.901935486064758, 6665670.226427438668907 ], [ 346921.668882531288546, 6665689.804561956785619 ], [ 346939.509447062388062, 6665753.172283589839935 ], [ 346996.254524539574049, 6665920.507368590682745 ], [ 346773.446378772961907, 6666373.674691646359861 ], [ 346717.852762817172334, 6666324.706197024323046 ], [ 346606.280932630994357, 6666012.48687782138586 ], [ 346603.853865226963535, 6666010.358305653557181 ], [ 346498.971067514852621, 6666046.29606700129807 ], [ 346497.480463347863406, 6666049.257361913099885 ], [ 346498.93375585146714, 6666336.975501554086804 ], [ 346479.465554203023203, 6666732.607917678542435 ], [ 346634.060771124437451, 6666917.142812737263739 ] ] ] ] } },
{ "type": "Feature", "properties": { "ID": null, "CENTER_LON": "30.231576292518895", "CENTER_LAT": "60.074133904879574", "AA_METERS": 1500, "AA_MODE": "foot-hiking", "TOTAL_POP": "978", "lead_id": 1 }, "geometry": { "type": "MultiPolygon", "coordinates": [ [ [ [ 344611.880420529516414, 6663233.768671855330467 ], [ 344619.232280925032683, 6663271.925861919298768 ], [ 344783.666148437710945, 6663318.609567114152014 ], [ 344952.386658670031466, 6663548.873160341754556 ], [ 344990.687169157899916, 6663553.501419727690518 ], [ 345029.047865963133518, 6663558.239034577272832 ], [ 345037.852362826815806, 6663556.975736934691668 ], [ 345364.272518322221003, 6663597.191489047370851 ], [ 345469.055159970535897, 6663626.23365428391844 ], [ 345573.831329993787222, 6663655.167480698786676 ], [ 345678.610386514221318, 6663684.215574964880943 ], [ 345783.332040976616554, 6663713.268967515788972 ], [ 346045.292161095305346, 6664050.384759112261236 ], [ 346062.109287540602963, 6664074.209948565810919 ], [ 346373.04202058527153, 6663880.121583227999508 ], [ 346416.740868595137727, 6663892.78956897649914 ], [ 346519.606973092537373, 6663865.745592315681279 ], [ 346660.712906647240743, 6663839.338507553562522 ], [ 346829.767332306189928, 6663812.552265053614974 ], [ 346882.559908133291174, 6663789.501853549852967 ], [ 347007.966047902358696, 6663620.042245860211551 ], [ 347199.905202193767764, 6663442.691710849292576 ], [ 347289.899819448823109, 6663369.599718429148197 ], [ 347293.024392372404691, 6663357.651195823214948 ], [ 347290.97008661844302, 6663317.597627200186253 ], [ 347289.613026451785117, 6663307.730781611055136 ], [ 347212.801327625173144, 6663034.633470075204968 ], [ 347229.610867952636909, 6662589.17313436884433 ], [ 347226.893378663924523, 6662549.258658652193844 ], [ 347098.29208108765306, 6662479.679318135604262 ], [ 346850.006226132507436, 6662130.881003838032484 ], [ 346564.262884652474895, 6661760.356804287061095 ], [ 346454.847182790690567, 6661850.889050303027034 ], [ 346216.713042579824105, 6661895.182344068773091 ], [ 346112.606154514010996, 6661855.272959099151194 ], [ 346008.441257344558835, 6661815.368821019306779 ], [ 345953.610571871278808, 6661794.362203235737979 ], [ 345632.834232272580266, 6661584.035273589193821 ], [ 345602.662574866088107, 6661554.416575105860829 ], [ 345350.206822029897012, 6661668.050591266714036 ], [ 345294.56402917066589, 6661761.709623803384602 ], [ 345292.888198611326516, 6661801.362644501030445 ], [ 345129.850867086439393, 6662336.960581320337951 ], [ 345041.115529525966849, 6662381.508912041783333 ], [ 344923.436675814911723, 6662451.921998905949295 ], [ 344840.859213455114514, 6662490.417644013650715 ], [ 344766.048431016854011, 6662513.534614133648574 ], [ 344607.262013291474432, 6662636.873621109873056 ], [ 344604.917977040342521, 6662676.332704795524478 ], [ 344611.880420529516414, 6663233.768671855330467 ] ] ] ] } },
{ "type": "Feature", "properties": { "ID": null, "CENTER_LON": "30.45138338279614", "CENTER_LAT": "59.94157707915619", "AA_METERS": 1500, "AA_MODE": "foot-hiking", "TOTAL_POP": "49891", "lead_id": 2 }, "geometry": { "type": "MultiPolygon", "coordinates": [ [ [ [ 356311.262880601570942, 6647543.112344510853291 ], [ 356385.606446543824859, 6648049.904768890701234 ], [ 356393.594289771979675, 6648058.289703815244138 ], [ 356686.666567079606466, 6648191.38829264882952 ], [ 356772.954253077507019, 6648270.648241894319654 ], [ 356999.693183157127351, 6648608.006041957065463 ], [ 357098.551751547143795, 6648717.777144487947226 ], [ 357384.378184473258443, 6648854.997649471275508 ], [ 357559.651797176455148, 6648811.1134396744892 ], [ 357837.077953948406503, 6648862.965787185356021 ], [ 357892.970893376157619, 6648874.081063100136817 ], [ 358030.826273173792288, 6648906.905714401043952 ], [ 358323.154226728249341, 6648872.495905022136867 ], [ 358366.4581547138514, 6648846.979513787664473 ], [ 358523.25835685513448, 6648739.528229877352715 ], [ 358714.62174564372981, 6648575.024373538792133 ], [ 358864.422741039423272, 6648485.803868618793786 ], [ 358910.933321785007138, 6648463.516051582060754 ], [ 358939.171134160365909, 6648415.172384984791279 ], [ 358962.903508558752947, 6647999.690528576262295 ], [ 358982.033807678031735, 6647735.990943119861186 ], [ 358986.204296069277916, 6647629.819135878235102 ], [ 358967.193307728855871, 6647367.5751584880054 ], [ 358751.473814781755209, 6646955.216532777994871 ], [ 358654.714375701500103, 6646957.131243567913771 ], [ 358517.171900979417842, 6646979.448474799282849 ], [ 358410.721585030492861, 6647002.920881829224527 ], [ 358379.85347563191317, 6647019.264004328288138 ], [ 358374.295875026436988, 6647026.053989354521036 ], [ 358146.001589472289197, 6647244.605435309931636 ], [ 357992.07605182309635, 6647199.794000595808029 ], [ 357952.546182133315597, 6647185.706146705895662 ], [ 357748.858131623419467, 6647429.423913400620222 ], [ 357600.490697137371171, 6647309.613904973492026 ], [ 357488.294017379637808, 6647212.716705895960331 ], [ 357407.060283197846729, 6647176.163561792112887 ], [ 357268.709416280093137, 6647107.704989926889539 ], [ 357089.94642685377039, 6646538.049088342115283 ], [ 357074.161140344687738, 6646514.691563439555466 ], [ 357007.985669308807701, 6646445.57005515601486 ], [ 356900.489606650604401, 6646404.691746762022376 ], [ 356897.283763852552511, 6646405.707642183639109 ], [ 356830.602004647720605, 6646429.135372376069427 ], [ 356648.291566453059204, 6646571.422244743444026 ], [ 356568.443781682406552, 6646644.750388659536839 ], [ 356564.140431095962413, 6646657.848839642480016 ], [ 356574.620732218550984, 6646835.696328385733068 ], [ 356338.174555215926375, 6647272.733000400476158 ], [ 356328.084082197281532, 6647344.137291028164327 ], [ 356323.076606906019151, 6647383.684015275910497 ], [ 356311.262880601570942, 6647543.112344510853291 ] ] ] ] } },
{ "type": "Feature", "properties": { "ID": null, "CENTER_LON": "30.347094374974496", "CENTER_LAT": "60.085193109138395", "AA_METERS": 1500, "AA_MODE": "foot-hiking", "TOTAL_POP": "3583", "lead_id": 3 }, "geometry": { "type": "MultiPolygon", "coordinates": [ [ [ [ 351031.931003412581049, 6663961.217633316293359 ], [ 351050.303923686675262, 6663998.156703365035355 ], [ 351169.810700336587615, 6664085.851169274188578 ], [ 351356.371684657176957, 6664018.205128483474255 ], [ 351620.948134687554557, 6664199.719507883302867 ], [ 351680.89246729190927, 6664309.234936786815524 ], [ 351703.539851010602433, 6664322.591375952586532 ], [ 351723.819980474072509, 6664328.35068520065397 ], [ 351758.098763719783165, 6664331.872845171019435 ], [ 351790.810929818486329, 6664263.436085992492735 ], [ 352075.141135837009642, 6664135.804550796747208 ], [ 352307.279727509536315, 6664342.753837550990283 ], [ 352476.707447318302002, 6664421.12359980493784 ], [ 352786.586236646166071, 6664623.753362851217389 ], [ 352907.281599001435097, 6664734.41993745137006 ], [ 352937.320624766405672, 6664758.747897709719837 ], [ 353100.574253662023693, 6664799.151575101539493 ], [ 353122.592308126040734, 6664798.382537529803813 ], [ 353147.560925486846827, 6664792.03276348952204 ], [ 353203.024031086359173, 6664776.883133438415825 ], [ 353475.567120515741408, 6664565.992797282524407 ], [ 353519.943052550661378, 6664519.851101545616984 ], [ 353576.285922755487263, 6664231.863679328933358 ], [ 353514.981255944352597, 6664153.813932063989341 ], [ 353424.762509788852185, 6664030.874309314414859 ], [ 353517.426120847580023, 6663420.243818338960409 ], [ 353659.443786826683208, 6663436.659999693743885 ], [ 353671.919078897451982, 6663431.034841347485781 ], [ 353616.734701010282151, 6663039.796174036338925 ], [ 353511.347416197299026, 6662993.826016298495233 ], [ 353461.09859078907175, 6663016.119697504676878 ], [ 353398.793241514242254, 6663058.739663613960147 ], [ 353087.094361195340753, 6663262.832888808101416 ], [ 353074.060606186161749, 6663233.586768609471619 ], [ 353005.425815338268876, 6663011.906742121092975 ], [ 352982.521872777142562, 6662797.205787057988346 ], [ 352980.448248002794571, 6662792.717735387384892 ], [ 352939.029832777334377, 6662754.462028214707971 ], [ 352744.935359307564795, 6662683.522069625556469 ], [ 352543.307834242121316, 6662593.049209755845368 ], [ 352530.81169304123614, 6662587.084177072159946 ], [ 352230.57024660409661, 6662550.978095006197691 ], [ 352119.954748643911444, 6662540.709755616262555 ], [ 351914.189564326487016, 6662693.929110096767545 ], [ 351820.381656308309175, 6662789.576785122044384 ], [ 351617.021413238137029, 6662960.332654818892479 ], [ 351310.195156308764126, 6663075.080478710122406 ], [ 351284.59969169460237, 6663074.443703497759998 ], [ 351216.119713760330342, 6663219.923118280246854 ], [ 351080.834084138274193, 6663693.329419783316553 ], [ 351020.116437927121297, 6663934.93882682453841 ], [ 351031.931003412581049, 6663961.217633316293359 ] ] ] ] } },
{ "type": "Feature", "properties": { "ID": null, "CENTER_LON": "30.2275772", "CENTER_LAT": "60.0404029", "AA_METERS": 1500, "AA_MODE": "foot-hiking", "TOTAL_POP": "14479", "lead_id": 4 }, "geometry": { "type": "MultiPolygon", "coordinates": [ [ [ [ 344226.493877745466307, 6659103.334469547495246 ], [ 344315.442491930443794, 6659422.032357189804316 ], [ 344386.260987044835929, 6659415.134705344215035 ], [ 344657.936521840165369, 6659322.819542426615953 ], [ 344762.824360696191434, 6659368.569116767495871 ], [ 344812.424108273233287, 6659345.180767637677491 ], [ 344981.882803616812453, 6659360.227731426246464 ], [ 345050.379400453297421, 6659410.751716493628919 ], [ 345157.143855812377296, 6659435.025130896829069 ], [ 345173.83760444278596, 6660049.132613466121256 ], [ 345162.82321438373765, 6660248.511916629970074 ], [ 345124.837369997287169, 6660430.963747939094901 ], [ 345151.523414612398483, 6660447.680412196554244 ], [ 345423.961850498220883, 6660164.053058099932969 ], [ 345668.211637413187418, 6659987.777545225806534 ], [ 345877.600654618232511, 6660232.771975447423756 ], [ 345929.863107678364031, 6660239.837434298358858 ], [ 345950.393173849093728, 6660218.796522808261216 ], [ 346012.162907524092589, 6660139.945759777911007 ], [ 346042.553888533555437, 6660081.363766872324049 ], [ 346240.580763121834025, 6659664.21976254042238 ], [ 346384.028984931646846, 6659632.58435364626348 ], [ 346427.484042155207135, 6659638.240974079817533 ], [ 346539.916033144341782, 6659554.164484916254878 ], [ 346583.760179994278587, 6659258.763935821130872 ], [ 346622.806352373911068, 6658977.836032153107226 ], [ 346621.323850489920005, 6658859.264818593859673 ], [ 346595.26700034562964, 6658504.340205912478268 ], [ 346450.060001093428582, 6658089.602884318679571 ], [ 346447.869391868007369, 6658085.234348014928401 ], [ 346372.950089297431987, 6657959.691495231352746 ], [ 346366.275905435089953, 6657956.179047536104918 ], [ 346282.699344999040477, 6657920.085468859411776 ], [ 346216.615023780264892, 6657895.416367327794433 ], [ 345923.933189681149088, 6657770.285640337504447 ], [ 345835.89089545304887, 6657757.022703875787556 ], [ 345746.924733136664145, 6657796.316267761401832 ], [ 345464.692595405620523, 6657843.7176692513749 ], [ 345396.400335608690511, 6657834.43089110031724 ], [ 345106.743510306696407, 6657908.151187855750322 ], [ 345093.628609254083131, 6657925.316310414113104 ], [ 345023.47138092428213, 6658013.565604014322162 ], [ 344741.037938355410006, 6658087.457793901674449 ], [ 344670.777656470192596, 6658112.163648884743452 ], [ 344652.94103297276888, 6658129.752693142741919 ], [ 344651.647334687877446, 6658132.148782355710864 ], [ 344623.665547293843701, 6658223.979279049672186 ], [ 344403.324545204057358, 6658643.16130936704576 ], [ 344380.802596190595068, 6658672.546032457612455 ], [ 344323.340365669806488, 6658759.493352522142231 ], [ 344277.036403164442163, 6658854.332259936258197 ], [ 344224.800547650607768, 6659081.774892594665289 ], [ 344226.493877745466307, 6659103.334469547495246 ] ] ] ] } },
{ "type": "Feature", "properties": { "ID": null, "CENTER_LON": "30.134618718188534", "CENTER_LAT": "60.00516974708838", "AA_METERS": 1500, "AA_MODE": "foot-hiking", "TOTAL_POP": "1069", "lead_id": 5 }, "geometry": { "type": "MultiPolygon", "coordinates": [ [ [ [ 338814.04723134561209, 6655777.536932087503374 ], [ 338804.207339684013277, 6655790.01039638184011 ], [ 338815.75256063148845, 6655824.184965760447085 ], [ 339019.260470710578375, 6656183.047737506218255 ], [ 339074.928047583671287, 6656285.434973200783134 ], [ 339093.091244526673108, 6656305.04795039165765 ], [ 339283.536929163848981, 6656021.308330856263638 ], [ 339415.265367781510577, 6656021.809787595644593 ], [ 339657.820560726569965, 6656193.006042703986168 ], [ 339688.032406473183073, 6656623.006140056997538 ], [ 339692.324341013154481, 6656662.627911918796599 ], [ 339815.171384042710997, 6656640.446564313955605 ], [ 339823.149004489416257, 6656630.063953981734812 ], [ 339824.459201598365325, 6656590.867589290253818 ], [ 339801.325129780452698, 6656387.478813977912068 ], [ 339791.97964036045596, 6656187.950895129702985 ], [ 340025.913552253216039, 6655816.613187622278929 ], [ 340038.219562150654383, 6655818.420655420981348 ], [ 340054.003340585390106, 6655814.167308225296438 ], [ 340069.314937607035972, 6655808.038892675191164 ], [ 340147.408782318409067, 6655798.629124134778976 ], [ 340167.57735321810469, 6655800.207479037344456 ], [ 340359.139135516888928, 6655858.139261660166085 ], [ 340397.855773822346237, 6655844.530958239920437 ], [ 340604.187089949438814, 6655348.204789613373578 ], [ 340762.250607237452641, 6655513.203763021156192 ], [ 340792.734765876899473, 6655608.78578582033515 ], [ 340842.400704569008667, 6655765.871539100073278 ], [ 340892.067868238897063, 6655923.06922110915184 ], [ 340941.670919978176244, 6656080.158639802597463 ], [ 340992.020713046658784, 6656239.111911161802709 ], [ 340999.10017734952271, 6656256.981901014223695 ], [ 341017.121376116061583, 6656252.859079310670495 ], [ 341018.987554087187164, 6656213.305397503077984 ], [ 340958.514089154545218, 6656060.364061798900366 ], [ 340908.911585078516509, 6655903.274425571784377 ], [ 341129.599064438603818, 6655431.561922261491418 ], [ 341174.615047839935869, 6655365.729030114598572 ], [ 341206.322671455331147, 6655318.868540304712951 ], [ 341344.00779354898259, 6655166.755776170641184 ], [ 341468.720521803479642, 6654790.635608235374093 ], [ 341455.769515981664881, 6654758.298591497354209 ], [ 341375.859059355803765, 6654659.82043865416199 ], [ 341113.412417805870064, 6654752.855607396923006 ], [ 341035.927679344080389, 6654577.452303225174546 ], [ 341028.177421916625462, 6654553.143723213113844 ], [ 340899.132769529474899, 6654447.650412125512958 ], [ 340758.338715021498501, 6654363.854796240106225 ], [ 340682.639882106333971, 6654316.947156926617026 ], [ 340528.952165465801954, 6654233.605356142856181 ], [ 340384.372715698205866, 6654155.673622471280396 ], [ 340110.112672224116977, 6654185.397062994539738 ], [ 339979.098528654372785, 6654245.273106461390853 ], [ 339763.478482460603118, 6654418.553631295450032 ], [ 339744.924373387824744, 6654544.24890282843262 ], [ 339613.099980194412638, 6655026.678893508389592 ], [ 339517.972814848530106, 6655017.215117055922747 ], [ 339518.263091802364215, 6655057.234007614664733 ], [ 339501.37302295921836, 6655555.520425220020115 ], [ 339341.23517793911742, 6655729.872595021501184 ], [ 339235.990551512921229, 6655737.696027430705726 ], [ 339130.746197611035313, 6655745.522470695897937 ], [ 339044.316721923998557, 6655750.745976952835917 ], [ 338957.775913959834725, 6655755.976383691653609 ], [ 338900.735683892504312, 6655760.365128366276622 ], [ 338842.149710908415727, 6655765.156887366436422 ], [ 338829.744655853603035, 6655770.048278105445206 ], [ 338814.04723134561209, 6655777.536932087503374 ] ] ] ] } },
{ "type": "Feature", "properties": { "ID": null, "CENTER_LON": "30.18550991275845", "CENTER_LAT": "60.10730040424622", "AA_METERS": 1500, "AA_MODE": "foot-hiking", "TOTAL_POP": "1286", "lead_id": 6 }, "geometry": { "type": "MultiPolygon", "coordinates": [ [ [ [ 342374.988627636630554, 6667398.76691204868257 ], [ 342384.029400606988929, 6667435.621687387116253 ], [ 342432.412278295494616, 6667393.290150381624699 ], [ 342480.745504174148664, 6667351.072953851893544 ], [ 342543.932211072533391, 6667298.295092878863215 ], [ 342812.58516708726529, 6667415.232517546974123 ], [ 342867.993148361740168, 6667532.950938346795738 ], [ 342885.833871763083152, 6667516.799269325099885 ], [ 342906.928915552503895, 6667343.954826885834336 ], [ 343073.642886040033773, 6666827.801588327623904 ], [ 343113.311813737673219, 6666796.110971733927727 ], [ 343134.61159023019718, 6666783.938627928495407 ], [ 343338.49632462579757, 6666766.75653450191021 ], [ 343444.150385245331563, 6666795.588401341810822 ], [ 343739.179127373849042, 6666883.592892264947295 ], [ 343872.04707357485313, 6666848.390140525065362 ], [ 344071.879269619239494, 6666843.351892816834152 ], [ 344166.762880100868642, 6666800.965150628238916 ], [ 344229.529627561511006, 6666771.65164196677506 ], [ 344372.183434733538888, 6666705.834930530749261 ], [ 344678.455657544545829, 6666589.165144230239093 ], [ 344735.911501934053376, 6666563.09599538706243 ], [ 344795.478701917338185, 6666535.600496363826096 ], [ 344804.562468430842273, 6666526.630789038725197 ], [ 344765.849057829589583, 6666142.916977947577834 ], [ 344758.33950578753138, 6666104.877851482480764 ], [ 344613.443335457064677, 6665671.131729390472174 ], [ 344604.422646943596192, 6665660.586267226375639 ], [ 344338.475159090710804, 6665654.679293753579259 ], [ 344258.062602296879049, 6665653.071390084922314 ], [ 344183.212478365458082, 6665707.761116649024189 ], [ 343857.693306811561342, 6665656.136476401239634 ], [ 343836.45666954445187, 6665630.724779218435287 ], [ 343815.219750016112812, 6665605.31320128031075 ], [ 343615.479092549998313, 6665910.860401076264679 ], [ 343523.573533744318411, 6665925.591934959404171 ], [ 343523.517958914395422, 6665925.594303439371288 ], [ 343423.157558229053393, 6665941.803766798228025 ], [ 343322.802641697635408, 6665958.127286586910486 ], [ 343224.606352826231159, 6665974.138409585691988 ], [ 343126.461593563319184, 6665990.038494002074003 ], [ 343129.396216087159701, 6666030.054791073314846 ], [ 343223.661216169362888, 6666581.655689720995724 ], [ 343106.6508877632441, 6666757.48047982621938 ], [ 343083.630142776470166, 6666771.064612633548677 ], [ 343063.484256580704823, 6666791.996812338009477 ], [ 343043.870422366075218, 6666812.348859425634146 ], [ 343028.587551141506992, 6666825.937003822997212 ], [ 343011.441084383521229, 6666841.500512747094035 ], [ 342924.258578210719861, 6666932.204550253227353 ], [ 342611.158775447402149, 6666820.508073667995632 ], [ 342559.62986332946457, 6666704.075803810730577 ], [ 342508.102798552019522, 6666587.755523910745978 ], [ 342493.438127200759482, 6666613.139045647345483 ], [ 342513.166835166048259, 6666952.274082632735372 ], [ 342374.988627636630554, 6667398.76691204868257 ] ] ] ] } },
{ "type": "Feature", "properties": { "ID": null, "CENTER_LON": "30.272324233628574", "CENTER_LAT": "60.00399310886681", "AA_METERS": 1500, "AA_MODE": "foot-hiking", "TOTAL_POP": "139079", "lead_id": 7 }, "geometry": { "type": "MultiPolygon", "coordinates": [ [ [ [ 346532.644244563416578, 6655307.435994060710073 ], [ 346599.141058540495578, 6655475.145816037431359 ], [ 346688.950476929894648, 6655569.971531881019473 ], [ 346922.553018359583803, 6655876.909651532769203 ], [ 346972.698500917933416, 6655988.887224492616951 ], [ 346995.905782880203333, 6656045.009420786052942 ], [ 347002.238994313636795, 6656048.314316848292947 ], [ 347262.196269554435275, 6656099.632538828067482 ], [ 347476.414909003535286, 6656243.618766539730132 ], [ 347588.162720388732851, 6656304.442070270888507 ], [ 347698.661036092671566, 6656368.888044442981482 ], [ 347893.236751226766501, 6656465.097206077538431 ], [ 347955.887772693997249, 6656479.346754307858646 ], [ 348157.999884898134042, 6656538.019143167883158 ], [ 348352.463308360893279, 6656613.072191908024251 ], [ 348355.936683701700531, 6656612.037264993414283 ], [ 348357.427237235533539, 6656611.641428119502962 ], [ 348360.956329868466128, 6656610.6042126044631 ], [ 348372.399753779754974, 6656595.750505716539919 ], [ 348446.27530525799375, 6656492.254902577027678 ], [ 348692.76720076368656, 6656192.687023779377341 ], [ 348743.163387382635847, 6656119.150787705555558 ], [ 348930.943387936276849, 6655807.741000607609749 ], [ 349111.20399809704395, 6655433.211415546946228 ], [ 349198.853810660715681, 6655124.916118488647044 ], [ 349253.233298783772625, 6654879.193318780511618 ], [ 349253.625724414247088, 6654876.501464946195483 ], [ 349221.567183054808993, 6654724.734151838347316 ], [ 349174.578670091985259, 6654632.557046692818403 ], [ 349079.124321760609746, 6654475.022876649163663 ], [ 348891.381379437807482, 6654078.330107101239264 ], [ 348881.351424536318518, 6654052.986418361775577 ], [ 348865.488968348072376, 6654017.513010025024414 ], [ 348780.745425100205466, 6653973.380020039156079 ], [ 348471.945303416752722, 6653728.3961978610605 ], [ 348244.044080386869609, 6653463.159447421319783 ], [ 348033.186654345830902, 6653551.336507875472307 ], [ 348004.868656326900236, 6653579.81941428873688 ], [ 347984.210733182029799, 6653622.035022815689445 ], [ 347869.138643431011587, 6653942.642401209101081 ], [ 347635.804861425305717, 6654157.760252192616463 ], [ 347478.629163438978139, 6654020.876250181347132 ], [ 347427.762726659071632, 6653972.584939646534622 ], [ 347291.720731718756724, 6653964.725365482270718 ], [ 347180.873221616959199, 6653944.90004241745919 ], [ 347174.066457528620958, 6653945.070639345794916 ], [ 347167.521841629757546, 6653954.261491570621729 ], [ 347088.141738416510634, 6654122.230884349904954 ], [ 346806.840538217453286, 6654309.290052092634141 ], [ 346789.87132814025972, 6654324.266613163053989 ], [ 346729.101491402019747, 6654397.926758291199803 ], [ 346683.032572690630332, 6654473.206603846512735 ], [ 346634.595238401088864, 6654659.301376987248659 ], [ 346556.739831981365569, 6655078.868522896431386 ], [ 346521.286776836030185, 6655272.007033608853817 ], [ 346532.644244563416578, 6655307.435994060710073 ] ] ] ] } },
{ "type": "Feature", "properties": { "ID": null, "CENTER_LON": "30.233871436122428", "CENTER_LAT": "60.014626595245", "AA_METERS": 1500, "AA_MODE": "foot-hiking", "TOTAL_POP": "120322", "lead_id": 8 }, "geometry": { "type": "MultiPolygon", "coordinates": [ [ [ [ 344816.526047024002764, 6657233.419583906419575 ], [ 344905.380219717277214, 6657603.424023520201445 ], [ 345131.104981240699999, 6657589.241691996343434 ], [ 345438.957241694966797, 6657659.932612028904259 ], [ 345526.279348540934734, 6657671.878514947369695 ], [ 345627.502835860766936, 6657664.065931241959333 ], [ 345650.175367892952636, 6657632.564988490194082 ], [ 345916.963708470342681, 6657303.623453503474593 ], [ 345985.912089349236339, 6657340.432861845009029 ], [ 346065.276009881868958, 6657380.822057792916894 ], [ 346193.677438817918301, 6657534.564611988142133 ], [ 346393.060090387123637, 6657502.828625210560858 ], [ 346607.513776216306724, 6657456.427243274636567 ], [ 346617.976775424496736, 6657451.754591041244566 ], [ 346854.069985885056667, 6657158.059623847715557 ], [ 346903.15207399521023, 6657125.246193923987448 ], [ 347012.323404204682447, 6657073.324254907667637 ], [ 347139.220286014373414, 6656964.364656787365675 ], [ 347151.281546861049719, 6656941.676477573812008 ], [ 347162.889217280782759, 6656913.432375985197723 ], [ 347185.309680937498342, 6656822.97108238376677 ], [ 347143.897492339776363, 6656241.789381522685289 ], [ 347042.06113631487824, 6655856.560684693977237 ], [ 347016.191754786588717, 6655760.521710514090955 ], [ 346913.397101944836322, 6655390.387185358442366 ], [ 346912.041770781797823, 6655385.983644908294082 ], [ 346824.626118179992773, 6655292.279584876261652 ], [ 346763.1897730549681, 6655250.123373448848724 ], [ 346736.652895444072783, 6655233.610341962426901 ], [ 346597.587399460258894, 6655153.431850238703191 ], [ 346482.021033838449512, 6655101.380093569867313 ], [ 346225.424114929919597, 6654974.711739555932581 ], [ 346094.3310284880572, 6654865.34074477199465 ], [ 345877.67328660201747, 6654755.759332966990769 ], [ 345834.751698165026028, 6654766.919823138974607 ], [ 345739.326790048158728, 6654837.810303527861834 ], [ 345554.540054216049612, 6654977.449789562262595 ], [ 345328.042724651517347, 6654955.727088467217982 ], [ 345291.174310798756778, 6654954.040799275971949 ], [ 345097.341293831705116, 6655025.400839713402092 ], [ 344853.677596327150241, 6655436.934483277611434 ], [ 344669.982942334609106, 6655758.654980452731252 ], [ 344631.932114787225146, 6655988.27619412355125 ], [ 344676.681181637104601, 6656312.19214181881398 ], [ 344755.290301146626007, 6656829.137052709236741 ], [ 344816.526047024002764, 6657233.419583906419575 ] ] ] ] } },
{ "type": "Feature", "properties": { "ID": null, "CENTER_LON": "30.4928298", "CENTER_LAT": "59.9595759", "AA_METERS": 1500, "AA_MODE": "foot-hiking", "TOTAL_POP": "27446", "lead_id": 9 }, "geometry": { "type": "MultiPolygon", "coordinates": [ [ [ [ 359294.169043112662621, 6650339.849296229891479 ], [ 359348.075868375075515, 6650546.030643283389509 ], [ 359420.849958980979864, 6650656.405932359397411 ], [ 359541.011707949801348, 6650665.543701086193323 ], [ 359763.927975383703597, 6650615.489399638958275 ], [ 359822.39171358133899, 6650477.381971037015319 ], [ 360126.483221646107268, 6650377.561729566194117 ], [ 360221.614356628269888, 6650456.115119244903326 ], [ 360438.731286260881461, 6650454.701567504554987 ], [ 360580.671403726912104, 6650186.596897750161588 ], [ 360776.004166041675489, 6650254.805221019312739 ], [ 360939.262346562580206, 6649793.510894763283432 ], [ 361057.304189855523873, 6649901.766300271265209 ], [ 361071.023313468089327, 6649908.384366010315716 ], [ 361168.545835764613003, 6649637.518144455738366 ], [ 361139.709445939515717, 6649370.06605663523078 ], [ 361070.774960837210529, 6649250.930771342478693 ], [ 360968.152521396055818, 6648718.053390367887914 ], [ 360960.717337929294445, 6648646.768079770728946 ], [ 360958.217360734706745, 6648642.737695471383631 ], [ 360665.158649740857072, 6648384.126398131251335 ], [ 360495.578372831805609, 6648049.753023040480912 ], [ 360490.044048523646779, 6648046.840721914544702 ], [ 360446.524117549590301, 6648061.303376078605652 ], [ 360282.091499041649513, 6648112.440541110001504 ], [ 359956.476609393488616, 6648134.910679259337485 ], [ 359955.299737700261176, 6648134.84380806516856 ], [ 359828.293026180006564, 6648197.96023437473923 ], [ 359506.335291331284679, 6648338.494478090666234 ], [ 359221.626386535703205, 6648477.192627812735736 ], [ 358992.03126475069439, 6648597.311555820517242 ], [ 358910.732528157299384, 6648655.929999203421175 ], [ 358905.247849749634042, 6648667.509936328046024 ], [ 358956.652124411484692, 6648987.264659313485026 ], [ 358976.051625538035296, 6649425.067788535729051 ], [ 358991.746407744474709, 6649575.517628072760999 ], [ 359056.476425847504288, 6649801.01373287755996 ], [ 359078.861856796778738, 6649844.192179387435317 ], [ 359294.169043112662621, 6650339.849296229891479 ] ] ] ] } },
{ "type": "Feature", "properties": { "ID": null, "CENTER_LON": "30.1350633", "CENTER_LAT": "60.0317394", "AA_METERS": 1500, "AA_MODE": "foot-hiking", "TOTAL_POP": "697", "lead_id": 10 }, "geometry": { "type": "MultiPolygon", "coordinates": [ [ [ [ 339119.894085888983682, 6658357.216344714164734 ], [ 339181.665797156863846, 6658711.126056715846062 ], [ 339249.983388421358541, 6658779.508438493125141 ], [ 339292.205298122717068, 6658786.920233175158501 ], [ 339489.343119959696196, 6658804.300796399824321 ], [ 339665.615022774552926, 6658884.488077802583575 ], [ 339775.625857181614265, 6658966.451895019970834 ], [ 339959.306921072362456, 6659103.199288661591709 ], [ 340018.852980652358383, 6658728.953015811741352 ], [ 340211.787841657642275, 6658648.316188751719892 ], [ 340367.735716761439107, 6658666.639846479520202 ], [ 340396.536151471664198, 6658672.081554469652474 ], [ 340427.637080579006579, 6658673.967024497687817 ], [ 340690.504462365875952, 6659087.424692656844854 ], [ 340729.294732214068063, 6659153.653904843144119 ], [ 340841.811679869482759, 6659370.462864477187395 ], [ 341126.359489134163596, 6659206.854112957604229 ], [ 341195.471780073596165, 6659237.880984527058899 ], [ 341225.679410166456364, 6659251.519600699655712 ], [ 341270.770581730059348, 6659267.527210832573473 ], [ 341313.362685478408821, 6659278.625315458513796 ], [ 341332.51610684406478, 6659281.702272221446037 ], [ 341551.595729080494493, 6659159.420253017917275 ], [ 341563.763197028893046, 6658761.712899890728295 ], [ 341309.035969043034129, 6658329.336734612472355 ], [ 341322.739672316994984, 6658201.963741372339427 ], [ 341300.167649824754335, 6658078.272821965627372 ], [ 341272.143836276838556, 6658019.713513426482677 ], [ 341257.301754588028416, 6657997.717607440426946 ], [ 340955.590396141400561, 6657810.248183294199407 ], [ 340932.187409064557869, 6657586.238745897077024 ], [ 340917.43740041682031, 6657500.569780844263732 ], [ 340800.552282850607298, 6657320.519336211495101 ], [ 340742.343268940749113, 6657328.27665982209146 ], [ 340587.21889055945212, 6657777.559412121772766 ], [ 340425.82765328628011, 6657604.799447128549218 ], [ 340394.385224651545286, 6657566.911358677782118 ], [ 340364.851389243616723, 6657538.307406213134527 ], [ 340256.50926282000728, 6657400.163824361748993 ], [ 340139.742272352974396, 6657368.99016975518316 ], [ 339921.831667349440977, 6657255.349791880697012 ], [ 339919.874751126742922, 6657253.985236220993102 ], [ 339909.482209381996654, 6657247.300405444577336 ], [ 339819.939444777672179, 6657575.348536247387528 ], [ 339877.613741026027128, 6657672.194462531246245 ], [ 339970.132251120347064, 6657869.779850019142032 ], [ 339863.984187452937476, 6658337.823858184739947 ], [ 339786.562510871153791, 6658367.842672902159393 ], [ 339628.897962676594034, 6658346.383691794238985 ], [ 339442.987243961310014, 6657997.099114605225623 ], [ 339438.101517264847644, 6657981.03180147241801 ], [ 339328.297433728177566, 6657896.948371761478484 ], [ 339296.154612927231938, 6657912.289682763628662 ], [ 339215.254122460784856, 6658017.406502177938819 ], [ 339119.894085888983682, 6658357.216344714164734 ] ] ] ] } },
{ "type": "Feature", "properties": { "ID": null, "CENTER_LON": "30.23280239139937", "CENTER_LAT": "59.99840830280975", "AA_METERS": 1500, "AA_MODE": "foot-hiking", "TOTAL_POP": "77294", "lead_id": 11 }, "geometry": { "type": "MultiPolygon", "coordinates": [ [ [ [ 344254.98981183412252, 6654896.544176970608532 ], [ 344284.793178258754779, 6654978.129774084314704 ], [ 344485.402904149726965, 6655173.482746738009155 ], [ 344804.58366552303778, 6655408.673597922548652 ], [ 345045.767954548588023, 6655549.160827183164656 ], [ 345119.881083510699682, 6655590.979550584219396 ], [ 345190.349079511477612, 6655624.478878471069038 ], [ 345276.57397027569823, 6655659.6593795157969 ], [ 345592.276504795416258, 6655791.477537241764367 ], [ 345806.352910198969766, 6655844.506640887819231 ], [ 345929.591036058147438, 6655974.821667060256004 ], [ 345957.267150843632407, 6655966.528733246028423 ], [ 346030.006547824246809, 6655882.429960788227618 ], [ 346273.882494684658013, 6655522.035938180983067 ], [ 346367.48658174125012, 6655567.079864080995321 ], [ 346392.621561511652544, 6655559.342341649346054 ], [ 346516.173978673643433, 6655539.365706086158752 ], [ 346521.542839450296015, 6655538.250144804827869 ], [ 346615.612130550201982, 6655412.133791038766503 ], [ 346792.027500755852088, 6655112.453392867930233 ], [ 346842.867310286848806, 6654994.942291982471943 ], [ 346908.460180302266963, 6654802.340191072784364 ], [ 347026.417288910713978, 6654370.973069358617067 ], [ 347036.426520868437365, 6654287.828167660161853 ], [ 347029.356607738358434, 6653868.341244655661285 ], [ 346778.514184989966452, 6653614.064284085296094 ], [ 346762.004475014982745, 6653614.63873908855021 ], [ 346537.207163925864734, 6653619.303220812231302 ], [ 346397.174754063424189, 6653391.325024543330073 ], [ 346215.061884699156508, 6653194.206062825396657 ], [ 346172.490326896077022, 6653159.298826842568815 ], [ 346162.433369622798637, 6653164.624103603884578 ], [ 346052.166779124061577, 6653207.690977268852293 ], [ 346024.720169855514541, 6653219.317322234623134 ], [ 345714.625515529187396, 6653100.596670181490481 ], [ 345617.416102775256149, 6653004.4276068424806 ], [ 345427.493116295721848, 6653114.401627250947058 ], [ 345431.39096450584475, 6653136.760861633345485 ], [ 345454.97342153720092, 6653432.914560427889228 ], [ 345443.360880620311946, 6653699.658277500420809 ], [ 345188.684202261560131, 6653888.06890157982707 ], [ 345175.42060136195505, 6653876.806908612139523 ], [ 344896.800560044124722, 6653637.419641654007137 ], [ 344886.877804790681694, 6653631.258535701781511 ], [ 344841.838185549597256, 6653636.163607769645751 ], [ 344834.196049723075703, 6653641.725583321414888 ], [ 344684.157411230262369, 6653783.624396993778646 ], [ 344489.846125959302299, 6653960.177642710506916 ], [ 344281.686524080345407, 6654358.543129262514412 ], [ 344242.059836449101567, 6654856.169886844232678 ], [ 344254.98981183412252, 6654896.544176970608532 ] ] ] ] } },
{ "type": "Feature", "properties": { "ID": null, "CENTER_LON": "30.449364502432562", "CENTER_LAT": "60.038970760250926", "AA_METERS": 1500, "AA_MODE": "foot-hiking", "TOTAL_POP": "11065", "lead_id": 12 }, "geometry": { "type": "MultiPolygon", "coordinates": [ [ [ [ 356752.880884000100195, 6658733.343683448620141 ], [ 356881.781009218422696, 6659095.435420865193009 ], [ 356953.856071848073043, 6659193.857831991277635 ], [ 356996.329805567918811, 6659177.714817855507135 ], [ 357053.6258391313022, 6659148.399320800788701 ], [ 357129.368840657523833, 6659107.332104680128396 ], [ 357201.682712087291293, 6659065.507732150144875 ], [ 357444.763479150366038, 6659417.390855468809605 ], [ 357427.587309915339574, 6659592.856651923619211 ], [ 357430.106526803341694, 6659613.271347024478018 ], [ 357525.470556447573472, 6659734.992615704424679 ], [ 357567.843033066368662, 6659760.99921678006649 ], [ 357704.642244374495931, 6659817.020320582203567 ], [ 357756.808223441476002, 6659836.853337207809091 ], [ 357761.591305617010221, 6659838.00619234982878 ], [ 357868.519570718170144, 6659845.356693393550813 ], [ 358133.307324908673763, 6659817.636093472130597 ], [ 358222.101763837970793, 6659766.723802165128291 ], [ 358497.470726436236873, 6659599.385788853280246 ], [ 358559.403611620306037, 6659578.945365993306041 ], [ 358756.489370284136385, 6659332.255678272806108 ], [ 358863.661894646356814, 6659323.907954369671643 ], [ 358864.706849247799255, 6659323.533448311500251 ], [ 358973.937219095823821, 6659136.077322595752776 ], [ 359001.917535809334368, 6659020.852522062137723 ], [ 359040.975153254810721, 6658859.944064828567207 ], [ 359039.937116827233694, 6658797.891003963537514 ], [ 358874.830702881095931, 6658587.059273676946759 ], [ 358836.113484573375899, 6658528.457387109287083 ], [ 358641.944073499762453, 6658097.243261689320207 ], [ 358662.779096332145855, 6657816.188679781742394 ], [ 358653.714992180000991, 6657290.808491735719144 ], [ 358372.46140702185221, 6657079.326320820488036 ], [ 358043.767723388620652, 6656982.619524654000998 ], [ 357798.702565837302245, 6657062.638424855656922 ], [ 357704.935553266259376, 6657244.960414086468518 ], [ 357650.386289004585706, 6657365.013163800351322 ], [ 357605.068052162823733, 6657474.119475490413606 ], [ 357573.173382523120381, 6657545.138818252831697 ], [ 357540.27177194529213, 6657911.617640632204711 ], [ 357557.947773663210683, 6657996.549935949966311 ], [ 357293.014214438851923, 6658339.018330278806388 ], [ 357087.414926147670485, 6658220.463627072051167 ], [ 356888.281905405106954, 6658252.835825105197728 ], [ 356783.882904693949968, 6658285.991830575279891 ], [ 356774.511862720013596, 6658290.258195262402296 ], [ 356757.6909421995515, 6658333.832656512968242 ], [ 356755.877300862572156, 6658390.423916502855718 ], [ 356752.880884000100195, 6658733.343683448620141 ] ] ] ] } },
{ "type": "Feature", "properties": { "ID": null, "CENTER_LON": "30.457862669025474", "CENTER_LAT": "59.945002021195506", "AA_METERS": 1500, "AA_MODE": "foot-hiking", "TOTAL_POP": "65761", "lead_id": 13 }, "geometry": { "type": "MultiPolygon", "coordinates": [ [ [ [ 356751.215192174073309, 6647669.395834327675402 ], [ 356751.645674787578173, 6647674.730111688375473 ], [ 356876.750574455247261, 6647836.097241903655231 ], [ 356886.995441905455664, 6647830.572495889849961 ], [ 356911.032462717499584, 6647810.021580358035862 ], [ 357008.163602378917858, 6647692.44306247215718 ], [ 357048.1114771074499, 6647633.486548530869186 ], [ 357066.815145203843713, 6647615.261132973246276 ], [ 357185.50161620072322, 6647483.476985814981163 ], [ 357234.757566138636321, 6647469.868942246772349 ], [ 357387.599510118132457, 6647596.737990319728851 ], [ 357352.023159737174865, 6648131.307804056443274 ], [ 357351.88798520702403, 6648277.014208355918527 ], [ 357569.292200689204037, 6648704.392354427836835 ], [ 357579.936061807267834, 6649105.189067774452269 ], [ 357619.366626262606587, 6649105.564132926985621 ], [ 357938.292628537863493, 6649254.369090641848743 ], [ 357981.698284327285364, 6649284.024931820109487 ], [ 357996.455974437238183, 6649292.710115804336965 ], [ 358050.943193378625438, 6649325.619434954598546 ], [ 358360.064166891912464, 6649394.684335820376873 ], [ 358410.069878690643236, 6649383.737470694817603 ], [ 358421.033394439262338, 6649379.527015252038836 ], [ 358489.149025432881899, 6649345.145987500436604 ], [ 358633.972480048949365, 6649218.871942548081279 ], [ 358905.817226130631752, 6649060.104271806776524 ], [ 359009.35569121025037, 6649011.672371760942042 ], [ 359055.142901190556586, 6648989.636611821129918 ], [ 359094.270731320371851, 6648965.960377971641719 ], [ 359125.91700534208212, 6648935.212533821351826 ], [ 359317.569824880338274, 6648573.865353378467262 ], [ 359322.750588133814745, 6648563.07799578923732 ], [ 359321.757130152545869, 6648481.18198231048882 ], [ 359285.288153917819727, 6647930.21407937258482 ], [ 359159.108996332273819, 6647495.476141699589789 ], [ 359017.465476804180071, 6647063.67207801155746 ], [ 358915.799667232087813, 6646923.748195360414684 ], [ 358674.040584458969533, 6646831.985970229841769 ], [ 358639.51342564530205, 6646824.388008111156523 ], [ 358443.053707975021098, 6646880.174226870760322 ], [ 358294.286742786352988, 6647011.061045688576996 ], [ 358281.709471233945806, 6647030.271141463890672 ], [ 357992.07605182309635, 6647199.794000595808029 ], [ 357940.009403093194123, 6647182.620683646760881 ], [ 357912.988925836340059, 6647179.646059373393655 ], [ 357881.641403007786721, 6647179.067519815638661 ], [ 357813.567809512140229, 6647171.875426941551268 ], [ 357737.519045262248255, 6647168.22431914974004 ], [ 357488.294017379637808, 6647212.716705895960331 ], [ 357281.306290542997885, 6646948.586240351200104 ], [ 357276.321910446451511, 6646942.647413110360503 ], [ 357211.545242218591738, 6646874.695050400681794 ], [ 357158.923484449274838, 6646834.700836594216526 ], [ 356961.253879526630044, 6647260.720288279466331 ], [ 356892.244315889140125, 6647305.976027729921043 ], [ 356811.434564322931692, 6647414.786930304951966 ], [ 356762.849148669280112, 6647536.620116863399744 ], [ 356751.215192174073309, 6647669.395834327675402 ] ] ] ] } },
{ "type": "Feature", "properties": { "ID": null, "CENTER_LON": "30.20358397899905", "CENTER_LAT": "59.99291037677112", "AA_METERS": 1500, "AA_MODE": "foot-hiking", "TOTAL_POP": "72837", "lead_id": 14 }, "geometry": { "type": "MultiPolygon", "coordinates": [ [ [ [ 343240.565139798040036, 6654688.998224523849785 ], [ 343261.185048340703361, 6655001.887929726392031 ], [ 343264.951184489706066, 6655006.41087506338954 ], [ 343378.929718671191949, 6655105.151447111740708 ], [ 343704.602852718846407, 6655287.347080015577376 ], [ 343782.485479242284782, 6655321.398184157907963 ], [ 343857.870151415583678, 6655351.877140322700143 ], [ 344062.640338885772508, 6655376.212092792615294 ], [ 344343.642530886107124, 6655398.452925523743033 ], [ 344446.541647583944723, 6655365.341587081551552 ], [ 344663.24561654421268, 6655230.541898528113961 ], [ 344870.256176358670928, 6654973.849108461290598 ], [ 345060.767559778119903, 6654794.239770652726293 ], [ 345124.604391412809491, 6654508.685009153559804 ], [ 345334.253518813056871, 6654082.768921224400401 ], [ 345352.611702637397684, 6654041.079094536602497 ], [ 345310.293144595983904, 6653644.693931332789361 ], [ 345274.342111330362968, 6653277.700461944565177 ], [ 345260.340191423194483, 6653137.019657185301185 ], [ 345257.38212326890789, 6653125.101948253810406 ], [ 345217.385592653532512, 6653051.964749111793935 ], [ 345203.853667375689838, 6653037.034327766858041 ], [ 344925.396052199823316, 6652930.429974326863885 ], [ 344781.713424843619578, 6652841.810324994847178 ], [ 344588.922569933230989, 6652750.804347642697394 ], [ 344328.114712005539332, 6652666.245289755985141 ], [ 344194.434785661054775, 6652611.344026367180049 ], [ 344049.435981208342128, 6652545.218295792117715 ], [ 343804.165043001412414, 6652457.473505550995469 ], [ 343774.718623277032748, 6652466.748261894099414 ], [ 343768.612053185875993, 6652469.013845068402588 ], [ 343488.884875969029963, 6652743.008288200944662 ], [ 343399.17133954516612, 6652867.236757119186223 ], [ 343262.553311373572797, 6653059.023317698389292 ], [ 342970.985258631466422, 6653344.269281924702227 ], [ 342842.063797633512877, 6653326.34474818687886 ], [ 342733.720604171336163, 6653383.591872534714639 ], [ 342727.272897644841578, 6653782.599953791126609 ], [ 342896.447138826537412, 6653924.913737766444683 ], [ 342951.154929592739791, 6653924.144455816596746 ], [ 343061.820560472435318, 6653957.232267051003873 ], [ 343243.392580246494617, 6654249.783602467738092 ], [ 343251.08731698570773, 6654551.626488437876105 ], [ 343240.565139798040036, 6654688.998224523849785 ] ] ] ] } },
{ "type": "Feature", "properties": { "ID": null, "CENTER_LON": "30.309835514127247", "CENTER_LAT": "60.02589726700329", "AA_METERS": 1500, "AA_MODE": "foot-hiking", "TOTAL_POP": "69967", "lead_id": 15 }, "geometry": { "type": "MultiPolygon", "coordinates": [ [ [ [ 349261.421189362183213, 6658472.478274488821626 ], [ 349266.323716984828934, 6658481.865914888679981 ], [ 349441.727636090596206, 6658613.607945661060512 ], [ 349703.988690497586504, 6658659.975225436501205 ], [ 349974.827380238682963, 6658640.565647999756038 ], [ 350067.658015327877365, 6658635.557217587716877 ], [ 350068.84936027781805, 6658631.94097111467272 ], [ 350094.906875395681709, 6658508.90825385786593 ], [ 350384.485317359096371, 6658361.5553885307163 ], [ 350455.540607109782286, 6658582.430414704605937 ], [ 350456.687617307063192, 6658585.951525002717972 ], [ 350583.8783843817655, 6658692.277535285800695 ], [ 350648.300656362320296, 6658712.964765161275864 ], [ 350705.179631138686091, 6658703.076168651692569 ], [ 350924.233052204479463, 6658614.260348281823099 ], [ 350926.865314909955487, 6658613.15034422557801 ], [ 350997.966080817393959, 6658509.48497028555721 ], [ 351094.024914868350606, 6658366.347712969407439 ], [ 351333.208600038429722, 6658003.149104222655296 ], [ 351422.430139651114587, 6657843.351658941246569 ], [ 351422.820034969132394, 6657836.423607208766043 ], [ 351422.085453964071348, 6657782.269580845721066 ], [ 351384.116201183293015, 6657647.339152712374926 ], [ 351382.023008788703009, 6657643.855977640487254 ], [ 351350.462139219162054, 6657598.638863122090697 ], [ 351350.1054791896604, 6657598.095814241096377 ], [ 351206.465467282338068, 6657069.640075012110174 ], [ 351233.748205197509378, 6656952.143375269137323 ], [ 351258.86261562386062, 6656808.534618590958416 ], [ 351258.935270203975961, 6656799.278092151507735 ], [ 351247.352060345932841, 6656701.746920573525131 ], [ 351101.28242996649351, 6656330.925874803215265 ], [ 351098.947466374258511, 6656327.006628850474954 ], [ 351097.821337554545607, 6656325.379802738316357 ], [ 351095.212272842996754, 6656321.583125811070204 ], [ 350927.233767550438643, 6656192.135757874697447 ], [ 350639.247357001702767, 6655959.524345080368221 ], [ 350431.815645862952806, 6655814.639187096618116 ], [ 350431.030958647374064, 6655814.559545979835093 ], [ 350143.234584416612051, 6655907.974653475917876 ], [ 349907.183375944092404, 6656045.01622577290982 ], [ 349712.771014136087615, 6656117.382575090974569 ], [ 349630.630482103559189, 6656173.91529534664005 ], [ 349355.146231460967101, 6656324.421915005892515 ], [ 349121.293739400454797, 6656328.527922256849706 ], [ 349064.17325499036815, 6656379.701259614899755 ], [ 348876.13274776597973, 6656731.811208515428007 ], [ 348794.617456215608399, 6656823.347209536470473 ], [ 348765.366150954738259, 6656885.646259738132358 ], [ 348730.203886270697694, 6657147.761267025955021 ], [ 348774.901137219392695, 6657286.407297953031957 ], [ 348816.100983084412292, 6657367.109340882860124 ], [ 349000.57948151754681, 6657733.488473493605852 ], [ 349034.942372999736108, 6657815.030315940268338 ], [ 349159.277513502398506, 6658137.277805081568658 ], [ 349232.211046062700916, 6658414.36026421841234 ], [ 349261.421189362183213, 6658472.478274488821626 ] ] ] ] } },
{ "type": "Feature", "properties": { "ID": null, "CENTER_LON": "30.300073481748054", "CENTER_LAT": "59.99462863252669", "AA_METERS": 1500, "AA_MODE": "foot-hiking", "TOTAL_POP": "82336", "lead_id": 16 }, "geometry": { "type": "MultiPolygon", "coordinates": [ [ [ [ 348587.169485766498838, 6654597.433077168650925 ], [ 348703.216561568086036, 6654868.501960225403309 ], [ 348822.780196665320545, 6655071.864910684525967 ], [ 348867.030829965835437, 6655128.472421444021165 ], [ 349079.446106968971435, 6655332.496277003549039 ], [ 349262.268216659722384, 6655459.139540959149599 ], [ 349313.980998625047505, 6655481.441580711863935 ], [ 349316.618589898745995, 6655481.779707704670727 ], [ 349442.58996337314602, 6655397.806779157370329 ], [ 349461.936509022605605, 6655383.526023064740002 ], [ 349600.05204607982887, 6655171.516656160354614 ], [ 349885.777673542615958, 6655148.050882584415376 ], [ 349904.988172522746027, 6655142.697430138476193 ], [ 350103.420347779232543, 6655025.027162454091012 ], [ 350260.131532380124554, 6654873.720371792092919 ], [ 350451.112285711977165, 6654714.898649948649108 ], [ 350572.956126785778906, 6654263.330211577937007 ], [ 350580.371688352781348, 6654166.591179266571999 ], [ 350587.750570195610635, 6654001.399101172573864 ], [ 350565.594004790415056, 6653848.775803103111684 ], [ 350490.963601538154762, 6653574.19160401634872 ], [ 350348.571363020979334, 6653186.742304570972919 ], [ 350106.44590548123233, 6652766.556474351324141 ], [ 350056.454504961147904, 6652702.139923905022442 ], [ 349907.0741836798843, 6652526.485122626647353 ], [ 349896.6769392847782, 6652522.225524231791496 ], [ 349726.866817594622262, 6652483.204000462777913 ], [ 349468.722162707941607, 6652411.335477830842137 ], [ 349316.788624470762443, 6652466.928007849492133 ], [ 349037.723538220976479, 6652547.683786378242075 ], [ 349007.924440484377556, 6652555.369749621488154 ], [ 348881.657652540830895, 6652658.986986376345158 ], [ 348643.195385004743002, 6652839.680498465895653 ], [ 348508.44127360638231, 6652967.407820779830217 ], [ 348455.667471907334402, 6653041.265372067689896 ], [ 348417.149542712664697, 6653149.323723781853914 ], [ 348427.446971212455537, 6653433.876482617110014 ], [ 348347.884816091042012, 6654016.019513672217727 ], [ 348351.666203111817595, 6654031.919022229500115 ], [ 348542.849347293318715, 6654404.809796197339892 ], [ 348587.169485766498838, 6654597.433077168650925 ] ] ] ] } },
{ "type": "Feature", "properties": { "ID": null, "CENTER_LON": "30.43288615661219", "CENTER_LAT": "59.99170377525853", "AA_METERS": 1500, "AA_MODE": "foot-hiking", "TOTAL_POP": "18655", "lead_id": 17 }, "geometry": { "type": "MultiPolygon", "coordinates": [ [ [ [ 355439.953250048565678, 6653729.060454223304987 ], [ 355468.786485799937509, 6653829.267167756333947 ], [ 355653.073332137078978, 6654090.607721714302897 ], [ 355809.860793816042133, 6654213.345565663650632 ], [ 356101.795801186584868, 6654500.263263259083033 ], [ 356146.868139521917328, 6654533.620749717578292 ], [ 356314.28746364323888, 6654586.288071068003774 ], [ 356489.008313679019921, 6654670.338892910629511 ], [ 356643.277432139730081, 6654686.632615987211466 ], [ 356904.393363608978689, 6654813.607777710072696 ], [ 357121.409257178893313, 6654812.882078118622303 ], [ 357144.72524392552441, 6654809.525894550606608 ], [ 357165.40697367337998, 6654761.234308579005301 ], [ 357436.663579920888878, 6654575.154872476123273 ], [ 357509.702483681961894, 6654618.929233519360423 ], [ 357544.041435258113779, 6654627.746702816337347 ], [ 357552.385669350042008, 6654626.97835848480463 ], [ 357564.525076334248297, 6654280.814264533109963 ], [ 357567.847894655598793, 6654233.864919583313167 ], [ 357566.472253833082505, 6653767.492135665379465 ], [ 357571.356268312083557, 6653661.176058543846011 ], [ 357573.549866583547555, 6653634.113570344634354 ], [ 357574.206222942739259, 6653536.879081841558218 ], [ 357578.303900485974737, 6653452.108772531151772 ], [ 357802.950038192677312, 6653150.476519279181957 ], [ 357904.059777706221212, 6653249.696935123763978 ], [ 358068.816727177414577, 6653151.272868647240102 ], [ 358149.272696697444189, 6652941.61029408313334 ], [ 358149.002782010589726, 6652937.49601174518466 ], [ 358144.347308016382158, 6652897.76614829339087 ], [ 358143.635517384740524, 6652893.780336071737111 ], [ 358030.498300749692135, 6652725.900076725520194 ], [ 357974.364707258646376, 6652666.413644366897643 ], [ 357730.188244850258343, 6652438.15117618534714 ], [ 357622.392215546336956, 6652287.912410033866763 ], [ 357517.977146235003602, 6652318.028981135226786 ], [ 357284.724888098658994, 6652180.003671349026263 ], [ 357279.279402176151052, 6652176.424027170985937 ], [ 357164.463649468729272, 6652134.157274379394948 ], [ 357164.077493467368186, 6652134.283701264299452 ], [ 357069.605685336806346, 6652314.412985991686583 ], [ 356755.064994219690561, 6652278.898048280738294 ], [ 356637.855566384561826, 6652320.350080925039947 ], [ 356395.19337599654682, 6651917.088262917473912 ], [ 356357.625192171079107, 6651838.95379252359271 ], [ 356073.097092736978084, 6651836.550805096514523 ], [ 356042.988652302185073, 6651843.856628138571978 ], [ 356037.943251477205195, 6651846.283060068264604 ], [ 356019.499808974913321, 6651874.761234590783715 ], [ 355979.915465133497491, 6651951.332272441126406 ], [ 355932.734004033438396, 6652046.48324984870851 ], [ 355741.70161896047648, 6652476.013468801043928 ], [ 355716.689793008612469, 6652540.647199404425919 ], [ 355486.514100836822763, 6652961.914541737176478 ], [ 355451.631378143210895, 6653428.605485582724214 ], [ 355428.576415983727202, 6653629.73028676211834 ], [ 355438.587462772906292, 6653719.861009453423321 ], [ 355439.953250048565678, 6653729.060454223304987 ] ] ] ] } },
{ "type": "Feature", "properties": { "ID": null, "CENTER_LON": "30.198186842195316", "CENTER_LAT": "59.982538378148156", "AA_METERS": 1500, "AA_MODE": "foot-hiking", "TOTAL_POP": "33392", "lead_id": 18 }, "geometry": { "type": "MultiPolygon", "coordinates": [ [ [ [ 342722.79782641940983, 6653381.604567812755704 ], [ 342716.34652394161094, 6653780.501383882015944 ], [ 342837.595268607605249, 6653803.542274096049368 ], [ 342911.838891289196908, 6653812.867227767594159 ], [ 342947.52890992880566, 6653811.458609011955559 ], [ 342969.313943363376893, 6653807.520344465970993 ], [ 342992.45759457454551, 6653800.067800433374941 ], [ 343019.036124009639025, 6653788.009105486795306 ], [ 343090.158459298312664, 6653752.869705070741475 ], [ 343254.523120963131078, 6653641.737427677027881 ], [ 343439.259404852346051, 6653668.12138279620558 ], [ 343627.990306306921411, 6653931.061822861433029 ], [ 343632.921336905448698, 6653932.748245047405362 ], [ 343721.803884020191617, 6653962.096162936650217 ], [ 344019.757891422952525, 6654090.640536896884441 ], [ 344077.866390741895884, 6654112.267022679559886 ], [ 344129.811943130625878, 6654087.21327664796263 ], [ 344283.598000942147337, 6653874.775264166295528 ], [ 344302.488752787932754, 6653831.384649073705077 ], [ 344599.442536844464485, 6653561.4069704124704 ], [ 344611.899305713362992, 6653557.425634399056435 ], [ 344813.483323721098714, 6653450.81880465708673 ], [ 344963.769608511240222, 6653177.459004663862288 ], [ 345081.117650510801468, 6653017.211232675239444 ], [ 345173.921428242232651, 6652808.381114857271314 ], [ 345174.510449425317347, 6652802.446988009847701 ], [ 345105.524437778920401, 6652623.154604284092784 ], [ 344857.232027992955409, 6652186.254702283069491 ], [ 344770.08116015244741, 6652220.024673285894096 ], [ 344464.893825494335033, 6651990.142397958785295 ], [ 344461.317334270919673, 6651986.167670764960349 ], [ 344446.207146568340249, 6652018.804880072362721 ], [ 344410.020011444750708, 6652110.867965801618993 ], [ 344164.002603201079182, 6652433.226037603802979 ], [ 344019.950452381395735, 6652468.972169389948249 ], [ 344005.489194529713131, 6652477.165574848651886 ], [ 343962.865527758491226, 6652514.425030486658216 ], [ 343686.81700158235617, 6652663.144502253271639 ], [ 343672.110525329015218, 6652670.792184396646917 ], [ 343390.569314087275416, 6652788.324533671140671 ], [ 343205.146150367974769, 6652909.820837543345988 ], [ 343193.793449897086248, 6652937.1752769658342 ], [ 343016.491344502195716, 6653367.308641419745982 ], [ 342839.384761310357135, 6653323.782843698747456 ], [ 342733.57825644116383, 6653369.771631815470755 ], [ 342722.79782641940983, 6653381.604567812755704 ] ] ] ] } }
]
}
