{
"type": "FeatureCollection",
"name": "Kalininsky_district",
"crs": { "type": "name", "properties": { "name": "urn:ogc:def:crs:OGC:1.3:CRS84" } },
"features": [
{ "type": "Feature", "properties": { "full_id": "r1181047", "osm_id": "1181047", "osm_type": "relation", "boundary": "administrative", "alt_name": null, "contact:website": null, "wikipedia": "ru:Гражданка (муниципальный округ)", "wikidata": "Q4147488", "website": "https://www.grajdanka.ru/", "type": "boundary", "ref": "18", "official_status": "ru:внутригородская территория города федерального значения", "official_name": "муниципальный округ Гражданка", "name:uk": "Округ Громадянка", "name": "округ Гражданка", "admin_level": "8", "addr:region": "Санкт-Петербург", "addr:country": "RU" }, "geometry": { "type": "MultiPolygon", "coordinates": [ [ [ [ 30.4302052, 60.0127857 ], [ 30.4303573, 60.0129211 ], [ 30.4304737, 60.0130211 ], [ 30.4306542, 60.013176 ], [ 30.4312761, 60.0137099 ], [ 30.4318813, 60.0141978 ], [ 30.4319212, 60.0142694 ], [ 30.4321793, 60.014504 ], [ 30.4323211, 60.0146817 ], [ 30.4322221, 60.0150502 ], [ 30.4321545, 60.0153504 ], [ 30.4321484, 60.0155175 ], [ 30.4329181, 60.0153187 ], [ 30.4331756, 60.0152115 ], [ 30.4333491, 60.0150714 ], [ 30.4330982, 60.0161189 ], [ 30.4330692, 60.0162584 ], [ 30.432946, 60.0167863 ], [ 30.4328996, 60.0170352 ], [ 30.4326534, 60.0194082 ], [ 30.432607, 60.0198719 ], [ 30.4325736, 60.0202267 ], [ 30.432491, 60.0210339 ], [ 30.4324564, 60.0213297 ], [ 30.4307263, 60.0212955 ], [ 30.4307288, 60.0211854 ], [ 30.4306113, 60.0209955 ], [ 30.4303023, 60.0207712 ], [ 30.4299701, 60.0206019 ], [ 30.4298973, 60.0204857 ], [ 30.4297114, 60.0204164 ], [ 30.4292428, 60.0203825 ], [ 30.4286673, 60.0203865 ], [ 30.4281556, 60.0202755 ], [ 30.4273261, 60.0199409 ], [ 30.4265085, 60.0197838 ], [ 30.4256454, 60.0198978 ], [ 30.4252217, 60.0200212 ], [ 30.4248944, 60.020076 ], [ 30.4244451, 60.0200569 ], [ 30.424262, 60.0199671 ], [ 30.424144, 60.0198866 ], [ 30.4239878, 60.0198593 ], [ 30.4238006, 60.0198866 ], [ 30.4235463, 60.0199927 ], [ 30.4232247, 60.020286 ], [ 30.4229177, 60.0205399 ], [ 30.4223085, 60.0204729 ], [ 30.4215941, 60.0204682 ], [ 30.4211587, 60.0204524 ], [ 30.4208246, 60.0205675 ], [ 30.4205577, 60.0205655 ], [ 30.4202649, 60.0204799 ], [ 30.4199924, 60.0204744 ], [ 30.4195851, 60.0206359 ], [ 30.4189403, 60.0207987 ], [ 30.4174083, 60.0192505 ], [ 30.4173748, 60.019217 ], [ 30.4172756, 60.0191181 ], [ 30.4171713, 60.0190146 ], [ 30.4169183, 60.0187657 ], [ 30.4166169, 60.0184633 ], [ 30.4164814, 60.0183285 ], [ 30.4163624, 60.0182098 ], [ 30.4161907, 60.0180394 ], [ 30.4155136, 60.0173662 ], [ 30.415189, 60.0170433 ], [ 30.4150603, 60.0169151 ], [ 30.4149902, 60.0168457 ], [ 30.4149166, 60.0167725 ], [ 30.41418, 60.0160414 ], [ 30.4131881, 60.0150536 ], [ 30.412922, 60.014789 ], [ 30.4128229, 60.0146904 ], [ 30.4127415, 60.0146092 ], [ 30.4125842, 60.014453 ], [ 30.4125065, 60.0143758 ], [ 30.412383, 60.0142529 ], [ 30.4123291, 60.0141993 ], [ 30.4119994, 60.0138719 ], [ 30.4118178, 60.0136908 ], [ 30.4111374, 60.0130139 ], [ 30.410549, 60.0124287 ], [ 30.4104488, 60.012329 ], [ 30.4103033, 60.0121843 ], [ 30.4090211, 60.010909 ], [ 30.409008, 60.0108959 ], [ 30.408694, 60.0105836 ], [ 30.4085228, 60.0104209 ], [ 30.4084588, 60.0103813 ], [ 30.3977441, 60.0130772 ], [ 30.3939118, 60.0092347 ], [ 30.391195, 60.006572 ], [ 30.3855206, 60.0075418 ], [ 30.3854645, 60.0074497 ], [ 30.385378, 60.0073003 ], [ 30.3836292, 60.0047083 ], [ 30.3821312, 60.0025024 ], [ 30.3820225, 60.0023412 ], [ 30.3819127, 60.002191 ], [ 30.3812662, 60.0015282 ], [ 30.3807918, 60.0010855 ], [ 30.3802469, 60.0005147 ], [ 30.3791539, 59.999431 ], [ 30.3790131, 59.9992705 ], [ 30.3781953, 59.9980763 ], [ 30.3773153, 59.9967651 ], [ 30.377232, 59.9965962 ], [ 30.3766219, 59.9966799 ], [ 30.3753383, 59.9968193 ], [ 30.3705787, 59.9974967 ], [ 30.3656459, 59.9980995 ], [ 30.364645, 59.9982197 ], [ 30.3645587, 59.9979939 ], [ 30.3644571, 59.997768 ], [ 30.364301, 59.997363 ], [ 30.3641075, 59.99699 ], [ 30.3640009, 59.9967307 ], [ 30.3638684, 59.9964417 ], [ 30.3638346, 59.9963885 ], [ 30.3637981, 59.9963348 ], [ 30.3637541, 59.9962898 ], [ 30.3635889, 59.9961891 ], [ 30.3623082, 59.9953778 ], [ 30.3615737, 59.9949372 ], [ 30.3609674, 59.994631 ], [ 30.3607482, 59.9945267 ], [ 30.3604169, 59.9943691 ], [ 30.3593051, 59.9939264 ], [ 30.3596709, 59.9938946 ], [ 30.3734895, 59.9919049 ], [ 30.3738628, 59.9918747 ], [ 30.3743332, 59.9918662 ], [ 30.3745735, 59.9918898 ], [ 30.3748226, 59.9919154 ], [ 30.3751004, 59.991967 ], [ 30.3753074, 59.992016 ], [ 30.3755067, 59.9920706 ], [ 30.3757289, 59.9921628 ], [ 30.3759158, 59.9922558 ], [ 30.3759802, 59.992294 ], [ 30.3760639, 59.9923435 ], [ 30.3762032, 59.992447 ], [ 30.376394, 59.9926001 ], [ 30.3765032, 59.9925808 ], [ 30.3766885, 59.9925472 ], [ 30.3768647, 59.9925361 ], [ 30.3770687, 59.9925379 ], [ 30.3792761, 59.994724 ], [ 30.3806449, 59.9960905 ], [ 30.3810615, 59.9960145 ], [ 30.3913017, 59.994657 ], [ 30.3914806, 59.9949707 ], [ 30.3915381, 59.99506 ], [ 30.3919852, 59.9957594 ], [ 30.3938909, 59.9987402 ], [ 30.3943166, 59.9994061 ], [ 30.3944058, 59.9995291 ], [ 30.3944775, 59.999628 ], [ 30.3945403, 59.999707 ], [ 30.3946192, 59.9998063 ], [ 30.3947207, 59.999919 ], [ 30.3947738, 59.9999779 ], [ 30.3948194, 60.0000285 ], [ 30.3948724, 60.0000862 ], [ 30.3949257, 60.0001443 ], [ 30.3949779, 60.0001937 ], [ 30.3950407, 60.0002533 ], [ 30.3951174, 60.0003264 ], [ 30.3951673, 60.0003739 ], [ 30.3952012, 60.0004061 ], [ 30.3952271, 60.0004308 ], [ 30.3953517, 60.0005552 ], [ 30.3954009, 60.0006043 ], [ 30.395515, 60.0007182 ], [ 30.3955905, 60.0007936 ], [ 30.3964672, 60.0016687 ], [ 30.3964994, 60.0017009 ], [ 30.3965109, 60.0017124 ], [ 30.3965195, 60.0017101 ], [ 30.3967871, 60.0016428 ], [ 30.3969467, 60.0016022 ], [ 30.4011115, 60.0005423 ], [ 30.4017222, 60.0006626 ], [ 30.401703, 60.0006904 ], [ 30.4017664, 60.0007639 ], [ 30.4018162, 60.0007512 ], [ 30.4042767, 60.0011618 ], [ 30.4063218, 60.001514 ], [ 30.4064212, 60.0015546 ], [ 30.4064509, 60.0015788 ], [ 30.4070891, 60.0016956 ], [ 30.4096678, 60.0021437 ], [ 30.410342, 60.0022555 ], [ 30.4117837, 60.0025163 ], [ 30.4132825, 60.0027949 ], [ 30.4134811, 60.0028311 ], [ 30.4147831, 60.0030954 ], [ 30.4153218, 60.0031986 ], [ 30.4164436, 60.0034232 ], [ 30.4167111, 60.003473 ], [ 30.4170882, 60.0035506 ], [ 30.4175578, 60.0036514 ], [ 30.4178646, 60.0037257 ], [ 30.4181246, 60.0037984 ], [ 30.4184731, 60.0039143 ], [ 30.4187779, 60.0040283 ], [ 30.4191112, 60.0041603 ], [ 30.4193716, 60.0042779 ], [ 30.4195779, 60.0043797 ], [ 30.4198144, 60.0045052 ], [ 30.420078, 60.0046451 ], [ 30.4202141, 60.0046818 ], [ 30.4202923, 60.0047029 ], [ 30.4203463, 60.004717 ], [ 30.4203973, 60.0047304 ], [ 30.4204596, 60.0047378 ], [ 30.4205056, 60.0047432 ], [ 30.4205649, 60.0047423 ], [ 30.4206373, 60.0047411 ], [ 30.4222438, 60.0060776 ], [ 30.4223283, 60.0061477 ], [ 30.4224271, 60.0062297 ], [ 30.4236474, 60.0072364 ], [ 30.4276601, 60.0106309 ], [ 30.4298833, 60.01251 ], [ 30.4302052, 60.0127857 ] ] ] ] } },
{ "type": "Feature", "properties": { "full_id": "r1181900", "osm_id": "1181900", "osm_type": "relation", "boundary": "administrative", "alt_name": null, "contact:website": "http://www.mo-piskarevka.spb.ru", "wikipedia": "ru:Пискарёвка (муниципальный округ)", "wikidata": "Q4363631", "website": null, "type": "boundary", "ref": "22", "official_status": "ru:внутригородская территория города федерального значения", "official_name": "муниципальный округ Пискаревка", "name:uk": "Округ Пискарівка", "name": "округ Пискарёвка", "admin_level": "8", "addr:region": "Санкт-Петербург", "addr:country": "RU" }, "geometry": { "type": "MultiPolygon", "coordinates": [ [ [ [ 30.4321545, 60.0153504 ], [ 30.4322221, 60.0150502 ], [ 30.4323211, 60.0146817 ], [ 30.4321793, 60.014504 ], [ 30.4319212, 60.0142694 ], [ 30.4318813, 60.0141978 ], [ 30.4312761, 60.0137099 ], [ 30.4306542, 60.013176 ], [ 30.4304737, 60.0130211 ], [ 30.4303573, 60.0129211 ], [ 30.4302052, 60.0127857 ], [ 30.4298833, 60.01251 ], [ 30.4276601, 60.0106309 ], [ 30.4236474, 60.0072364 ], [ 30.4224271, 60.0062297 ], [ 30.4223283, 60.0061477 ], [ 30.4222438, 60.0060776 ], [ 30.4206373, 60.0047411 ], [ 30.4205649, 60.0047423 ], [ 30.4205056, 60.0047432 ], [ 30.4204596, 60.0047378 ], [ 30.4203973, 60.0047304 ], [ 30.4203463, 60.004717 ], [ 30.4202923, 60.0047029 ], [ 30.4202141, 60.0046818 ], [ 30.420078, 60.0046451 ], [ 30.4198144, 60.0045052 ], [ 30.4195779, 60.0043797 ], [ 30.4193716, 60.0042779 ], [ 30.4191112, 60.0041603 ], [ 30.4187779, 60.0040283 ], [ 30.4184731, 60.0039143 ], [ 30.4181246, 60.0037984 ], [ 30.4178646, 60.0037257 ], [ 30.4175578, 60.0036514 ], [ 30.4170882, 60.0035506 ], [ 30.4167111, 60.003473 ], [ 30.4164436, 60.0034232 ], [ 30.4153218, 60.0031986 ], [ 30.4147831, 60.0030954 ], [ 30.4134811, 60.0028311 ], [ 30.4132825, 60.0027949 ], [ 30.4117837, 60.0025163 ], [ 30.410342, 60.0022555 ], [ 30.4096678, 60.0021437 ], [ 30.4070891, 60.0016956 ], [ 30.4064509, 60.0015788 ], [ 30.4064212, 60.0015546 ], [ 30.4063218, 60.001514 ], [ 30.4042767, 60.0011618 ], [ 30.4018162, 60.0007512 ], [ 30.4017664, 60.0007639 ], [ 30.401703, 60.0006904 ], [ 30.4017222, 60.0006626 ], [ 30.4011115, 60.0005423 ], [ 30.3969467, 60.0016022 ], [ 30.3967871, 60.0016428 ], [ 30.3965195, 60.0017101 ], [ 30.3965109, 60.0017124 ], [ 30.3964994, 60.0017009 ], [ 30.3964672, 60.0016687 ], [ 30.3955905, 60.0007936 ], [ 30.395515, 60.0007182 ], [ 30.3954009, 60.0006043 ], [ 30.3953517, 60.0005552 ], [ 30.3952271, 60.0004308 ], [ 30.3952012, 60.0004061 ], [ 30.3951673, 60.0003739 ], [ 30.3951174, 60.0003264 ], [ 30.3950407, 60.0002533 ], [ 30.3949779, 60.0001937 ], [ 30.3949257, 60.0001443 ], [ 30.3948724, 60.0000862 ], [ 30.3948194, 60.0000285 ], [ 30.3947738, 59.9999779 ], [ 30.3947207, 59.999919 ], [ 30.3946192, 59.9998063 ], [ 30.3945403, 59.999707 ], [ 30.3944775, 59.999628 ], [ 30.3944058, 59.9995291 ], [ 30.3943166, 59.9994061 ], [ 30.3938909, 59.9987402 ], [ 30.3919852, 59.9957594 ], [ 30.3915381, 59.99506 ], [ 30.3914806, 59.9949707 ], [ 30.3913017, 59.994657 ], [ 30.3810615, 59.9960145 ], [ 30.3806449, 59.9960905 ], [ 30.3792761, 59.994724 ], [ 30.3770687, 59.9925379 ], [ 30.3768647, 59.9925361 ], [ 30.3766885, 59.9925472 ], [ 30.3765032, 59.9925808 ], [ 30.376394, 59.9926001 ], [ 30.3762032, 59.992447 ], [ 30.3760639, 59.9923435 ], [ 30.3759802, 59.992294 ], [ 30.3759158, 59.9922558 ], [ 30.3757289, 59.9921628 ], [ 30.3755067, 59.9920706 ], [ 30.3753074, 59.992016 ], [ 30.3751004, 59.991967 ], [ 30.3748226, 59.9919154 ], [ 30.3745735, 59.9918898 ], [ 30.3743332, 59.9918662 ], [ 30.3738628, 59.9918747 ], [ 30.3734895, 59.9919049 ], [ 30.3596709, 59.9938946 ], [ 30.3593051, 59.9939264 ], [ 30.3580375, 59.9934051 ], [ 30.356119, 59.9926106 ], [ 30.3553653, 59.9922899 ], [ 30.354191, 59.9918044 ], [ 30.3537775, 59.9916333 ], [ 30.3533885, 59.9914709 ], [ 30.3533133, 59.9914399 ], [ 30.353068, 59.9913422 ], [ 30.3528782, 59.9912629 ], [ 30.3526738, 59.9911942 ], [ 30.3524935, 59.9911489 ], [ 30.3523169, 59.9911132 ], [ 30.3521614, 59.9910925 ], [ 30.3520328, 59.9910832 ], [ 30.3517896, 59.9910703 ], [ 30.3508765, 59.991022 ], [ 30.350329, 59.9909978 ], [ 30.3491304, 59.9909286 ], [ 30.3486157, 59.9908854 ], [ 30.3481245, 59.9907578 ], [ 30.3476967, 59.9905534 ], [ 30.3471997, 59.9902152 ], [ 30.3471185, 59.9901465 ], [ 30.3470842, 59.9901159 ], [ 30.3470533, 59.9900633 ], [ 30.3469962, 59.989947 ], [ 30.3470188, 59.9899186 ], [ 30.3470623, 59.989864 ], [ 30.3472746, 59.9898125 ], [ 30.3473983, 59.9898004 ], [ 30.3476211, 59.9898209 ], [ 30.3496622, 59.9899 ], [ 30.3500954, 59.9898912 ], [ 30.350563, 59.9898536 ], [ 30.3508761, 59.9898076 ], [ 30.3511361, 59.9897534 ], [ 30.3513957, 59.9896959 ], [ 30.3516941, 59.9896025 ], [ 30.3519522, 59.9895064 ], [ 30.3520224, 59.9894774 ], [ 30.3521572, 59.9894206 ], [ 30.3522991, 59.989356 ], [ 30.3528164, 59.9890859 ], [ 30.3529993, 59.9889936 ], [ 30.3539199, 59.9884999 ], [ 30.3543785, 59.9882575 ], [ 30.355017, 59.9879181 ], [ 30.3556223, 59.9875909 ], [ 30.3558966, 59.9874379 ], [ 30.3568244, 59.9869206 ], [ 30.3571453, 59.9867548 ], [ 30.3573954, 59.9866293 ], [ 30.3575104, 59.9865691 ], [ 30.3577913, 59.9865794 ], [ 30.3584306, 59.9866028 ], [ 30.3586234, 59.9866099 ], [ 30.3587426, 59.9866019 ], [ 30.3590281, 59.9865828 ], [ 30.3593481, 59.9865614 ], [ 30.3595357, 59.9865373 ], [ 30.3599627, 59.9864826 ], [ 30.3601303, 59.9864568 ], [ 30.3604916, 59.9864012 ], [ 30.361301, 59.9862609 ], [ 30.3617559, 59.986182 ], [ 30.3627368, 59.9859847 ], [ 30.3629041, 59.985951 ], [ 30.3635829, 59.9857831 ], [ 30.3637105, 59.9857516 ], [ 30.3638158, 59.9857152 ], [ 30.364383, 59.9855195 ], [ 30.3646058, 59.9854426 ], [ 30.3647294, 59.9854 ], [ 30.3658023, 59.9850299 ], [ 30.3766021, 59.9813042 ], [ 30.3819857, 59.9794469 ], [ 30.3823755, 59.9793124 ], [ 30.3834853, 59.9789447 ], [ 30.3843739, 59.9787116 ], [ 30.3856241, 59.9784703 ], [ 30.3869077, 59.9783256 ], [ 30.3881488, 59.9781856 ], [ 30.3908925, 59.9778762 ], [ 30.3910914, 59.9778538 ], [ 30.3911246, 59.9778501 ], [ 30.3917687, 59.9777774 ], [ 30.3930112, 59.9776373 ], [ 30.3930707, 59.9777006 ], [ 30.3931737, 59.9778114 ], [ 30.3935918, 59.9782619 ], [ 30.3939726, 59.9786735 ], [ 30.3942763, 59.9790022 ], [ 30.3943422, 59.9790735 ], [ 30.3944584, 59.9791979 ], [ 30.3946451, 59.9793981 ], [ 30.3949494, 59.9797246 ], [ 30.3958461, 59.9806907 ], [ 30.3966219, 59.9815265 ], [ 30.3977356, 59.9827511 ], [ 30.3978909, 59.9829219 ], [ 30.3979806, 59.9830206 ], [ 30.3980292, 59.9830733 ], [ 30.3982294, 59.9832904 ], [ 30.398264, 59.9833294 ], [ 30.398613, 59.9836989 ], [ 30.3990513, 59.9841738 ], [ 30.3991175, 59.9842445 ], [ 30.3992608, 59.984401 ], [ 30.3993913, 59.9845423 ], [ 30.3996949, 59.9844707 ], [ 30.4000375, 59.9844129 ], [ 30.4002911, 59.9843722 ], [ 30.4008037, 59.9842921 ], [ 30.401505, 59.9841831 ], [ 30.401851, 59.9841286 ], [ 30.4020054, 59.9841045 ], [ 30.4026136, 59.9840096 ], [ 30.4036231, 59.983852 ], [ 30.4037741, 59.9838284 ], [ 30.4039157, 59.9838063 ], [ 30.4041353, 59.983772 ], [ 30.4055589, 59.9835513 ], [ 30.4055954, 59.9835456 ], [ 30.4072191, 59.9832895 ], [ 30.4073825, 59.983264 ], [ 30.4079408, 59.983175 ], [ 30.408277, 59.9831003 ], [ 30.4087763, 59.9829867 ], [ 30.4090633, 59.98292 ], [ 30.4095055, 59.9828128 ], [ 30.409735, 59.9827596 ], [ 30.4099647, 59.9827068 ], [ 30.4100908, 59.9826774 ], [ 30.410172, 59.9826592 ], [ 30.4128088, 59.9820696 ], [ 30.4129988, 59.982027 ], [ 30.4131121, 59.9820023 ], [ 30.4132576, 59.9819711 ], [ 30.4133293, 59.981955 ], [ 30.4134559, 59.9819266 ], [ 30.4147048, 59.9816464 ], [ 30.4150112, 59.9815777 ], [ 30.4154686, 59.9814751 ], [ 30.4176869, 59.9809774 ], [ 30.4185377, 59.9807865 ], [ 30.4211971, 59.9801797 ], [ 30.4213279, 59.9803158 ], [ 30.4272608, 59.9858927 ], [ 30.433287, 59.9916203 ], [ 30.4378776, 59.9959378 ], [ 30.4393551, 59.9971858 ], [ 30.4421741, 59.9998155 ], [ 30.4409046, 60.0031988 ], [ 30.440655, 60.0038536 ], [ 30.4400212, 60.0055167 ], [ 30.4381922, 60.0103148 ], [ 30.437474, 60.0121987 ], [ 30.4365795, 60.014498 ], [ 30.4364184, 60.0150355 ], [ 30.4363331, 60.0156677 ], [ 30.4363758, 60.0161081 ], [ 30.4364705, 60.0165343 ], [ 30.4367643, 60.0172163 ], [ 30.4372515, 60.0183848 ], [ 30.4374191, 60.0191382 ], [ 30.437399, 60.0197442 ], [ 30.4373722, 60.0202263 ], [ 30.437266, 60.0210632 ], [ 30.4371896, 60.0210427 ], [ 30.4369281, 60.0210067 ], [ 30.4366248, 60.0210916 ], [ 30.4365013, 60.0211248 ], [ 30.4364704, 60.021147 ], [ 30.4363941, 60.021202 ], [ 30.4362473, 60.0211987 ], [ 30.4361202, 60.0211777 ], [ 30.435936, 60.0211749 ], [ 30.4352766, 60.0212072 ], [ 30.4350448, 60.0213931 ], [ 30.4347414, 60.0215589 ], [ 30.4345892, 60.0215847 ], [ 30.4343959, 60.0215683 ], [ 30.4340257, 60.0214418 ], [ 30.4336895, 60.0213834 ], [ 30.4332937, 60.0213423 ], [ 30.432946, 60.0213383 ], [ 30.4324564, 60.0213297 ], [ 30.432491, 60.0210339 ], [ 30.4325736, 60.0202267 ], [ 30.432607, 60.0198719 ], [ 30.4326534, 60.0194082 ], [ 30.4328996, 60.0170352 ], [ 30.432946, 60.0167863 ], [ 30.4330692, 60.0162584 ], [ 30.4330982, 60.0161189 ], [ 30.4333491, 60.0150714 ], [ 30.4331756, 60.0152115 ], [ 30.4329181, 60.0153187 ], [ 30.4321484, 60.0155175 ], [ 30.4321545, 60.0153504 ] ] ] ] } },
{ "type": "Feature", "properties": { "full_id": "r1181901", "osm_id": "1181901", "osm_type": "relation", "boundary": "administrative", "alt_name": null, "contact:website": "http://www.mo24-prometey.ru/", "wikipedia": "ru:Прометей (муниципальный округ)", "wikidata": "Q4380609", "website": null, "type": "boundary", "ref": "24", "official_status": "ru:внутригородская территория города федерального значения", "official_name": "муниципальный округ Прометей", "name:uk": "Округ Прометей", "name": "округ Прометей", "admin_level": "8", "addr:region": "Санкт-Петербург", "addr:country": "RU" }, "geometry": { "type": "MultiPolygon", "coordinates": [ [ [ [ 30.3780499, 60.0320295 ], [ 30.3788975, 60.0320673 ], [ 30.3796806, 60.0319167 ], [ 30.3817744, 60.0314577 ], [ 30.3841009, 60.0312369 ], [ 30.3852781, 60.030756 ], [ 30.3854819, 60.030669 ], [ 30.3859466, 60.0304894 ], [ 30.3862685, 60.0303035 ], [ 30.3863329, 60.0302569 ], [ 30.3864476, 60.030215 ], [ 30.3865542, 60.0302087 ], [ 30.3866698, 60.0302085 ], [ 30.3867097, 60.0302038 ], [ 30.3867429, 60.0301929 ], [ 30.3867412, 60.0301705 ], [ 30.3867459, 60.0301377 ], [ 30.386752, 60.0300824 ], [ 30.3867875, 60.0300375 ], [ 30.3869364, 60.0299735 ], [ 30.3871825, 60.0299115 ], [ 30.3872864, 60.0298901 ], [ 30.3874554, 60.0298335 ], [ 30.3876083, 60.0297977 ], [ 30.3877182, 60.0297769 ], [ 30.3877886, 60.0297585 ], [ 30.3878295, 60.029736 ], [ 30.3878456, 60.0297009 ], [ 30.3878747, 60.0296615 ], [ 30.3878684, 60.0294352 ], [ 30.3878926, 60.029385 ], [ 30.3879241, 60.0293444 ], [ 30.3879677, 60.0293029 ], [ 30.3880133, 60.0292647 ], [ 30.3880696, 60.0292439 ], [ 30.3881185, 60.0292332 ], [ 30.3882158, 60.0292238 ], [ 30.3882755, 60.0292292 ], [ 30.3883559, 60.0292349 ], [ 30.3886731, 60.0293099 ], [ 30.388893, 60.0293478 ], [ 30.3891123, 60.0293917 ], [ 30.3892317, 60.0294041 ], [ 30.3893014, 60.0294044 ], [ 30.3893825, 60.029387 ], [ 30.3907612, 60.0290597 ], [ 30.3913754, 60.0289847 ], [ 30.3919561, 60.0289565 ], [ 30.3924309, 60.0289331 ], [ 30.3929204, 60.0289264 ], [ 30.3934139, 60.0289304 ], [ 30.3938015, 60.0289297 ], [ 30.3943004, 60.0289016 ], [ 30.3945431, 60.0288661 ], [ 30.3946759, 60.0288674 ], [ 30.3948757, 60.0288835 ], [ 30.3949642, 60.0288467 ], [ 30.3950272, 60.0288172 ], [ 30.3951198, 60.0287281 ], [ 30.3952914, 60.0286329 ], [ 30.3955449, 60.0285512 ], [ 30.3956535, 60.0284554 ], [ 30.3956722, 60.0282924 ], [ 30.3956722, 60.0282314 ], [ 30.3956679, 60.0281652 ], [ 30.3956501, 60.0280883 ], [ 30.3956692, 60.0280617 ], [ 30.3957006, 60.0280474 ], [ 30.3957824, 60.0280113 ], [ 30.3958874, 60.0278703 ], [ 30.3960687, 60.0276571 ], [ 30.3963921, 60.027423 ], [ 30.3966233, 60.0272678 ], [ 30.3967313, 60.0271578 ], [ 30.3968364, 60.0270864 ], [ 30.3969386, 60.0270569 ], [ 30.3970596, 60.027022 ], [ 30.3972062, 60.0269267 ], [ 30.3973866, 60.026864 ], [ 30.3975914, 60.0267904 ], [ 30.3977976, 60.0267533 ], [ 30.3979814, 60.0267309 ], [ 30.3981638, 60.0267342 ], [ 30.3986087, 60.0267492 ], [ 30.3993214, 60.0267705 ], [ 30.3997284, 60.0267485 ], [ 30.4010555, 60.0265118 ], [ 30.4012975, 60.026469 ], [ 30.401966, 60.0262981 ], [ 30.4022695, 60.0261987 ], [ 30.4034852, 60.0275604 ], [ 30.403629, 60.0276897 ], [ 30.4037315, 60.0278303 ], [ 30.4041367, 60.0283312 ], [ 30.4044173, 60.028678 ], [ 30.4044616, 60.0287324 ], [ 30.4046752, 60.0289967 ], [ 30.4047199, 60.029052 ], [ 30.4047859, 60.0291337 ], [ 30.4049066, 60.0292828 ], [ 30.4054058, 60.0298999 ], [ 30.4055971, 60.0301363 ], [ 30.4061837, 60.0308614 ], [ 30.4063656, 60.0310863 ], [ 30.4065661, 60.0313341 ], [ 30.4065976, 60.0313729 ], [ 30.4066902, 60.0314854 ], [ 30.4067723, 60.0315852 ], [ 30.4070724, 60.0319486 ], [ 30.4072879, 60.0322144 ], [ 30.4076615, 60.0326753 ], [ 30.4077887, 60.0328312 ], [ 30.4082831, 60.0334384 ], [ 30.4087447, 60.034003 ], [ 30.4087789, 60.0340449 ], [ 30.4088739, 60.0341613 ], [ 30.4093346, 60.034726 ], [ 30.4093777, 60.0347802 ], [ 30.4098608, 60.0353692 ], [ 30.4099387, 60.0354664 ], [ 30.4104123, 60.0360467 ], [ 30.4108153, 60.0365406 ], [ 30.4109359, 60.0366884 ], [ 30.4110309, 60.0368048 ], [ 30.4111985, 60.0370072 ], [ 30.4113334, 60.0371755 ], [ 30.4113955, 60.0372517 ], [ 30.4114248, 60.0372875 ], [ 30.411486, 60.0373625 ], [ 30.4116333, 60.0375439 ], [ 30.4116985, 60.037623 ], [ 30.4117855, 60.0377318 ], [ 30.4120085, 60.0380029 ], [ 30.4124278, 60.0385167 ], [ 30.4127871, 60.038957 ], [ 30.4134355, 60.0397534 ], [ 30.4134876, 60.0398171 ], [ 30.4136094, 60.039966 ], [ 30.4136521, 60.0400182 ], [ 30.4136797, 60.0400519 ], [ 30.4137245, 60.0401068 ], [ 30.4137441, 60.0401306 ], [ 30.4140379, 60.0404937 ], [ 30.4147335, 60.0413421 ], [ 30.414893, 60.0415374 ], [ 30.4149775, 60.0416408 ], [ 30.4150599, 60.041742 ], [ 30.4151368, 60.0418454 ], [ 30.4152062, 60.0419312 ], [ 30.4152559, 60.0419933 ], [ 30.4152988, 60.0420458 ], [ 30.4161545, 60.0430946 ], [ 30.4163401, 60.043322 ], [ 30.4167629, 60.0438402 ], [ 30.4172386, 60.0444231 ], [ 30.4174118, 60.0446355 ], [ 30.4176018, 60.0448683 ], [ 30.4177335, 60.045032 ], [ 30.4178503, 60.0451773 ], [ 30.4188839, 60.0460853 ], [ 30.4156491, 60.0467092 ], [ 30.417048, 60.0481373 ], [ 30.4184151, 60.0495468 ], [ 30.4128121, 60.0509141 ], [ 30.4066015, 60.0524285 ], [ 30.4017109, 60.0536574 ], [ 30.3965713, 60.0550063 ], [ 30.3929866, 60.0503885 ], [ 30.385422, 60.0411046 ], [ 30.3791742, 60.0333854 ], [ 30.3780499, 60.0320295 ] ] ] ] } },
{ "type": "Feature", "properties": { "full_id": "r1181902", "osm_id": "1181902", "osm_type": "relation", "boundary": "administrative", "alt_name": null, "contact:website": "http://www.mo-akademicheskoe-spb.ru", "wikipedia": "ru:Академическое (муниципальный округ, Санкт-Петербург)", "wikidata": "Q4059198", "website": null, "type": "boundary", "ref": "19", "official_status": "ru:внутригородская территория города федерального значения", "official_name": "муниципальный округ Академическое", "name:uk": "Округ Академічний", "name": "округ Академическое", "admin_level": "8", "addr:region": "Санкт-Петербург", "addr:country": "RU" }, "geometry": { "type": "MultiPolygon", "coordinates": [ [ [ [ 30.391195, 60.006572 ], [ 30.3855206, 60.0075418 ], [ 30.3854645, 60.0074497 ], [ 30.385378, 60.0073003 ], [ 30.3836292, 60.0047083 ], [ 30.3821312, 60.0025024 ], [ 30.3820225, 60.0023412 ], [ 30.3819127, 60.002191 ], [ 30.3812662, 60.0015282 ], [ 30.3807918, 60.0010855 ], [ 30.3802469, 60.0005147 ], [ 30.3791539, 59.999431 ], [ 30.3790131, 59.9992705 ], [ 30.3781953, 59.9980763 ], [ 30.3773153, 59.9967651 ], [ 30.377232, 59.9965962 ], [ 30.3766219, 59.9966799 ], [ 30.3753383, 59.9968193 ], [ 30.3705787, 59.9974967 ], [ 30.3656459, 59.9980995 ], [ 30.364645, 59.9982197 ], [ 30.3647103, 59.9984021 ], [ 30.3648256, 59.9986651 ], [ 30.365578, 60.0004733 ], [ 30.3659669, 60.0013645 ], [ 30.367116, 60.0031001 ], [ 30.3681267, 60.0045967 ], [ 30.3688995, 60.0057321 ], [ 30.3697907, 60.0071098 ], [ 30.3698408, 60.0072122 ], [ 30.3698529, 60.0072794 ], [ 30.3697977, 60.0076977 ], [ 30.3695278, 60.008771 ], [ 30.3695027, 60.0088466 ], [ 30.3694238, 60.0090037 ], [ 30.3693371, 60.0091247 ], [ 30.3692697, 60.0092161 ], [ 30.3691307, 60.0094041 ], [ 30.3690451, 60.0096061 ], [ 30.3690253, 60.0097419 ], [ 30.3690354, 60.0098372 ], [ 30.3691256, 60.0100632 ], [ 30.3691634, 60.0102165 ], [ 30.3691635, 60.0104191 ], [ 30.368746, 60.0122845 ], [ 30.3687124, 60.0124286 ], [ 30.3686387, 60.0127329 ], [ 30.368582, 60.0129721 ], [ 30.3685577, 60.0130803 ], [ 30.368356, 60.0139025 ], [ 30.3681109, 60.0149293 ], [ 30.3680962, 60.0149916 ], [ 30.3679909, 60.0154362 ], [ 30.367955, 60.0155876 ], [ 30.367653, 60.0168491 ], [ 30.3675625, 60.0171857 ], [ 30.3674804, 60.0175185 ], [ 30.3673145, 60.0183805 ], [ 30.3672755, 60.0187685 ], [ 30.3672865, 60.0191606 ], [ 30.3672517, 60.019399 ], [ 30.3668449, 60.0214913 ], [ 30.3660748, 60.0253985 ], [ 30.3652255, 60.0297057 ], [ 30.3649192, 60.0314225 ], [ 30.3648662, 60.0317869 ], [ 30.3648499, 60.0321357 ], [ 30.3655551, 60.0320946 ], [ 30.3665835, 60.0320205 ], [ 30.3685243, 60.0318492 ], [ 30.3703492, 60.031631 ], [ 30.3717426, 60.0314196 ], [ 30.3732548, 60.0311275 ], [ 30.3751135, 60.0307341 ], [ 30.3770255, 60.0302217 ], [ 30.3772441, 60.0304578 ], [ 30.3772875, 60.0306663 ], [ 30.3770399, 60.0312465 ], [ 30.3771383, 60.0315921 ], [ 30.3773994, 60.0318601 ], [ 30.3780499, 60.0320295 ], [ 30.3788975, 60.0320673 ], [ 30.3796806, 60.0319167 ], [ 30.3817744, 60.0314577 ], [ 30.3841009, 60.0312369 ], [ 30.3852781, 60.030756 ], [ 30.3854819, 60.030669 ], [ 30.3859466, 60.0304894 ], [ 30.3862685, 60.0303035 ], [ 30.3863329, 60.0302569 ], [ 30.3864476, 60.030215 ], [ 30.3865542, 60.0302087 ], [ 30.3866698, 60.0302085 ], [ 30.3867097, 60.0302038 ], [ 30.3867429, 60.0301929 ], [ 30.3867412, 60.0301705 ], [ 30.3867459, 60.0301377 ], [ 30.386752, 60.0300824 ], [ 30.3867875, 60.0300375 ], [ 30.3869364, 60.0299735 ], [ 30.3871825, 60.0299115 ], [ 30.3872864, 60.0298901 ], [ 30.3874554, 60.0298335 ], [ 30.3876083, 60.0297977 ], [ 30.3877182, 60.0297769 ], [ 30.3877886, 60.0297585 ], [ 30.3878295, 60.029736 ], [ 30.3878456, 60.0297009 ], [ 30.3878747, 60.0296615 ], [ 30.3878684, 60.0294352 ], [ 30.3878926, 60.029385 ], [ 30.3879241, 60.0293444 ], [ 30.3879677, 60.0293029 ], [ 30.3880133, 60.0292647 ], [ 30.3880696, 60.0292439 ], [ 30.3881185, 60.0292332 ], [ 30.3882158, 60.0292238 ], [ 30.3882755, 60.0292292 ], [ 30.3883559, 60.0292349 ], [ 30.3886731, 60.0293099 ], [ 30.388893, 60.0293478 ], [ 30.3891123, 60.0293917 ], [ 30.3892317, 60.0294041 ], [ 30.3893014, 60.0294044 ], [ 30.3893825, 60.029387 ], [ 30.3907612, 60.0290597 ], [ 30.3913754, 60.0289847 ], [ 30.3919561, 60.0289565 ], [ 30.3924309, 60.0289331 ], [ 30.3929204, 60.0289264 ], [ 30.3934139, 60.0289304 ], [ 30.3938015, 60.0289297 ], [ 30.3943004, 60.0289016 ], [ 30.3945431, 60.0288661 ], [ 30.3946759, 60.0288674 ], [ 30.3948757, 60.0288835 ], [ 30.3949642, 60.0288467 ], [ 30.3950272, 60.0288172 ], [ 30.3951198, 60.0287281 ], [ 30.3952914, 60.0286329 ], [ 30.3955449, 60.0285512 ], [ 30.3956535, 60.0284554 ], [ 30.3956722, 60.0282924 ], [ 30.3956722, 60.0282314 ], [ 30.3956679, 60.0281652 ], [ 30.3956501, 60.0280883 ], [ 30.3956692, 60.0280617 ], [ 30.3957006, 60.0280474 ], [ 30.3957824, 60.0280113 ], [ 30.3958874, 60.0278703 ], [ 30.3960687, 60.0276571 ], [ 30.3963921, 60.027423 ], [ 30.3966233, 60.0272678 ], [ 30.3967313, 60.0271578 ], [ 30.3968364, 60.0270864 ], [ 30.3969386, 60.0270569 ], [ 30.3970596, 60.027022 ], [ 30.3972062, 60.0269267 ], [ 30.3973866, 60.026864 ], [ 30.3975914, 60.0267904 ], [ 30.3977976, 60.0267533 ], [ 30.3979814, 60.0267309 ], [ 30.3981638, 60.0267342 ], [ 30.3986087, 60.0267492 ], [ 30.3993214, 60.0267705 ], [ 30.3997284, 60.0267485 ], [ 30.4010555, 60.0265118 ], [ 30.4012975, 60.026469 ], [ 30.401966, 60.0262981 ], [ 30.4022695, 60.0261987 ], [ 30.4027661, 60.0259379 ], [ 30.4029479, 60.0258849 ], [ 30.4036849, 60.0256703 ], [ 30.4038138, 60.0256327 ], [ 30.4047756, 60.0254182 ], [ 30.4049233, 60.0253853 ], [ 30.4060387, 60.025181 ], [ 30.4078051, 60.0249343 ], [ 30.4084212, 60.0247379 ], [ 30.4086343, 60.024567 ], [ 30.408661, 60.0244858 ], [ 30.4086081, 60.0244046 ], [ 30.4086296, 60.0243545 ], [ 30.4087014, 60.0243174 ], [ 30.4088181, 60.0242648 ], [ 30.4091813, 60.0241687 ], [ 30.4095043, 60.0240904 ], [ 30.4097373, 60.0240102 ], [ 30.4105726, 60.0236484 ], [ 30.4107992, 60.023473 ], [ 30.4108367, 60.0233895 ], [ 30.4108579, 60.0233331 ], [ 30.4108495, 60.023273 ], [ 30.4107434, 60.0231209 ], [ 30.4107406, 60.0230035 ], [ 30.4108365, 60.0229147 ], [ 30.4112198, 60.0227535 ], [ 30.411548, 60.0225813 ], [ 30.4116668, 60.0223718 ], [ 30.4116128, 60.0221713 ], [ 30.411511, 60.0220957 ], [ 30.4113706, 60.0220489 ], [ 30.4111057, 60.0220416 ], [ 30.4109925, 60.0219842 ], [ 30.4109925, 60.0219168 ], [ 30.411111, 60.0218413 ], [ 30.4112923, 60.0217875 ], [ 30.411647, 60.0217472 ], [ 30.411901, 60.0216905 ], [ 30.4121254, 60.0216227 ], [ 30.4123348, 60.0214893 ], [ 30.4124371, 60.0213867 ], [ 30.4123742, 60.0212865 ], [ 30.4122483, 60.0212591 ], [ 30.4121555, 60.0212151 ], [ 30.4121305, 60.0211743 ], [ 30.412157, 60.0211414 ], [ 30.412433, 60.0210593 ], [ 30.4128421, 60.0210734 ], [ 30.4132153, 60.0211292 ], [ 30.4135812, 60.0212183 ], [ 30.4139536, 60.0214297 ], [ 30.4141705, 60.0214748 ], [ 30.4146932, 60.0214587 ], [ 30.4150887, 60.0215268 ], [ 30.4154072, 60.0215368 ], [ 30.4159859, 60.021512 ], [ 30.4161704, 60.0214242 ], [ 30.4163205, 60.0212248 ], [ 30.4165713, 60.0211016 ], [ 30.4169648, 60.0210306 ], [ 30.4172446, 60.0210348 ], [ 30.4173908, 60.0210966 ], [ 30.4175335, 60.0211619 ], [ 30.417651, 60.0211774 ], [ 30.4177431, 60.0211509 ], [ 30.4178578, 60.0211033 ], [ 30.4179898, 60.0209964 ], [ 30.4180166, 60.0209352 ], [ 30.4180036, 60.0208404 ], [ 30.4183617, 60.0207394 ], [ 30.4184113, 60.0207255 ], [ 30.4186426, 60.0207512 ], [ 30.4189403, 60.0207987 ], [ 30.4174083, 60.0192505 ], [ 30.4173748, 60.019217 ], [ 30.4172756, 60.0191181 ], [ 30.4171713, 60.0190146 ], [ 30.4169183, 60.0187657 ], [ 30.4166169, 60.0184633 ], [ 30.4164814, 60.0183285 ], [ 30.4163624, 60.0182098 ], [ 30.4161907, 60.0180394 ], [ 30.4155136, 60.0173662 ], [ 30.415189, 60.0170433 ], [ 30.4150603, 60.0169151 ], [ 30.4149902, 60.0168457 ], [ 30.4149166, 60.0167725 ], [ 30.41418, 60.0160414 ], [ 30.4131881, 60.0150536 ], [ 30.412922, 60.014789 ], [ 30.4128229, 60.0146904 ], [ 30.4127415, 60.0146092 ], [ 30.4125842, 60.014453 ], [ 30.4125065, 60.0143758 ], [ 30.412383, 60.0142529 ], [ 30.4123291, 60.0141993 ], [ 30.4119994, 60.0138719 ], [ 30.4118178, 60.0136908 ], [ 30.4111374, 60.0130139 ], [ 30.410549, 60.0124287 ], [ 30.4104488, 60.012329 ], [ 30.4103033, 60.0121843 ], [ 30.4090211, 60.010909 ], [ 30.409008, 60.0108959 ], [ 30.408694, 60.0105836 ], [ 30.4085228, 60.0104209 ], [ 30.4084588, 60.0103813 ], [ 30.3977441, 60.0130772 ], [ 30.3939118, 60.0092347 ], [ 30.391195, 60.006572 ] ] ] ] } },
{ "type": "Feature", "properties": { "full_id": "r1181903", "osm_id": "1181903", "osm_type": "relation", "boundary": "administrative", "alt_name": null, "contact:website": null, "wikipedia": "ru:Финляндский округ", "wikidata": "Q4484884", "website": null, "type": "boundary", "ref": "20", "official_status": "ru:внутригородская территория города федерального значения", "official_name": "муниципальный округ Финляндский округ", "name:uk": "Фінляндський округ", "name": "Финляндский округ", "admin_level": "8", "addr:region": "Санкт-Петербург", "addr:country": "RU" }, "geometry": { "type": "MultiPolygon", "coordinates": [ [ [ [ 30.4069324, 59.9589419 ], [ 30.4056212, 59.9582695 ], [ 30.4041048, 59.957492 ], [ 30.4035732, 59.9572194 ], [ 30.4032073, 59.9570318 ], [ 30.4031123, 59.9569902 ], [ 30.3995843, 59.9554444 ], [ 30.3967227, 59.9565701 ], [ 30.3947084, 59.9570899 ], [ 30.3926868, 59.957526 ], [ 30.3909516, 59.957795 ], [ 30.3889597, 59.9579201 ], [ 30.3875676, 59.957883 ], [ 30.3861768, 59.9577415 ], [ 30.3847935, 59.957492 ], [ 30.3836743, 59.9571742 ], [ 30.3764346, 59.9538024 ], [ 30.3711236, 59.9522691 ], [ 30.3635559, 59.9511683 ], [ 30.359596, 59.9514048 ], [ 30.3495316, 59.9519993 ], [ 30.3500329, 59.954067 ], [ 30.3500931, 59.954247 ], [ 30.3501862, 59.954417 ], [ 30.3510756, 59.9556688 ], [ 30.3512895, 59.9559671 ], [ 30.3527109, 59.9579444 ], [ 30.3529653, 59.9582636 ], [ 30.353569, 59.9592033 ], [ 30.3539485, 59.9597902 ], [ 30.3539686, 59.9598427 ], [ 30.3539719, 59.9599116 ], [ 30.3539505, 59.9599868 ], [ 30.3539237, 59.9600674 ], [ 30.3537766, 59.9602637 ], [ 30.3537524, 59.9602959 ], [ 30.3535495, 59.9605656 ], [ 30.3531488, 59.961094 ], [ 30.3529576, 59.9613532 ], [ 30.3528078, 59.9615564 ], [ 30.3526306, 59.9617757 ], [ 30.3524782, 59.9619643 ], [ 30.3523828, 59.9620894 ], [ 30.3521802, 59.9623553 ], [ 30.3520719, 59.9625006 ], [ 30.3519782, 59.9626314 ], [ 30.3518945, 59.9627701 ], [ 30.3517745, 59.9630591 ], [ 30.3514732, 59.9637845 ], [ 30.3513304, 59.9641284 ], [ 30.3512898, 59.9642273 ], [ 30.3509374, 59.9650546 ], [ 30.3508736, 59.965224 ], [ 30.350824, 59.9653484 ], [ 30.3507791, 59.9654651 ], [ 30.3507433, 59.9655504 ], [ 30.3506055, 59.9658921 ], [ 30.3504388, 59.9663154 ], [ 30.3504018, 59.9664036 ], [ 30.3503802, 59.966451 ], [ 30.3502857, 59.9666876 ], [ 30.3500595, 59.9672542 ], [ 30.3499953, 59.9674071 ], [ 30.3499489, 59.9675265 ], [ 30.3498975, 59.9676529 ], [ 30.349802, 59.9678872 ], [ 30.3497624, 59.9679838 ], [ 30.3489592, 59.9697627 ], [ 30.3489099, 59.9698754 ], [ 30.3487459, 59.9702308 ], [ 30.3481084, 59.9716221 ], [ 30.3480036, 59.9718443 ], [ 30.3474998, 59.9729815 ], [ 30.3474296, 59.9731321 ], [ 30.3473852, 59.973224 ], [ 30.3472501, 59.9734347 ], [ 30.3470956, 59.9736379 ], [ 30.3444468, 59.9766834 ], [ 30.3439908, 59.9772112 ], [ 30.3439759, 59.9772694 ], [ 30.3440183, 59.9774097 ], [ 30.3440519, 59.9774869 ], [ 30.3441862, 59.9775005 ], [ 30.3446184, 59.977549 ], [ 30.3450708, 59.9775991 ], [ 30.3453389, 59.9776288 ], [ 30.345428, 59.9776325 ], [ 30.345677, 59.9776732 ], [ 30.3547364, 59.9785988 ], [ 30.3552375, 59.978625 ], [ 30.3596875, 59.9790785 ], [ 30.3601746, 59.9791235 ], [ 30.3606251, 59.9791373 ], [ 30.3610566, 59.9791362 ], [ 30.3613728, 59.9791131 ], [ 30.3616268, 59.979076 ], [ 30.3619117, 59.9790182 ], [ 30.3623859, 59.9788826 ], [ 30.3627096, 59.9787769 ], [ 30.3657854, 59.9776521 ], [ 30.3659485, 59.977618 ], [ 30.366133, 59.977596 ], [ 30.3664856, 59.9775994 ], [ 30.3670817, 59.9776153 ], [ 30.3674381, 59.9776304 ], [ 30.3675253, 59.9776414 ], [ 30.3674902, 59.9777015 ], [ 30.3670518, 59.978452 ], [ 30.3670293, 59.9784906 ], [ 30.3670152, 59.9785224 ], [ 30.3668032, 59.9789996 ], [ 30.366711, 59.9792071 ], [ 30.3661646, 59.9801343 ], [ 30.3661514, 59.9801498 ], [ 30.3656302, 59.9807613 ], [ 30.365261, 59.9811716 ], [ 30.3650403, 59.9814169 ], [ 30.3642725, 59.9821735 ], [ 30.3636049, 59.9828314 ], [ 30.3628784, 59.9835474 ], [ 30.3627118, 59.9837116 ], [ 30.3626837, 59.9837322 ], [ 30.3625111, 59.9838585 ], [ 30.3622196, 59.9840159 ], [ 30.3612777, 59.9845246 ], [ 30.3584655, 59.9860431 ], [ 30.3579241, 59.9863355 ], [ 30.3576604, 59.9864779 ], [ 30.3575104, 59.9865691 ], [ 30.3577913, 59.9865794 ], [ 30.3584306, 59.9866028 ], [ 30.3586234, 59.9866099 ], [ 30.3587426, 59.9866019 ], [ 30.3590281, 59.9865828 ], [ 30.3593481, 59.9865614 ], [ 30.3595357, 59.9865373 ], [ 30.3599627, 59.9864826 ], [ 30.3601303, 59.9864568 ], [ 30.3604916, 59.9864012 ], [ 30.361301, 59.9862609 ], [ 30.3617559, 59.986182 ], [ 30.3627368, 59.9859847 ], [ 30.3629041, 59.985951 ], [ 30.3635829, 59.9857831 ], [ 30.3637105, 59.9857516 ], [ 30.3638158, 59.9857152 ], [ 30.364383, 59.9855195 ], [ 30.3646058, 59.9854426 ], [ 30.3647294, 59.9854 ], [ 30.3658023, 59.9850299 ], [ 30.3766021, 59.9813042 ], [ 30.3819857, 59.9794469 ], [ 30.3823755, 59.9793124 ], [ 30.3834853, 59.9789447 ], [ 30.3843739, 59.9787116 ], [ 30.3856241, 59.9784703 ], [ 30.3869077, 59.9783256 ], [ 30.3881488, 59.9781856 ], [ 30.3908925, 59.9778762 ], [ 30.3910914, 59.9778538 ], [ 30.3911246, 59.9778501 ], [ 30.3917687, 59.9777774 ], [ 30.3930112, 59.9776373 ], [ 30.3930707, 59.9777006 ], [ 30.3931737, 59.9778114 ], [ 30.3935918, 59.9782619 ], [ 30.3939726, 59.9786735 ], [ 30.3942763, 59.9790022 ], [ 30.3943422, 59.9790735 ], [ 30.3944584, 59.9791979 ], [ 30.3946451, 59.9793981 ], [ 30.3949494, 59.9797246 ], [ 30.3958461, 59.9806907 ], [ 30.3966219, 59.9815265 ], [ 30.3977356, 59.9827511 ], [ 30.3978909, 59.9829219 ], [ 30.3979806, 59.9830206 ], [ 30.3980292, 59.9830733 ], [ 30.3982294, 59.9832904 ], [ 30.398264, 59.9833294 ], [ 30.398613, 59.9836989 ], [ 30.3990513, 59.9841738 ], [ 30.3991175, 59.9842445 ], [ 30.3992608, 59.984401 ], [ 30.3993913, 59.9845423 ], [ 30.3996949, 59.9844707 ], [ 30.4000375, 59.9844129 ], [ 30.4002911, 59.9843722 ], [ 30.4008037, 59.9842921 ], [ 30.401505, 59.9841831 ], [ 30.401851, 59.9841286 ], [ 30.4020054, 59.9841045 ], [ 30.4026136, 59.9840096 ], [ 30.4036231, 59.983852 ], [ 30.4037741, 59.9838284 ], [ 30.4039157, 59.9838063 ], [ 30.4041353, 59.983772 ], [ 30.4055589, 59.9835513 ], [ 30.4055954, 59.9835456 ], [ 30.4072191, 59.9832895 ], [ 30.4073825, 59.983264 ], [ 30.4079408, 59.983175 ], [ 30.408277, 59.9831003 ], [ 30.4087763, 59.9829867 ], [ 30.4090633, 59.98292 ], [ 30.4095055, 59.9828128 ], [ 30.409735, 59.9827596 ], [ 30.4099647, 59.9827068 ], [ 30.4100908, 59.9826774 ], [ 30.410172, 59.9826592 ], [ 30.4128088, 59.9820696 ], [ 30.4129988, 59.982027 ], [ 30.4131121, 59.9820023 ], [ 30.4132576, 59.9819711 ], [ 30.4133293, 59.981955 ], [ 30.4134559, 59.9819266 ], [ 30.4147048, 59.9816464 ], [ 30.4150112, 59.9815777 ], [ 30.4154686, 59.9814751 ], [ 30.4176869, 59.9809774 ], [ 30.4185377, 59.9807865 ], [ 30.4211971, 59.9801797 ], [ 30.4210579, 59.9800531 ], [ 30.4135872, 59.973104 ], [ 30.4126073, 59.9721756 ], [ 30.4124752, 59.9720122 ], [ 30.4123597, 59.9718456 ], [ 30.4121544, 59.9715385 ], [ 30.4110665, 59.9689142 ], [ 30.4086961, 59.9630689 ], [ 30.4081382, 59.9616217 ], [ 30.4071928, 59.9593379 ], [ 30.4070911, 59.959158 ], [ 30.4069324, 59.9589419 ] ] ] ] } },
{ "type": "Feature", "properties": { "full_id": "r1181904", "osm_id": "1181904", "osm_type": "relation", "boundary": "administrative", "alt_name": null, "contact:website": "http://mosevernyj.ru/", "wikipedia": "ru:Северный (округ)", "wikidata": "Q4412271", "website": null, "type": "boundary", "ref": "23", "official_status": "ru:внутригородская территория города федерального значения", "official_name": "муниципальный округ Северный", "name:uk": "Округ Північний", "name": "округ Северный", "admin_level": "8", "addr:region": "Санкт-Петербург", "addr:country": "RU" }, "geometry": { "type": "MultiPolygon", "coordinates": [ [ [ [ 30.3770255, 60.0302217 ], [ 30.3772441, 60.0304578 ], [ 30.3772875, 60.0306663 ], [ 30.3770399, 60.0312465 ], [ 30.3771383, 60.0315921 ], [ 30.3773994, 60.0318601 ], [ 30.3780499, 60.0320295 ], [ 30.3791742, 60.0333854 ], [ 30.385422, 60.0411046 ], [ 30.3929866, 60.0503885 ], [ 30.3965713, 60.0550063 ], [ 30.3881121, 60.0570767 ], [ 30.3889016, 60.0578229 ], [ 30.3880449, 60.0580912 ], [ 30.3887672, 60.0588039 ], [ 30.3873932, 60.0591782 ], [ 30.3856467, 60.0572068 ], [ 30.3836956, 60.0550392 ], [ 30.3667471, 60.0360009 ], [ 30.3660606, 60.0352735 ], [ 30.3654163, 60.0343654 ], [ 30.3651017, 60.0334615 ], [ 30.364966, 60.0330131 ], [ 30.3648499, 60.0321357 ], [ 30.3655551, 60.0320946 ], [ 30.3665835, 60.0320205 ], [ 30.3685243, 60.0318492 ], [ 30.3703492, 60.031631 ], [ 30.3717426, 60.0314196 ], [ 30.3732548, 60.0311275 ], [ 30.3751135, 60.0307341 ], [ 30.3770255, 60.0302217 ] ] ] ] } },
{ "type": "Feature", "properties": { "full_id": "r1181905", "osm_id": "1181905", "osm_type": "relation", "boundary": "administrative", "alt_name": "округ N 21", "contact:website": null, "wikipedia": "ru:Муниципальный округ № 21 (Санкт-Петербург)", "wikidata": "Q4030154", "website": null, "type": "boundary", "ref": "21", "official_status": "ru:внутригородская территория города федерального значения", "official_name": "муниципальный округ № 21", "name:uk": "Округ № 21", "name": "округ № 21", "admin_level": "8", "addr:region": "Санкт-Петербург", "addr:country": "RU" }, "geometry": { "type": "MultiPolygon", "coordinates": [ [ [ [ 30.4376124, 60.039133 ], [ 30.4371912, 60.0296333 ], [ 30.4371443, 60.0264734 ], [ 30.4370438, 60.0228847 ], [ 30.4371443, 60.0220176 ], [ 30.437266, 60.0210632 ], [ 30.4371896, 60.0210427 ], [ 30.4369281, 60.0210067 ], [ 30.4366248, 60.0210916 ], [ 30.4365013, 60.0211248 ], [ 30.4364704, 60.021147 ], [ 30.4363941, 60.021202 ], [ 30.4362473, 60.0211987 ], [ 30.4361202, 60.0211777 ], [ 30.435936, 60.0211749 ], [ 30.4352766, 60.0212072 ], [ 30.4350448, 60.0213931 ], [ 30.4347414, 60.0215589 ], [ 30.4345892, 60.0215847 ], [ 30.4343959, 60.0215683 ], [ 30.4340257, 60.0214418 ], [ 30.4336895, 60.0213834 ], [ 30.4332937, 60.0213423 ], [ 30.432946, 60.0213383 ], [ 30.4324564, 60.0213297 ], [ 30.4307263, 60.0212955 ], [ 30.4307288, 60.0211854 ], [ 30.4306113, 60.0209955 ], [ 30.4303023, 60.0207712 ], [ 30.4299701, 60.0206019 ], [ 30.4298973, 60.0204857 ], [ 30.4297114, 60.0204164 ], [ 30.4292428, 60.0203825 ], [ 30.4286673, 60.0203865 ], [ 30.4281556, 60.0202755 ], [ 30.4273261, 60.0199409 ], [ 30.4265085, 60.0197838 ], [ 30.4256454, 60.0198978 ], [ 30.4252217, 60.0200212 ], [ 30.4248944, 60.020076 ], [ 30.4244451, 60.0200569 ], [ 30.424262, 60.0199671 ], [ 30.424144, 60.0198866 ], [ 30.4239878, 60.0198593 ], [ 30.4238006, 60.0198866 ], [ 30.4235463, 60.0199927 ], [ 30.4232247, 60.020286 ], [ 30.4229177, 60.0205399 ], [ 30.4223085, 60.0204729 ], [ 30.4215941, 60.0204682 ], [ 30.4211587, 60.0204524 ], [ 30.4208246, 60.0205675 ], [ 30.4205577, 60.0205655 ], [ 30.4202649, 60.0204799 ], [ 30.4199924, 60.0204744 ], [ 30.4195851, 60.0206359 ], [ 30.4189403, 60.0207987 ], [ 30.4186426, 60.0207512 ], [ 30.4184113, 60.0207255 ], [ 30.4183617, 60.0207394 ], [ 30.4180036, 60.0208404 ], [ 30.4180166, 60.0209352 ], [ 30.4179898, 60.0209964 ], [ 30.4178578, 60.0211033 ], [ 30.4177431, 60.0211509 ], [ 30.417651, 60.0211774 ], [ 30.4175335, 60.0211619 ], [ 30.4173908, 60.0210966 ], [ 30.4172446, 60.0210348 ], [ 30.4169648, 60.0210306 ], [ 30.4165713, 60.0211016 ], [ 30.4163205, 60.0212248 ], [ 30.4161704, 60.0214242 ], [ 30.4159859, 60.021512 ], [ 30.4154072, 60.0215368 ], [ 30.4150887, 60.0215268 ], [ 30.4146932, 60.0214587 ], [ 30.4141705, 60.0214748 ], [ 30.4139536, 60.0214297 ], [ 30.4135812, 60.0212183 ], [ 30.4132153, 60.0211292 ], [ 30.4128421, 60.0210734 ], [ 30.412433, 60.0210593 ], [ 30.412157, 60.0211414 ], [ 30.4121305, 60.0211743 ], [ 30.4121555, 60.0212151 ], [ 30.4122483, 60.0212591 ], [ 30.4123742, 60.0212865 ], [ 30.4124371, 60.0213867 ], [ 30.4123348, 60.0214893 ], [ 30.4121254, 60.0216227 ], [ 30.411901, 60.0216905 ], [ 30.411647, 60.0217472 ], [ 30.4112923, 60.0217875 ], [ 30.411111, 60.0218413 ], [ 30.4109925, 60.0219168 ], [ 30.4109925, 60.0219842 ], [ 30.4111057, 60.0220416 ], [ 30.4113706, 60.0220489 ], [ 30.411511, 60.0220957 ], [ 30.4116128, 60.0221713 ], [ 30.4116668, 60.0223718 ], [ 30.411548, 60.0225813 ], [ 30.4112198, 60.0227535 ], [ 30.4108365, 60.0229147 ], [ 30.4107406, 60.0230035 ], [ 30.4107434, 60.0231209 ], [ 30.4108495, 60.023273 ], [ 30.4108579, 60.0233331 ], [ 30.4108367, 60.0233895 ], [ 30.4107992, 60.023473 ], [ 30.4105726, 60.0236484 ], [ 30.4097373, 60.0240102 ], [ 30.4095043, 60.0240904 ], [ 30.4091813, 60.0241687 ], [ 30.4088181, 60.0242648 ], [ 30.4087014, 60.0243174 ], [ 30.4086296, 60.0243545 ], [ 30.4086081, 60.0244046 ], [ 30.408661, 60.0244858 ], [ 30.4086343, 60.024567 ], [ 30.4084212, 60.0247379 ], [ 30.4078051, 60.0249343 ], [ 30.4060387, 60.025181 ], [ 30.4049233, 60.0253853 ], [ 30.4047756, 60.0254182 ], [ 30.4038138, 60.0256327 ], [ 30.4036849, 60.0256703 ], [ 30.4029479, 60.0258849 ], [ 30.4027661, 60.0259379 ], [ 30.4022695, 60.0261987 ], [ 30.4034852, 60.0275604 ], [ 30.403629, 60.0276897 ], [ 30.4037315, 60.0278303 ], [ 30.4041367, 60.0283312 ], [ 30.4044173, 60.028678 ], [ 30.4044616, 60.0287324 ], [ 30.4046752, 60.0289967 ], [ 30.4047199, 60.029052 ], [ 30.4047859, 60.0291337 ], [ 30.4049066, 60.0292828 ], [ 30.4054058, 60.0298999 ], [ 30.4055971, 60.0301363 ], [ 30.4061837, 60.0308614 ], [ 30.4063656, 60.0310863 ], [ 30.4065661, 60.0313341 ], [ 30.4065976, 60.0313729 ], [ 30.4066902, 60.0314854 ], [ 30.4067723, 60.0315852 ], [ 30.4070724, 60.0319486 ], [ 30.4072879, 60.0322144 ], [ 30.4076615, 60.0326753 ], [ 30.4077887, 60.0328312 ], [ 30.4082831, 60.0334384 ], [ 30.4087447, 60.034003 ], [ 30.4087789, 60.0340449 ], [ 30.4088739, 60.0341613 ], [ 30.4093346, 60.034726 ], [ 30.4093777, 60.0347802 ], [ 30.4098608, 60.0353692 ], [ 30.4099387, 60.0354664 ], [ 30.4104123, 60.0360467 ], [ 30.4108153, 60.0365406 ], [ 30.4109359, 60.0366884 ], [ 30.4110309, 60.0368048 ], [ 30.4111985, 60.0370072 ], [ 30.4113334, 60.0371755 ], [ 30.4113955, 60.0372517 ], [ 30.4114248, 60.0372875 ], [ 30.411486, 60.0373625 ], [ 30.4116333, 60.0375439 ], [ 30.4116985, 60.037623 ], [ 30.4117855, 60.0377318 ], [ 30.4120085, 60.0380029 ], [ 30.4124278, 60.0385167 ], [ 30.4127871, 60.038957 ], [ 30.4134355, 60.0397534 ], [ 30.4134876, 60.0398171 ], [ 30.4136094, 60.039966 ], [ 30.4136521, 60.0400182 ], [ 30.4136797, 60.0400519 ], [ 30.4137245, 60.0401068 ], [ 30.4137441, 60.0401306 ], [ 30.4140379, 60.0404937 ], [ 30.4147335, 60.0413421 ], [ 30.414893, 60.0415374 ], [ 30.4149775, 60.0416408 ], [ 30.4150599, 60.041742 ], [ 30.4151368, 60.0418454 ], [ 30.4152062, 60.0419312 ], [ 30.4152559, 60.0419933 ], [ 30.4152988, 60.0420458 ], [ 30.4161545, 60.0430946 ], [ 30.4163401, 60.043322 ], [ 30.4167629, 60.0438402 ], [ 30.4172386, 60.0444231 ], [ 30.4174118, 60.0446355 ], [ 30.4176018, 60.0448683 ], [ 30.4177335, 60.045032 ], [ 30.4178503, 60.0451773 ], [ 30.4188839, 60.0460853 ], [ 30.4249333, 60.0448258 ], [ 30.4251136, 60.0443545 ], [ 30.4306165, 60.0431742 ], [ 30.4340319, 60.0424416 ], [ 30.4348138, 60.0422647 ], [ 30.4355682, 60.0420384 ], [ 30.4362608, 60.0417502 ], [ 30.4368335, 60.0413767 ], [ 30.4372644, 60.0409978 ], [ 30.437606, 60.0406025 ], [ 30.4377124, 60.0401391 ], [ 30.4376124, 60.039133 ] ] ] ] } }
]
}
