{
"type": "FeatureCollection",
"name": "north_OKEC",
"crs": { "type": "name", "properties": { "name": "urn:ogc:def:crs:EPSG::32636" } },
"features": [
{ "type": "Feature", "properties": { "Field1": 1, "object_name": "Скейт-парк в Осиновой Роще", "website": "-", "is_small_wheels": 1, "is_big_wheels": 0, "build_year": 2024, "material_type": "Каркас", "current_score": 3.0, "s_index_current": 0.6, "current_score_fact": 8, "future_score_2029": 3.2, "s_index_2029": 3.2, "condition_fact": "Хорошее", "area_sqm": 150, "hierarchy_level": "Местного значения", "access_mode": "Публичный", "shelter_type": "Под открытым небом", "manufacturer": "FK-ramps", "has_pump": "-", "Y": 60.10512, "X": 30.261821, "address": "исторический район Осиновая Роща, посёлок Парголово, Санкт-Петербург", "link_yandexmap": "https://yandex.ru/maps/-/CPQr5PZV", "lead_id": 0, "CPI_raw": 21, "CPI_final": 1, "CPI_log": 1.3424, "CPI_final_2": 3.91, "area_123": 500 }, "geometry": { "type": "Point", "coordinates": [ 347784.659477053210139, 6666272.401545880362391 ] } },
{ "type": "Feature", "properties": { "Field1": 2, "object_name": "Скейт-парк в Парголово", "website": "https://fk-ramps.ru/projects/skejt-park-v-pargolovo-peterburg", "is_small_wheels": 1, "is_big_wheels": 0, "build_year": 2019, "material_type": "Каркас", "current_score": 0.0, "s_index_current": 0.0, "current_score_fact": 0, "future_score_2029": 0.0, "s_index_2029": 0.0, "condition_fact": "Аварийное", "area_sqm": 300, "hierarchy_level": "Местного значения", "access_mode": "Публичный", "shelter_type": "Под открытым небом", "manufacturer": "FK-ramps", "has_pump": "-", "Y": 60.074136, "X": 30.231642, "address": "территория Пригородный, посёлок Парголово, Санкт-Петербург", "link_yandexmap": "https://yandex.ru/maps/-/CPQrF2Zr", "lead_id": 1, "CPI_raw": 4, "CPI_final": 0, "CPI_log": 0.699, "CPI_final_2": 0.0, "area_123": 500 }, "geometry": { "type": "Point", "coordinates": [ 345963.116165810031816, 6662893.678988613188267 ] } },
{ "type": "Feature", "properties": { "Field1": 3, "object_name": "Двойная рампа на пр. Косыгина", "website": "https://fk-ramps.ru/projects/dvojnaya-rampa-na-pr-kosygina-spb", "is_small_wheels": 1, "is_big_wheels": 1, "build_year": 2021, "material_type": "Каркас", "current_score": 0.0, "s_index_current": 0.0, "current_score_fact": 5, "future_score_2029": 2.0, "s_index_2029": 2.0, "condition_fact": "Удовлетворительное", "area_sqm": 300, "hierarchy_level": "Местного значения", "access_mode": "Публичный", "shelter_type": "Под открытым небом", "manufacturer": "FK-ramps", "has_pump": "-", "Y": 59.941518, "X": 30.451432, "address": "муниципальный округ Пороховые, Красногвардейский район, Санкт-Петербург", "link_yandexmap": "https://yandex.ru/maps/-/CPQrFFPF", "lead_id": 2, "CPI_raw": 80, "CPI_final": 3, "CPI_log": 1.9085, "CPI_final_2": 7.35, "area_123": 500 }, "geometry": { "type": "Point", "coordinates": [ 357619.357520119403489, 6647639.639381134882569 ] } },
{ "type": "Feature", "properties": { "Field1": 4, "object_name": "Скейт-парк в ЖК Северная Долина", "website": "-", "is_small_wheels": 1, "is_big_wheels": 0, "build_year": 2024, "material_type": "Каркас", "current_score": 3.0, "s_index_current": 0.6, "current_score_fact": 8, "future_score_2029": 3.2, "s_index_2029": 3.2, "condition_fact": "Хорошее", "area_sqm": 300, "hierarchy_level": "Местного значения", "access_mode": "Публичный", "shelter_type": "Под открытым небом", "manufacturer": "-", "has_pump": "Каркасный", "Y": 60.085005, "X": 30.34719, "address": "жилой комплекс Северная Долина, посёлок Парголово, Санкт-Петербург", "link_yandexmap": "https://yandex.ru/maps/-/CPQr5CmP", "lead_id": 3, "CPI_raw": 29, "CPI_final": 1, "CPI_log": 1.4771, "CPI_final_2": 4.73, "area_123": 500 }, "geometry": { "type": "Point", "coordinates": [ 352438.659323358209804, 6663839.788524872623384 ] } },
{ "type": "Feature", "properties": { "Field1": 5, "object_name": "Скейт-парк в ЖК Чистое Небо", "website": "-", "is_small_wheels": 1, "is_big_wheels": 0, "build_year": 2023, "material_type": "Каркас", "current_score": 1.9999999999999996, "s_index_current": 0.4, "current_score_fact": 1, "future_score_2029": 0.4, "s_index_2029": 0.4, "condition_fact": "Аварийное", "area_sqm": 400, "hierarchy_level": "Местного значения", "access_mode": "Публичный", "shelter_type": "Под открытым небом", "manufacturer": "-", "has_pump": "-", "Y": 60.040377, "X": 30.227714, "address": "жилой комплекс Чистое Небо, муниципальный округ Коломяги, Приморский район, Санкт-Петербург", "link_yandexmap": "https://yandex.ru/maps/-/CPQrBZ42", "lead_id": 4, "CPI_raw": 58, "CPI_final": 2, "CPI_log": 1.7709, "CPI_final_2": 6.51, "area_123": 500 }, "geometry": { "type": "Point", "coordinates": [ 345586.975872094393708, 6659145.353972746990621 ] } },
{ "type": "Feature", "properties": { "Field1": 6, "object_name": "Скейт-плаза на Граничной улице", "website": "-", "is_small_wheels": 1, "is_big_wheels": 0, "build_year": 2019, "material_type": "Бетон", "current_score": 6.5, "s_index_current": 0.65, "current_score_fact": 1, "future_score_2029": 0.85, "s_index_2029": 0.85, "condition_fact": "Аварийное", "area_sqm": 400, "hierarchy_level": "Местного значения", "access_mode": "Публичный", "shelter_type": "Под открытым небом", "manufacturer": "-", "has_pump": "-", "Y": 60.005304, "X": 30.134711, "address": "Граничная улица, Санкт-Петербург", "link_yandexmap": "https://yandex.ru/maps/-/CPQrUB0o", "lead_id": 5, "CPI_raw": 18, "CPI_final": 1, "CPI_log": 1.2788, "CPI_final_2": 3.52, "area_123": 500 }, "geometry": { "type": "Point", "coordinates": [ 340239.711073590209708, 6655462.669157184660435 ] } },
{ "type": "Feature", "properties": { "Field1": 7, "object_name": "Скейт-парк в Левашово", "website": "https://fk-ramps.ru/projects/derevyannyj-skejtpark-v-levashovo-peterburg", "is_small_wheels": 1, "is_big_wheels": 1, "build_year": 2019, "material_type": "Каркас", "current_score": 0.0, "s_index_current": 0.0, "current_score_fact": 5, "future_score_2029": 2.0, "s_index_2029": 2.0, "condition_fact": "Удовлетворительное", "area_sqm": 450, "hierarchy_level": "Местного значения", "access_mode": "Публичный", "shelter_type": "Под открытым небом", "manufacturer": "FK-ramps", "has_pump": "-", "Y": 60.107416, "X": 30.185344, "address": "посёлок Левашово, Санкт-Петербург", "link_yandexmap": "https://yandex.ru/maps/-/CPQrF8I9", "lead_id": 6, "CPI_raw": 4, "CPI_final": 0, "CPI_log": 0.699, "CPI_final_2": 0.0, "area_123": 500 }, "geometry": { "type": "Point", "coordinates": [ 343545.894569484749809, 6666706.618496020324528 ] } },
{ "type": "Feature", "properties": { "Field1": 8, "object_name": "Бетонный скейт-парк на ул. Сизова", "website": "https://fk-ramps.ru/projects/betonnyj-skejt-park-na-ul-sizova-spb", "is_small_wheels": 1, "is_big_wheels": 0, "build_year": 2022, "material_type": "Бетон", "current_score": 8.0, "s_index_current": 0.8, "current_score_fact": 8, "future_score_2029": 6.8, "s_index_2029": 6.8, "condition_fact": "Хорошее", "area_sqm": 540, "hierarchy_level": "Районного значения", "access_mode": "Публичный", "shelter_type": "Под открытым небом", "manufacturer": "-", "has_pump": "-", "Y": 60.003965, "X": 30.272545, "address": "проспект Сизова, Санкт-Петербург", "link_yandexmap": "https://yandex.ru/maps/-/CPQrEMLx", "lead_id": 7, "CPI_raw": 220, "CPI_final": 10, "CPI_log": 2.3444, "CPI_final_2": 10.0, "area_123": 1000 }, "geometry": { "type": "Point", "coordinates": [ 347915.811659851693548, 6654988.649564521387219 ] } },
{ "type": "Feature", "properties": { "Field1": 9, "object_name": "Скейт-парк на Планерной улице", "website": "https://fk-ramps.ru/projects/skate-park-na-planernoj-spb", "is_small_wheels": 1, "is_big_wheels": 0, "build_year": 2017, "material_type": "Каркас", "current_score": 0.0, "s_index_current": 0.0, "current_score_fact": 5, "future_score_2029": 2.0, "s_index_2029": 2.0, "condition_fact": "Удовлетворительное", "area_sqm": 550, "hierarchy_level": "Районного значения", "access_mode": "Публичный", "shelter_type": "Под открытым небом", "manufacturer": "FK-ramps", "has_pump": "-", "Y": 60.014674, "X": 30.233809, "address": "территория Озеро Долгое, Санкт-Петербург", "link_yandexmap": "https://yandex.ru/maps/-/CPQrJLlX", "lead_id": 8, "CPI_raw": 170, "CPI_final": 8, "CPI_log": 2.233, "CPI_final_2": 9.32, "area_123": 1000 }, "geometry": { "type": "Point", "coordinates": [ 345806.587487205571961, 6656270.307296198792756 ] } },
{ "type": "Feature", "properties": { "Field1": 10, "object_name": "Бетонный скейт-парк на ул. Комунны 47", "website": "https://fk-ramps.ru/projects/betonnyj-skejtpark-ul-kommuny-47", "is_small_wheels": 1, "is_big_wheels": 0, "build_year": 2021, "material_type": "Бетон", "current_score": 7.5, "s_index_current": 0.75, "current_score_fact": 8, "future_score_2029": 6.8, "s_index_2029": 6.8, "condition_fact": "Хорошее", "area_sqm": 700, "hierarchy_level": "Районного значения", "access_mode": "Публичный", "shelter_type": "Под открытым небом", "manufacturer": "FK-ramps", "has_pump": "-", "Y": 59.959628, "X": 30.492621, "address": "территория Пороховые, Санкт-Петербург", "link_yandexmap": "https://yandex.ru/maps/-/CPQrQJzz", "lead_id": 9, "CPI_raw": 91, "CPI_final": 4, "CPI_log": 1.9638, "CPI_final_2": 7.69, "area_123": 1000 }, "geometry": { "type": "Point", "coordinates": [ 359996.133022426452953, 6649567.628016670234501 ] } },
{ "type": "Feature", "properties": { "Field1": 12, "object_name": "Скейт-парк в ЖК Юнтолово", "website": "-", "is_small_wheels": 1, "is_big_wheels": 1, "build_year": 2024, "material_type": "Комбинированный", "current_score": 6.4, "s_index_current": 0.8, "current_score_fact": 8, "future_score_2029": 5.6, "s_index_2029": 5.6, "condition_fact": "Хорошее", "area_sqm": 1000, "hierarchy_level": "Районного значения", "access_mode": "Публичный", "shelter_type": "Под открытым небом", "manufacturer": "FK-ramps", "has_pump": "Асфальт", "Y": 60.031432, "X": 30.135399, "address": "жилой комплекс Юнтолово, муниципальный округ Лахта-Ольгино, Приморский район, Санкт-Петербург", "link_yandexmap": "https://yandex.ru/maps/-/CPQrV80V", "lead_id": 10, "CPI_raw": 8, "CPI_final": 0, "CPI_log": 0.9542, "CPI_final_2": 1.55, "area_123": 1000 }, "geometry": { "type": "Point", "coordinates": [ 340404.096417242079042, 6658369.010417148470879 ] } },
{ "type": "Feature", "properties": { "Field1": 13, "object_name": "Памп-трек на Оптиков", "website": "https://fk-ramps.ru/projects/pamp-trek-fk-ramps-na-ul-optikov-peterburg", "is_small_wheels": 1, "is_big_wheels": 1, "build_year": 2023, "material_type": "Бетон", "current_score": 8.5, "s_index_current": 0.85, "current_score_fact": 8, "future_score_2029": 7.225, "s_index_2029": 7.225, "condition_fact": "Хорошее", "area_sqm": 1400, "hierarchy_level": "Городского значения", "access_mode": "Публичный", "shelter_type": "Под открытым небом", "manufacturer": "FK-ramps", "has_pump": "-", "Y": 59.998553, "X": 30.232877, "address": "исторический район Северо-Приморская часть, Санкт-Петербург", "link_yandexmap": "https://yandex.ru/maps/-/CPQneP5X", "lead_id": 11, "CPI_raw": 94, "CPI_final": 4, "CPI_log": 1.9777, "CPI_final_2": 7.77, "area_123": 1500 }, "geometry": { "type": "Point", "coordinates": [ 345679.545303653983865, 6654478.16756971552968 ] } },
{ "type": "Feature", "properties": { "Field1": 14, "object_name": "Бетонный скейт-парк в Новоохтинском парке", "website": "https://fk-ramps.ru/projects/betonnyj-skejt-park-v-murino", "is_small_wheels": 1, "is_big_wheels": 0, "build_year": 2022, "material_type": "Бетон", "current_score": 8.0, "s_index_current": 0.8, "current_score_fact": 8, "future_score_2029": 6.8, "s_index_2029": 6.8, "condition_fact": "Хорошее", "area_sqm": 1470, "hierarchy_level": "Городского значения", "access_mode": "Публичный", "shelter_type": "Под открытым небом", "manufacturer": "-", "has_pump": "-", "Y": 60.03893, "X": 30.449608, "address": "Новоохтинский парк, Санкт-Петербург", "link_yandexmap": "https://yandex.ru/maps/-/CPQrMC4r", "lead_id": 12, "CPI_raw": 69, "CPI_final": 3, "CPI_log": 1.8451, "CPI_final_2": 6.97, "area_123": 1500 }, "geometry": { "type": "Point", "coordinates": [ 357935.720121183432639, 6658486.731032132171094 ] } },
{ "type": "Feature", "properties": { "Field1": 15, "object_name": "Бетонный скейт-парк на Передовиков", "website": "https://fk-ramps.ru/projects/betonnyj-skejt-park-na-peredovikov-spb", "is_small_wheels": 1, "is_big_wheels": 1, "build_year": 2025, "material_type": "Бетон", "current_score": 9.5, "s_index_current": 0.95, "current_score_fact": 9, "future_score_2029": 8.075, "s_index_2029": 8.075, "condition_fact": "Хорошее", "area_sqm": 1600, "hierarchy_level": "Городского значения", "access_mode": "Публичный", "shelter_type": "Под открытым небом", "manufacturer": "FK-ramps", "has_pump": "-", "Y": 59.945093, "X": 30.457775, "address": "исторический район Малиновка, Красногвардейский район, Санкт-Петербург", "link_yandexmap": "https://yandex.ru/maps/-/CPQnvYJn", "lead_id": 13, "CPI_raw": 99, "CPI_final": 4, "CPI_log": 2.0, "CPI_final_2": 7.91, "area_123": 1500 }, "geometry": { "type": "Point", "coordinates": [ 357988.897815873206127, 6648023.950116734020412 ] } },
{ "type": "Feature", "properties": { "Field1": 16, "object_name": "Скейт-парк на Школьной улице", "website": "-", "is_small_wheels": 1, "is_big_wheels": 1, "build_year": 2022, "material_type": "Каркас", "current_score": 0.99999999999999978, "s_index_current": 0.2, "current_score_fact": 1, "future_score_2029": 0.4, "s_index_2029": 0.4, "condition_fact": "Аварийное", "area_sqm": 1700, "hierarchy_level": "Городского значения", "access_mode": "Публичный", "shelter_type": "Под открытым небом", "manufacturer": "FK-ramps", "has_pump": "-", "Y": 59.992842, "X": 30.203635, "address": "исторический район Северо-Приморская часть, Санкт-Петербург", "link_yandexmap": "https://yandex.ru/maps/-/CPQrNRZn", "lead_id": 14, "CPI_raw": 132, "CPI_final": 6, "CPI_log": 2.1239, "CPI_final_2": 8.66, "area_123": 1500 }, "geometry": { "type": "Point", "coordinates": [ 344022.497464029642288, 6653911.120430368930101 ] } },
{ "type": "Feature", "properties": { "Field1": 17, "object_name": "Скейт-парк под Поклонногорским путепроводом", "website": "https://fk-ramps.ru/projects/skejt-park-pod-poklonnogorskim-mostom-spb", "is_small_wheels": 1, "is_big_wheels": 1, "build_year": 2023, "material_type": "Каркас", "current_score": 1.9999999999999996, "s_index_current": 0.4, "current_score_fact": 8, "future_score_2029": 3.2, "s_index_2029": 3.2, "condition_fact": "Хорошее", "area_sqm": 2000, "hierarchy_level": "Городского значения", "access_mode": "Публичный", "shelter_type": "Частично крытый", "manufacturer": "FK-ramps", "has_pump": "Каркасный", "Y": 60.025878, "X": 30.309852, "address": "Поклонногорский путепровод, Санкт-Петербург", "link_yandexmap": "https://yandex.ru/maps/-/CPQrVIZ7", "lead_id": 15, "CPI_raw": 151, "CPI_final": 7, "CPI_log": 2.1818, "CPI_final_2": 9.01, "area_123": 1500 }, "geometry": { "type": "Point", "coordinates": [ 350094.561540727736428, 6657342.501286894083023 ] } },
{ "type": "Feature", "properties": { "Field1": 18, "object_name": "Экстрим-кластер СПОТПОДМОСТОМ", "website": "https://fk-ramps.ru/projects/sportivnyj-klaster-spotpodmostom-v-peterburge", "is_small_wheels": 1, "is_big_wheels": 1, "build_year": 2020, "material_type": "Бетон", "current_score": 7.0, "s_index_current": 0.7, "current_score_fact": 8, "future_score_2029": 6.8, "s_index_2029": 6.8, "condition_fact": "Хорошее", "area_sqm": 3000, "hierarchy_level": "Городского значения", "access_mode": "Публичный", "shelter_type": "Частично крытый", "manufacturer": "FK-ramps", "has_pump": "Асфальт", "Y": 59.994618, "X": 30.300192, "address": "Коломяжский путепровод, Санкт-Петербург", "link_yandexmap": "https://yandex.ru/maps/-/CPQr4Mld", "lead_id": 16, "CPI_raw": 169, "CPI_final": 8, "CPI_log": 2.2304, "CPI_final_2": 9.31, "area_123": 1500 }, "geometry": { "type": "Point", "coordinates": [ 349414.36129426851403, 6653885.015583746135235 ] } },
{ "type": "Feature", "properties": { "Field1": 19, "object_name": "Экстрим-кластер под мостом Непокоренных", "website": "https://fk-ramps.ru/projects/ekstrim-klaster-pod-mostom-nepokorennyh", "is_small_wheels": 1, "is_big_wheels": 1, "build_year": 2024, "material_type": "Комбинированный", "current_score": 6.4, "s_index_current": 0.8, "current_score_fact": 8, "future_score_2029": 5.6, "s_index_2029": 5.6, "condition_fact": "Хорошее", "area_sqm": 3100, "hierarchy_level": "Городского значения", "access_mode": "Публичный", "shelter_type": "Частично крытый", "manufacturer": "FK-ramps", "has_pump": "-", "Y": 59.991907, "X": 30.43212, "address": "Ново-Шафировский путепровод, Санкт-Петербург", "link_yandexmap": "https://yandex.ru/maps/-/CPQraQ12", "lead_id": 17, "CPI_raw": 95, "CPI_final": 4, "CPI_log": 1.9823, "CPI_final_2": 7.8, "area_123": 1500 }, "geometry": { "type": "Point", "coordinates": [ 356758.586931049940176, 6653290.214524455368519 ] } },
{ "type": "Feature", "properties": { "Field1": 20, "object_name": "Экстрим-кластер в парке 300-летия", "website": "https://fk-ramps.ru/projects/park-300-letiya", "is_small_wheels": 1, "is_big_wheels": 1, "build_year": 2023, "material_type": "Комбинированный", "current_score": 5.6, "s_index_current": 0.7, "current_score_fact": 8, "future_score_2029": 5.6, "s_index_2029": 5.6, "condition_fact": "Хорошее", "area_sqm": 4000, "hierarchy_level": "Городского значения", "access_mode": "Публичный", "shelter_type": "Под открытым небом", "manufacturer": "FK-ramps", "has_pump": "Асфальт", "Y": 59.982688, "X": 30.198243, "address": "парк имени 300-летия Санкт-Петербурга, Санкт-Петербург", "link_yandexmap": "https://yandex.ru/maps/-/CPQreB95", "lead_id": 18, "CPI_raw": 73, "CPI_final": 3, "CPI_log": 1.8692, "CPI_final_2": 7.11, "area_123": 1500 }, "geometry": { "type": "Point", "coordinates": [ 343673.966135243477765, 6652793.698888146318495 ] } }
]
}
