{
"type": "FeatureCollection",
"name": "recreation",
"crs": { "type": "name", "properties": { "name": "urn:ogc:def:crs:OGC:1.3:CRS84" } },
"features": [
{ "type": "Feature", "properties": { "full_id": null, "osm_id": null, "osm_type": null, "leisure": null, "building": null, "width": null, "level": null, "display": null, "subject": null, "artwork_type": null, "crossing": null, "alt_name": null, "subject:wikipedia": null, "subject:wikidata": null, "memorial:subject": null, "memorial": null, "inscription": null, "historic": null, "name:en": null, "tourism": null, "door": null, "motorcycle": null, "maxwidth:physical": null, "shop": null, "opening_hours": null, "contact:vk": null, "contact:phone": null, "addr:street": null, "addr:housenumber": null, "addr:city": null, "horse": null, "fee": null, "description": null, "tactile_paving": null, "check_date": null, "bollard": null, "kerb": null, "waterway": null, "motorcar": null, "access:conditional": null, "maxwidth": null, "wheelchair": null, "material": null, "locked": null, "entrance": null, "access": null, "natural": null, "name": null, "ref": null, "post_box:type": null, "post_box:design": null, "operator": null, "drive_through": null, "design:year": null, "collection_times": null, "amenity": null, "vehicle": null, "motor_vehicle": null, "foot": null, "bicycle": null, "barrier": null }, "geometry": { "type": "Point", "coordinates": [ 30.238059868371963, 60.014084557102102 ] } },
{ "type": "Feature", "properties": { "full_id": null, "osm_id": null, "osm_type": null, "leisure": null, "building": null, "width": null, "level": null, "display": null, "subject": null, "artwork_type": null, "crossing": null, "alt_name": null, "subject:wikipedia": null, "subject:wikidata": null, "memorial:subject": null, "memorial": null, "inscription": null, "historic": null, "name:en": null, "tourism": null, "door": null, "motorcycle": null, "maxwidth:physical": null, "shop": null, "opening_hours": null, "contact:vk": null, "contact:phone": null, "addr:street": null, "addr:housenumber": null, "addr:city": null, "horse": null, "fee": null, "description": null, "tactile_paving": null, "check_date": null, "bollard": null, "kerb": null, "waterway": null, "motorcar": null, "access:conditional": null, "maxwidth": null, "wheelchair": null, "material": null, "locked": null, "entrance": null, "access": null, "natural": null, "name": null, "ref": null, "post_box:type": null, "post_box:design": null, "operator": null, "drive_through": null, "design:year": null, "collection_times": null, "amenity": null, "vehicle": null, "motor_vehicle": null, "foot": null, "bicycle": null, "barrier": null }, "geometry": { "type": "Point", "coordinates": [ 30.477722679661209, 59.963562916600033 ] } },
{ "type": "Feature", "properties": { "full_id": null, "osm_id": null, "osm_type": null, "leisure": null, "building": null, "width": null, "level": null, "display": null, "subject": null, "artwork_type": null, "crossing": null, "alt_name": null, "subject:wikipedia": null, "subject:wikidata": null, "memorial:subject": null, "memorial": null, "inscription": null, "historic": null, "name:en": null, "tourism": null, "door": null, "motorcycle": null, "maxwidth:physical": null, "shop": null, "opening_hours": null, "contact:vk": null, "contact:phone": null, "addr:street": null, "addr:housenumber": null, "addr:city": null, "horse": null, "fee": null, "description": null, "tactile_paving": null, "check_date": null, "bollard": null, "kerb": null, "waterway": null, "motorcar": null, "access:conditional": null, "maxwidth": null, "wheelchair": null, "material": null, "locked": null, "entrance": null, "access": null, "natural": null, "name": null, "ref": null, "post_box:type": null, "post_box:design": null, "operator": null, "drive_through": null, "design:year": null, "collection_times": null, "amenity": null, "vehicle": null, "motor_vehicle": null, "foot": null, "bicycle": null, "barrier": null }, "geometry": { "type": "Point", "coordinates": [ 30.25267558247754, 60.018207094078356 ] } },
{ "type": "Feature", "properties": { "full_id": null, "osm_id": null, "osm_type": null, "leisure": null, "building": null, "width": null, "level": null, "display": null, "subject": null, "artwork_type": null, "crossing": null, "alt_name": null, "subject:wikipedia": null, "subject:wikidata": null, "memorial:subject": null, "memorial": null, "inscription": null, "historic": null, "name:en": null, "tourism": null, "door": null, "motorcycle": null, "maxwidth:physical": null, "shop": null, "opening_hours": null, "contact:vk": null, "contact:phone": null, "addr:street": null, "addr:housenumber": null, "addr:city": null, "horse": null, "fee": null, "description": null, "tactile_paving": null, "check_date": null, "bollard": null, "kerb": null, "waterway": null, "motorcar": null, "access:conditional": null, "maxwidth": null, "wheelchair": null, "material": null, "locked": null, "entrance": null, "access": null, "natural": null, "name": null, "ref": null, "post_box:type": null, "post_box:design": null, "operator": null, "drive_through": null, "design:year": null, "collection_times": null, "amenity": null, "vehicle": null, "motor_vehicle": null, "foot": null, "bicycle": null, "barrier": null }, "geometry": { "type": "Point", "coordinates": [ 30.481487653772323, 59.968030505286279 ] } },
{ "type": "Feature", "properties": { "full_id": null, "osm_id": null, "osm_type": null, "leisure": null, "building": null, "width": null, "level": null, "display": null, "subject": null, "artwork_type": null, "crossing": null, "alt_name": null, "subject:wikipedia": null, "subject:wikidata": null, "memorial:subject": null, "memorial": null, "inscription": null, "historic": null, "name:en": null, "tourism": null, "door": null, "motorcycle": null, "maxwidth:physical": null, "shop": null, "opening_hours": null, "contact:vk": null, "contact:phone": null, "addr:street": null, "addr:housenumber": null, "addr:city": null, "horse": null, "fee": null, "description": null, "tactile_paving": null, "check_date": null, "bollard": null, "kerb": null, "waterway": null, "motorcar": null, "access:conditional": null, "maxwidth": null, "wheelchair": null, "material": null, "locked": null, "entrance": null, "access": null, "natural": null, "name": null, "ref": null, "post_box:type": null, "post_box:design": null, "operator": null, "drive_through": null, "design:year": null, "collection_times": null, "amenity": null, "vehicle": null, "motor_vehicle": null, "foot": null, "bicycle": null, "barrier": null }, "geometry": { "type": "Point", "coordinates": [ 30.496336034817286, 59.95962416336274 ] } },
{ "type": "Feature", "properties": { "full_id": null, "osm_id": null, "osm_type": null, "leisure": null, "building": null, "width": null, "level": null, "display": null, "subject": null, "artwork_type": null, "crossing": null, "alt_name": null, "subject:wikipedia": null, "subject:wikidata": null, "memorial:subject": null, "memorial": null, "inscription": null, "historic": null, "name:en": null, "tourism": null, "door": null, "motorcycle": null, "maxwidth:physical": null, "shop": null, "opening_hours": null, "contact:vk": null, "contact:phone": null, "addr:street": null, "addr:housenumber": null, "addr:city": null, "horse": null, "fee": null, "description": null, "tactile_paving": null, "check_date": null, "bollard": null, "kerb": null, "waterway": null, "motorcar": null, "access:conditional": null, "maxwidth": null, "wheelchair": null, "material": null, "locked": null, "entrance": null, "access": null, "natural": null, "name": null, "ref": null, "post_box:type": null, "post_box:design": null, "operator": null, "drive_through": null, "design:year": null, "collection_times": null, "amenity": null, "vehicle": null, "motor_vehicle": null, "foot": null, "bicycle": null, "barrier": null }, "geometry": { "type": "Point", "coordinates": [ 30.467992971284186, 59.94399159159331 ] } },
{ "type": "Feature", "properties": { "full_id": null, "osm_id": null, "osm_type": null, "leisure": null, "building": null, "width": null, "level": null, "display": null, "subject": null, "artwork_type": null, "crossing": null, "alt_name": null, "subject:wikipedia": null, "subject:wikidata": null, "memorial:subject": null, "memorial": null, "inscription": null, "historic": null, "name:en": null, "tourism": null, "door": null, "motorcycle": null, "maxwidth:physical": null, "shop": null, "opening_hours": null, "contact:vk": null, "contact:phone": null, "addr:street": null, "addr:housenumber": null, "addr:city": null, "horse": null, "fee": null, "description": null, "tactile_paving": null, "check_date": null, "bollard": null, "kerb": null, "waterway": null, "motorcar": null, "access:conditional": null, "maxwidth": null, "wheelchair": null, "material": null, "locked": null, "entrance": null, "access": null, "natural": null, "name": null, "ref": null, "post_box:type": null, "post_box:design": null, "operator": null, "drive_through": null, "design:year": null, "collection_times": null, "amenity": null, "vehicle": null, "motor_vehicle": null, "foot": null, "bicycle": null, "barrier": null }, "geometry": { "type": "Point", "coordinates": [ 30.461732115458961, 59.942550821018031 ] } },
{ "type": "Feature", "properties": { "full_id": null, "osm_id": null, "osm_type": null, "leisure": null, "building": null, "width": null, "level": null, "display": null, "subject": null, "artwork_type": null, "crossing": null, "alt_name": null, "subject:wikipedia": null, "subject:wikidata": null, "memorial:subject": null, "memorial": null, "inscription": null, "historic": null, "name:en": null, "tourism": null, "door": null, "motorcycle": null, "maxwidth:physical": null, "shop": null, "opening_hours": null, "contact:vk": null, "contact:phone": null, "addr:street": null, "addr:housenumber": null, "addr:city": null, "horse": null, "fee": null, "description": null, "tactile_paving": null, "check_date": null, "bollard": null, "kerb": null, "waterway": null, "motorcar": null, "access:conditional": null, "maxwidth": null, "wheelchair": null, "material": null, "locked": null, "entrance": null, "access": null, "natural": null, "name": null, "ref": null, "post_box:type": null, "post_box:design": null, "operator": null, "drive_through": null, "design:year": null, "collection_times": null, "amenity": null, "vehicle": null, "motor_vehicle": null, "foot": null, "bicycle": null, "barrier": null }, "geometry": { "type": "Point", "coordinates": [ 30.461161023880308, 59.954790080297336 ] } },
{ "type": "Feature", "properties": { "full_id": null, "osm_id": null, "osm_type": null, "leisure": null, "building": null, "width": null, "level": null, "display": null, "subject": null, "artwork_type": null, "crossing": null, "alt_name": null, "subject:wikipedia": null, "subject:wikidata": null, "memorial:subject": null, "memorial": null, "inscription": null, "historic": null, "name:en": null, "tourism": null, "door": null, "motorcycle": null, "maxwidth:physical": null, "shop": null, "opening_hours": null, "contact:vk": null, "contact:phone": null, "addr:street": null, "addr:housenumber": null, "addr:city": null, "horse": null, "fee": null, "description": null, "tactile_paving": null, "check_date": null, "bollard": null, "kerb": null, "waterway": null, "motorcar": null, "access:conditional": null, "maxwidth": null, "wheelchair": null, "material": null, "locked": null, "entrance": null, "access": null, "natural": null, "name": null, "ref": null, "post_box:type": null, "post_box:design": null, "operator": null, "drive_through": null, "design:year": null, "collection_times": null, "amenity": null, "vehicle": null, "motor_vehicle": null, "foot": null, "bicycle": null, "barrier": null }, "geometry": { "type": "Point", "coordinates": [ 30.305390507917974, 60.015236805097864 ] } },
{ "type": "Feature", "properties": { "full_id": null, "osm_id": null, "osm_type": null, "leisure": null, "building": null, "width": null, "level": null, "display": null, "subject": null, "artwork_type": null, "crossing": null, "alt_name": null, "subject:wikipedia": null, "subject:wikidata": null, "memorial:subject": null, "memorial": null, "inscription": null, "historic": null, "name:en": null, "tourism": null, "door": null, "motorcycle": null, "maxwidth:physical": null, "shop": null, "opening_hours": null, "contact:vk": null, "contact:phone": null, "addr:street": null, "addr:housenumber": null, "addr:city": null, "horse": null, "fee": null, "description": null, "tactile_paving": null, "check_date": null, "bollard": null, "kerb": null, "waterway": null, "motorcar": null, "access:conditional": null, "maxwidth": null, "wheelchair": null, "material": null, "locked": null, "entrance": null, "access": null, "natural": null, "name": null, "ref": null, "post_box:type": null, "post_box:design": null, "operator": null, "drive_through": null, "design:year": null, "collection_times": null, "amenity": null, "vehicle": null, "motor_vehicle": null, "foot": null, "bicycle": null, "barrier": null }, "geometry": { "type": "Point", "coordinates": [ 30.316347005612119, 60.014539118447395 ] } },
{ "type": "Feature", "properties": { "full_id": null, "osm_id": null, "osm_type": null, "leisure": null, "building": null, "width": null, "level": null, "display": null, "subject": null, "artwork_type": null, "crossing": null, "alt_name": null, "subject:wikipedia": null, "subject:wikidata": null, "memorial:subject": null, "memorial": null, "inscription": null, "historic": null, "name:en": null, "tourism": null, "door": null, "motorcycle": null, "maxwidth:physical": null, "shop": null, "opening_hours": null, "contact:vk": null, "contact:phone": null, "addr:street": null, "addr:housenumber": null, "addr:city": null, "horse": null, "fee": null, "description": null, "tactile_paving": null, "check_date": null, "bollard": null, "kerb": null, "waterway": null, "motorcar": null, "access:conditional": null, "maxwidth": null, "wheelchair": null, "material": null, "locked": null, "entrance": null, "access": null, "natural": null, "name": null, "ref": null, "post_box:type": null, "post_box:design": null, "operator": null, "drive_through": null, "design:year": null, "collection_times": null, "amenity": null, "vehicle": null, "motor_vehicle": null, "foot": null, "bicycle": null, "barrier": null }, "geometry": { "type": "Point", "coordinates": [ 30.307886389632099, 59.983593544729636 ] } },
{ "type": "Feature", "properties": { "full_id": null, "osm_id": null, "osm_type": null, "leisure": null, "building": null, "width": null, "level": null, "display": null, "subject": null, "artwork_type": null, "crossing": null, "alt_name": null, "subject:wikipedia": null, "subject:wikidata": null, "memorial:subject": null, "memorial": null, "inscription": null, "historic": null, "name:en": null, "tourism": null, "door": null, "motorcycle": null, "maxwidth:physical": null, "shop": null, "opening_hours": null, "contact:vk": null, "contact:phone": null, "addr:street": null, "addr:housenumber": null, "addr:city": null, "horse": null, "fee": null, "description": null, "tactile_paving": null, "check_date": null, "bollard": null, "kerb": null, "waterway": null, "motorcar": null, "access:conditional": null, "maxwidth": null, "wheelchair": null, "material": null, "locked": null, "entrance": null, "access": null, "natural": null, "name": null, "ref": null, "post_box:type": null, "post_box:design": null, "operator": null, "drive_through": null, "design:year": null, "collection_times": null, "amenity": null, "vehicle": null, "motor_vehicle": null, "foot": null, "bicycle": null, "barrier": null }, "geometry": { "type": "Point", "coordinates": [ 30.28521193880561, 59.987423650471847 ] } },
{ "type": "Feature", "properties": { "full_id": null, "osm_id": null, "osm_type": null, "leisure": null, "building": null, "width": null, "level": null, "display": null, "subject": null, "artwork_type": null, "crossing": null, "alt_name": null, "subject:wikipedia": null, "subject:wikidata": null, "memorial:subject": null, "memorial": null, "inscription": null, "historic": null, "name:en": null, "tourism": null, "door": null, "motorcycle": null, "maxwidth:physical": null, "shop": null, "opening_hours": null, "contact:vk": null, "contact:phone": null, "addr:street": null, "addr:housenumber": null, "addr:city": null, "horse": null, "fee": null, "description": null, "tactile_paving": null, "check_date": null, "bollard": null, "kerb": null, "waterway": null, "motorcar": null, "access:conditional": null, "maxwidth": null, "wheelchair": null, "material": null, "locked": null, "entrance": null, "access": null, "natural": null, "name": null, "ref": null, "post_box:type": null, "post_box:design": null, "operator": null, "drive_through": null, "design:year": null, "collection_times": null, "amenity": null, "vehicle": null, "motor_vehicle": null, "foot": null, "bicycle": null, "barrier": null }, "geometry": { "type": "Point", "coordinates": [ 30.301784170356484, 59.995500334796965 ] } },
{ "type": "Feature", "properties": { "full_id": null, "osm_id": null, "osm_type": null, "leisure": null, "building": null, "width": null, "level": null, "display": null, "subject": null, "artwork_type": null, "crossing": null, "alt_name": null, "subject:wikipedia": null, "subject:wikidata": null, "memorial:subject": null, "memorial": null, "inscription": null, "historic": null, "name:en": null, "tourism": null, "door": null, "motorcycle": null, "maxwidth:physical": null, "shop": null, "opening_hours": null, "contact:vk": null, "contact:phone": null, "addr:street": null, "addr:housenumber": null, "addr:city": null, "horse": null, "fee": null, "description": null, "tactile_paving": null, "check_date": null, "bollard": null, "kerb": null, "waterway": null, "motorcar": null, "access:conditional": null, "maxwidth": null, "wheelchair": null, "material": null, "locked": null, "entrance": null, "access": null, "natural": null, "name": null, "ref": null, "post_box:type": null, "post_box:design": null, "operator": null, "drive_through": null, "design:year": null, "collection_times": null, "amenity": null, "vehicle": null, "motor_vehicle": null, "foot": null, "bicycle": null, "barrier": null }, "geometry": { "type": "Point", "coordinates": [ 30.272848863704784, 60.003664932180442 ] } },
{ "type": "Feature", "properties": { "full_id": null, "osm_id": null, "osm_type": null, "leisure": null, "building": null, "width": null, "level": null, "display": null, "subject": null, "artwork_type": null, "crossing": null, "alt_name": null, "subject:wikipedia": null, "subject:wikidata": null, "memorial:subject": null, "memorial": null, "inscription": null, "historic": null, "name:en": null, "tourism": null, "door": null, "motorcycle": null, "maxwidth:physical": null, "shop": null, "opening_hours": null, "contact:vk": null, "contact:phone": null, "addr:street": null, "addr:housenumber": null, "addr:city": null, "horse": null, "fee": null, "description": null, "tactile_paving": null, "check_date": null, "bollard": null, "kerb": null, "waterway": null, "motorcar": null, "access:conditional": null, "maxwidth": null, "wheelchair": null, "material": null, "locked": null, "entrance": null, "access": null, "natural": null, "name": null, "ref": null, "post_box:type": null, "post_box:design": null, "operator": null, "drive_through": null, "design:year": null, "collection_times": null, "amenity": null, "vehicle": null, "motor_vehicle": null, "foot": null, "bicycle": null, "barrier": null }, "geometry": { "type": "Point", "coordinates": [ 30.268914677274076, 60.015886908951906 ] } },
{ "type": "Feature", "properties": { "full_id": null, "osm_id": null, "osm_type": null, "leisure": null, "building": null, "width": null, "level": null, "display": null, "subject": null, "artwork_type": null, "crossing": null, "alt_name": null, "subject:wikipedia": null, "subject:wikidata": null, "memorial:subject": null, "memorial": null, "inscription": null, "historic": null, "name:en": null, "tourism": null, "door": null, "motorcycle": null, "maxwidth:physical": null, "shop": null, "opening_hours": null, "contact:vk": null, "contact:phone": null, "addr:street": null, "addr:housenumber": null, "addr:city": null, "horse": null, "fee": null, "description": null, "tactile_paving": null, "check_date": null, "bollard": null, "kerb": null, "waterway": null, "motorcar": null, "access:conditional": null, "maxwidth": null, "wheelchair": null, "material": null, "locked": null, "entrance": null, "access": null, "natural": null, "name": null, "ref": null, "post_box:type": null, "post_box:design": null, "operator": null, "drive_through": null, "design:year": null, "collection_times": null, "amenity": null, "vehicle": null, "motor_vehicle": null, "foot": null, "bicycle": null, "barrier": null }, "geometry": { "type": "Point", "coordinates": [ 30.23394060596662, 60.018867709260597 ] } },
{ "type": "Feature", "properties": { "full_id": null, "osm_id": null, "osm_type": null, "leisure": null, "building": null, "width": null, "level": null, "display": null, "subject": null, "artwork_type": null, "crossing": null, "alt_name": null, "subject:wikipedia": null, "subject:wikidata": null, "memorial:subject": null, "memorial": null, "inscription": null, "historic": null, "name:en": null, "tourism": null, "door": null, "motorcycle": null, "maxwidth:physical": null, "shop": null, "opening_hours": null, "contact:vk": null, "contact:phone": null, "addr:street": null, "addr:housenumber": null, "addr:city": null, "horse": null, "fee": null, "description": null, "tactile_paving": null, "check_date": null, "bollard": null, "kerb": null, "waterway": null, "motorcar": null, "access:conditional": null, "maxwidth": null, "wheelchair": null, "material": null, "locked": null, "entrance": null, "access": null, "natural": null, "name": null, "ref": null, "post_box:type": null, "post_box:design": null, "operator": null, "drive_through": null, "design:year": null, "collection_times": null, "amenity": null, "vehicle": null, "motor_vehicle": null, "foot": null, "bicycle": null, "barrier": null }, "geometry": { "type": "Point", "coordinates": [ 30.256763117572746, 60.017541180613399 ] } },
{ "type": "Feature", "properties": { "full_id": null, "osm_id": null, "osm_type": null, "leisure": null, "building": null, "width": null, "level": null, "display": null, "subject": null, "artwork_type": null, "crossing": null, "alt_name": null, "subject:wikipedia": null, "subject:wikidata": null, "memorial:subject": null, "memorial": null, "inscription": null, "historic": null, "name:en": null, "tourism": null, "door": null, "motorcycle": null, "maxwidth:physical": null, "shop": null, "opening_hours": null, "contact:vk": null, "contact:phone": null, "addr:street": null, "addr:housenumber": null, "addr:city": null, "horse": null, "fee": null, "description": null, "tactile_paving": null, "check_date": null, "bollard": null, "kerb": null, "waterway": null, "motorcar": null, "access:conditional": null, "maxwidth": null, "wheelchair": null, "material": null, "locked": null, "entrance": null, "access": null, "natural": null, "name": null, "ref": null, "post_box:type": null, "post_box:design": null, "operator": null, "drive_through": null, "design:year": null, "collection_times": null, "amenity": null, "vehicle": null, "motor_vehicle": null, "foot": null, "bicycle": null, "barrier": null }, "geometry": { "type": "Point", "coordinates": [ 30.222957668847549, 59.985196529653209 ] } },
{ "type": "Feature", "properties": { "full_id": "n1117615984", "osm_id": "1117615984", "osm_type": "node", "leisure": null, "building": null, "width": null, "level": null, "display": null, "subject": null, "artwork_type": null, "crossing": null, "alt_name": null, "subject:wikipedia": null, "subject:wikidata": null, "memorial:subject": null, "memorial": null, "inscription": null, "historic": null, "name:en": null, "tourism": null, "door": null, "motorcycle": null, "maxwidth:physical": null, "shop": null, "opening_hours": null, "contact:vk": null, "contact:phone": null, "addr:street": null, "addr:housenumber": null, "addr:city": null, "horse": null, "fee": null, "description": null, "tactile_paving": null, "check_date": null, "bollard": null, "kerb": null, "waterway": null, "motorcar": null, "access:conditional": null, "maxwidth": null, "wheelchair": null, "material": null, "locked": null, "entrance": null, "access": null, "natural": null, "name": null, "ref": null, "post_box:type": null, "post_box:design": null, "operator": null, "drive_through": null, "design:year": null, "collection_times": null, "amenity": null, "vehicle": null, "motor_vehicle": null, "foot": null, "bicycle": null, "barrier": "entrance" }, "geometry": { "type": "Point", "coordinates": [ 30.3158351, 60.0268874 ] } },
{ "type": "Feature", "properties": { "full_id": "n1126754314", "osm_id": "1126754314", "osm_type": "node", "leisure": null, "building": null, "width": null, "level": null, "display": null, "subject": null, "artwork_type": null, "crossing": null, "alt_name": null, "subject:wikipedia": null, "subject:wikidata": null, "memorial:subject": null, "memorial": null, "inscription": null, "historic": null, "name:en": null, "tourism": null, "door": null, "motorcycle": null, "maxwidth:physical": null, "shop": null, "opening_hours": null, "contact:vk": null, "contact:phone": null, "addr:street": null, "addr:housenumber": null, "addr:city": null, "horse": null, "fee": null, "description": null, "tactile_paving": null, "check_date": null, "bollard": null, "kerb": null, "waterway": null, "motorcar": null, "access:conditional": null, "maxwidth": null, "wheelchair": null, "material": null, "locked": null, "entrance": null, "access": null, "natural": null, "name": null, "ref": null, "post_box:type": null, "post_box:design": null, "operator": null, "drive_through": null, "design:year": null, "collection_times": null, "amenity": null, "vehicle": null, "motor_vehicle": null, "foot": null, "bicycle": null, "barrier": "gate" }, "geometry": { "type": "Point", "coordinates": [ 30.3003242, 59.984246 ] } },
{ "type": "Feature", "properties": { "full_id": "n1289500722", "osm_id": "1289500722", "osm_type": "node", "leisure": null, "building": null, "width": null, "level": null, "display": null, "subject": null, "artwork_type": null, "crossing": null, "alt_name": null, "subject:wikipedia": null, "subject:wikidata": null, "memorial:subject": null, "memorial": null, "inscription": null, "historic": null, "name:en": null, "tourism": null, "door": null, "motorcycle": null, "maxwidth:physical": null, "shop": null, "opening_hours": null, "contact:vk": null, "contact:phone": null, "addr:street": null, "addr:housenumber": null, "addr:city": null, "horse": null, "fee": null, "description": null, "tactile_paving": null, "check_date": null, "bollard": null, "kerb": null, "waterway": null, "motorcar": null, "access:conditional": null, "maxwidth": null, "wheelchair": null, "material": null, "locked": null, "entrance": null, "access": null, "natural": null, "name": null, "ref": null, "post_box:type": null, "post_box:design": null, "operator": null, "drive_through": null, "design:year": null, "collection_times": null, "amenity": null, "vehicle": "private", "motor_vehicle": null, "foot": "yes", "bicycle": null, "barrier": "gate" }, "geometry": { "type": "Point", "coordinates": [ 30.19199, 59.9859299 ] } },
{ "type": "Feature", "properties": { "full_id": "n1454866010", "osm_id": "1454866010", "osm_type": "node", "leisure": null, "building": null, "width": null, "level": null, "display": null, "subject": null, "artwork_type": null, "crossing": null, "alt_name": null, "subject:wikipedia": null, "subject:wikidata": null, "memorial:subject": null, "memorial": null, "inscription": null, "historic": null, "name:en": null, "tourism": null, "door": null, "motorcycle": null, "maxwidth:physical": null, "shop": null, "opening_hours": null, "contact:vk": null, "contact:phone": null, "addr:street": null, "addr:housenumber": null, "addr:city": null, "horse": null, "fee": null, "description": null, "tactile_paving": null, "check_date": null, "bollard": null, "kerb": null, "waterway": null, "motorcar": null, "access:conditional": null, "maxwidth": null, "wheelchair": null, "material": null, "locked": null, "entrance": null, "access": null, "natural": null, "name": null, "ref": null, "post_box:type": null, "post_box:design": null, "operator": null, "drive_through": null, "design:year": null, "collection_times": null, "amenity": null, "vehicle": null, "motor_vehicle": null, "foot": null, "bicycle": null, "barrier": "entrance" }, "geometry": { "type": "Point", "coordinates": [ 30.3301107, 60.0226593 ] } },
{ "type": "Feature", "properties": { "full_id": null, "osm_id": null, "osm_type": null, "leisure": null, "building": null, "width": null, "level": null, "display": null, "subject": null, "artwork_type": null, "crossing": null, "alt_name": null, "subject:wikipedia": null, "subject:wikidata": null, "memorial:subject": null, "memorial": null, "inscription": null, "historic": null, "name:en": null, "tourism": null, "door": null, "motorcycle": null, "maxwidth:physical": null, "shop": null, "opening_hours": null, "contact:vk": null, "contact:phone": null, "addr:street": null, "addr:housenumber": null, "addr:city": null, "horse": null, "fee": null, "description": null, "tactile_paving": null, "check_date": null, "bollard": null, "kerb": null, "waterway": null, "motorcar": null, "access:conditional": null, "maxwidth": null, "wheelchair": null, "material": null, "locked": null, "entrance": null, "access": null, "natural": null, "name": null, "ref": null, "post_box:type": null, "post_box:design": null, "operator": null, "drive_through": null, "design:year": null, "collection_times": null, "amenity": null, "vehicle": null, "motor_vehicle": null, "foot": null, "bicycle": null, "barrier": null }, "geometry": { "type": "Point", "coordinates": [ 30.454413682636233, 60.047435925214387 ] } },
{ "type": "Feature", "properties": { "full_id": "n1783709353", "osm_id": "1783709353", "osm_type": "node", "leisure": null, "building": null, "width": null, "level": null, "display": null, "subject": null, "artwork_type": null, "crossing": null, "alt_name": null, "subject:wikipedia": null, "subject:wikidata": null, "memorial:subject": null, "memorial": null, "inscription": null, "historic": null, "name:en": null, "tourism": null, "door": null, "motorcycle": null, "maxwidth:physical": null, "shop": null, "opening_hours": null, "contact:vk": null, "contact:phone": null, "addr:street": null, "addr:housenumber": null, "addr:city": null, "horse": null, "fee": null, "description": null, "tactile_paving": null, "check_date": null, "bollard": null, "kerb": null, "waterway": null, "motorcar": null, "access:conditional": null, "maxwidth": null, "wheelchair": null, "material": null, "locked": null, "entrance": null, "access": null, "natural": null, "name": null, "ref": null, "post_box:type": null, "post_box:design": null, "operator": null, "drive_through": null, "design:year": null, "collection_times": null, "amenity": null, "vehicle": null, "motor_vehicle": null, "foot": null, "bicycle": null, "barrier": "entrance" }, "geometry": { "type": "Point", "coordinates": [ 30.3169657, 60.0353833 ] } },
{ "type": "Feature", "properties": { "full_id": null, "osm_id": null, "osm_type": null, "leisure": null, "building": null, "width": null, "level": null, "display": null, "subject": null, "artwork_type": null, "crossing": null, "alt_name": null, "subject:wikipedia": null, "subject:wikidata": null, "memorial:subject": null, "memorial": null, "inscription": null, "historic": null, "name:en": null, "tourism": null, "door": null, "motorcycle": null, "maxwidth:physical": null, "shop": null, "opening_hours": null, "contact:vk": null, "contact:phone": null, "addr:street": null, "addr:housenumber": null, "addr:city": null, "horse": null, "fee": null, "description": null, "tactile_paving": null, "check_date": null, "bollard": null, "kerb": null, "waterway": null, "motorcar": null, "access:conditional": null, "maxwidth": null, "wheelchair": null, "material": null, "locked": null, "entrance": null, "access": null, "natural": null, "name": null, "ref": null, "post_box:type": null, "post_box:design": null, "operator": null, "drive_through": null, "design:year": null, "collection_times": null, "amenity": null, "vehicle": null, "motor_vehicle": null, "foot": null, "bicycle": null, "barrier": null }, "geometry": { "type": "Point", "coordinates": [ 30.448068220651212, 60.039282134732829 ] } },
{ "type": "Feature", "properties": { "full_id": null, "osm_id": null, "osm_type": null, "leisure": null, "building": null, "width": null, "level": null, "display": null, "subject": null, "artwork_type": null, "crossing": null, "alt_name": null, "subject:wikipedia": null, "subject:wikidata": null, "memorial:subject": null, "memorial": null, "inscription": null, "historic": null, "name:en": null, "tourism": null, "door": null, "motorcycle": null, "maxwidth:physical": null, "shop": null, "opening_hours": null, "contact:vk": null, "contact:phone": null, "addr:street": null, "addr:housenumber": null, "addr:city": null, "horse": null, "fee": null, "description": null, "tactile_paving": null, "check_date": null, "bollard": null, "kerb": null, "waterway": null, "motorcar": null, "access:conditional": null, "maxwidth": null, "wheelchair": null, "material": null, "locked": null, "entrance": null, "access": null, "natural": null, "name": null, "ref": null, "post_box:type": null, "post_box:design": null, "operator": null, "drive_through": null, "design:year": null, "collection_times": null, "amenity": null, "vehicle": null, "motor_vehicle": null, "foot": null, "bicycle": null, "barrier": null }, "geometry": { "type": "Point", "coordinates": [ 30.457332595149335, 60.030502941654973 ] } },
{ "type": "Feature", "properties": { "full_id": "n3687109960", "osm_id": "3687109960", "osm_type": "node", "leisure": null, "building": null, "width": null, "level": null, "display": null, "subject": null, "artwork_type": null, "crossing": null, "alt_name": null, "subject:wikipedia": null, "subject:wikidata": null, "memorial:subject": null, "memorial": null, "inscription": null, "historic": null, "name:en": null, "tourism": null, "door": null, "motorcycle": null, "maxwidth:physical": null, "shop": null, "opening_hours": null, "contact:vk": null, "contact:phone": null, "addr:street": null, "addr:housenumber": null, "addr:city": null, "horse": null, "fee": null, "description": null, "tactile_paving": null, "check_date": null, "bollard": null, "kerb": null, "waterway": null, "motorcar": null, "access:conditional": null, "maxwidth": null, "wheelchair": null, "material": null, "locked": null, "entrance": null, "access": "private", "natural": null, "name": null, "ref": null, "post_box:type": null, "post_box:design": null, "operator": null, "drive_through": null, "design:year": null, "collection_times": null, "amenity": null, "vehicle": null, "motor_vehicle": null, "foot": null, "bicycle": null, "barrier": "gate" }, "geometry": { "type": "Point", "coordinates": [ 30.2860051, 59.9978871 ] } },
{ "type": "Feature", "properties": { "full_id": "n3779606003", "osm_id": "3779606003", "osm_type": "node", "leisure": null, "building": null, "width": null, "level": null, "display": null, "subject": null, "artwork_type": null, "crossing": null, "alt_name": null, "subject:wikipedia": null, "subject:wikidata": null, "memorial:subject": null, "memorial": null, "inscription": null, "historic": null, "name:en": null, "tourism": null, "door": null, "motorcycle": null, "maxwidth:physical": null, "shop": null, "opening_hours": null, "contact:vk": null, "contact:phone": null, "addr:street": null, "addr:housenumber": null, "addr:city": null, "horse": null, "fee": null, "description": null, "tactile_paving": "no", "check_date": null, "bollard": null, "kerb": null, "waterway": null, "motorcar": null, "access:conditional": null, "maxwidth": null, "wheelchair": null, "material": null, "locked": null, "entrance": null, "access": null, "natural": null, "name": null, "ref": null, "post_box:type": null, "post_box:design": null, "operator": null, "drive_through": null, "design:year": null, "collection_times": null, "amenity": null, "vehicle": null, "motor_vehicle": null, "foot": null, "bicycle": null, "barrier": "kerb" }, "geometry": { "type": "Point", "coordinates": [ 30.3182473, 60.0172783 ] } },
{ "type": "Feature", "properties": { "full_id": "n4936355042", "osm_id": "4936355042", "osm_type": "node", "leisure": null, "building": null, "width": null, "level": null, "display": null, "subject": null, "artwork_type": null, "crossing": null, "alt_name": null, "subject:wikipedia": null, "subject:wikidata": null, "memorial:subject": null, "memorial": null, "inscription": null, "historic": null, "name:en": null, "tourism": null, "door": null, "motorcycle": null, "maxwidth:physical": null, "shop": null, "opening_hours": null, "contact:vk": null, "contact:phone": null, "addr:street": null, "addr:housenumber": null, "addr:city": null, "horse": null, "fee": null, "description": null, "tactile_paving": null, "check_date": null, "bollard": null, "kerb": null, "waterway": null, "motorcar": null, "access:conditional": null, "maxwidth": null, "wheelchair": null, "material": null, "locked": null, "entrance": null, "access": "private", "natural": null, "name": null, "ref": null, "post_box:type": null, "post_box:design": null, "operator": null, "drive_through": null, "design:year": null, "collection_times": null, "amenity": null, "vehicle": null, "motor_vehicle": null, "foot": null, "bicycle": null, "barrier": "entrance" }, "geometry": { "type": "Point", "coordinates": [ 30.4571007, 59.9530588 ] } },
{ "type": "Feature", "properties": { "full_id": "n7649809589", "osm_id": "7649809589", "osm_type": "node", "leisure": null, "building": null, "width": null, "level": null, "display": null, "subject": null, "artwork_type": null, "crossing": null, "alt_name": null, "subject:wikipedia": null, "subject:wikidata": null, "memorial:subject": null, "memorial": null, "inscription": null, "historic": null, "name:en": null, "tourism": null, "door": null, "motorcycle": null, "maxwidth:physical": null, "shop": null, "opening_hours": null, "contact:vk": null, "contact:phone": null, "addr:street": null, "addr:housenumber": null, "addr:city": null, "horse": null, "fee": null, "description": null, "tactile_paving": null, "check_date": null, "bollard": null, "kerb": null, "waterway": null, "motorcar": null, "access:conditional": null, "maxwidth": null, "wheelchair": null, "material": null, "locked": null, "entrance": null, "access": null, "natural": null, "name": null, "ref": null, "post_box:type": null, "post_box:design": null, "operator": null, "drive_through": null, "design:year": null, "collection_times": null, "amenity": null, "vehicle": null, "motor_vehicle": null, "foot": null, "bicycle": null, "barrier": "gate" }, "geometry": { "type": "Point", "coordinates": [ 30.2915601, 60.0199191 ] } },
{ "type": "Feature", "properties": { "full_id": "n10055066801", "osm_id": "10055066801", "osm_type": "node", "leisure": null, "building": null, "width": "0.2", "level": null, "display": null, "subject": null, "artwork_type": null, "crossing": null, "alt_name": null, "subject:wikipedia": null, "subject:wikidata": null, "memorial:subject": null, "memorial": null, "inscription": null, "historic": null, "name:en": null, "tourism": null, "door": null, "motorcycle": null, "maxwidth:physical": null, "shop": null, "opening_hours": null, "contact:vk": null, "contact:phone": null, "addr:street": null, "addr:housenumber": null, "addr:city": null, "horse": null, "fee": null, "description": null, "tactile_paving": "no", "check_date": null, "bollard": null, "kerb": "raised", "waterway": null, "motorcar": null, "access:conditional": null, "maxwidth": null, "wheelchair": "no", "material": null, "locked": null, "entrance": null, "access": null, "natural": null, "name": null, "ref": null, "post_box:type": null, "post_box:design": null, "operator": null, "drive_through": null, "design:year": null, "collection_times": null, "amenity": null, "vehicle": null, "motor_vehicle": null, "foot": null, "bicycle": null, "barrier": "kerb" }, "geometry": { "type": "Point", "coordinates": [ 30.2793112, 60.0060261 ] } },
{ "type": "Feature", "properties": { "full_id": "n11044700907", "osm_id": "11044700907", "osm_type": "node", "leisure": null, "building": null, "width": null, "level": null, "display": null, "subject": null, "artwork_type": null, "crossing": null, "alt_name": null, "subject:wikipedia": null, "subject:wikidata": null, "memorial:subject": null, "memorial": null, "inscription": null, "historic": null, "name:en": null, "tourism": null, "door": null, "motorcycle": null, "maxwidth:physical": null, "shop": null, "opening_hours": null, "contact:vk": null, "contact:phone": null, "addr:street": null, "addr:housenumber": null, "addr:city": null, "horse": null, "fee": null, "description": null, "tactile_paving": null, "check_date": null, "bollard": null, "kerb": null, "waterway": null, "motorcar": null, "access:conditional": null, "maxwidth": null, "wheelchair": null, "material": null, "locked": null, "entrance": null, "access": null, "natural": null, "name": null, "ref": null, "post_box:type": null, "post_box:design": null, "operator": null, "drive_through": null, "design:year": null, "collection_times": null, "amenity": null, "vehicle": null, "motor_vehicle": null, "foot": null, "bicycle": null, "barrier": "entrance" }, "geometry": { "type": "Point", "coordinates": [ 30.3192648, 60.0238122 ] } },
{ "type": "Feature", "properties": { "full_id": "n11282805162", "osm_id": "11282805162", "osm_type": "node", "leisure": null, "building": null, "width": null, "level": null, "display": null, "subject": null, "artwork_type": null, "crossing": null, "alt_name": null, "subject:wikipedia": null, "subject:wikidata": null, "memorial:subject": null, "memorial": null, "inscription": null, "historic": null, "name:en": null, "tourism": null, "door": null, "motorcycle": null, "maxwidth:physical": null, "shop": null, "opening_hours": null, "contact:vk": null, "contact:phone": null, "addr:street": null, "addr:housenumber": null, "addr:city": null, "horse": "no", "fee": null, "description": null, "tactile_paving": null, "check_date": null, "bollard": null, "kerb": null, "waterway": null, "motorcar": null, "access:conditional": null, "maxwidth": null, "wheelchair": null, "material": null, "locked": null, "entrance": null, "access": "no", "natural": null, "name": null, "ref": null, "post_box:type": null, "post_box:design": null, "operator": null, "drive_through": null, "design:year": null, "collection_times": null, "amenity": null, "vehicle": null, "motor_vehicle": "no", "foot": "no", "bicycle": "no", "barrier": "gate" }, "geometry": { "type": "Point", "coordinates": [ 30.2575902, 60.1121115 ] } },
{ "type": "Feature", "properties": { "full_id": null, "osm_id": null, "osm_type": null, "leisure": null, "building": null, "width": null, "level": null, "display": null, "subject": null, "artwork_type": null, "crossing": null, "alt_name": null, "subject:wikipedia": null, "subject:wikidata": null, "memorial:subject": null, "memorial": null, "inscription": null, "historic": null, "name:en": null, "tourism": null, "door": null, "motorcycle": null, "maxwidth:physical": null, "shop": null, "opening_hours": null, "contact:vk": null, "contact:phone": null, "addr:street": null, "addr:housenumber": null, "addr:city": null, "horse": null, "fee": null, "description": null, "tactile_paving": null, "check_date": null, "bollard": null, "kerb": null, "waterway": null, "motorcar": null, "access:conditional": null, "maxwidth": null, "wheelchair": null, "material": null, "locked": null, "entrance": null, "access": null, "natural": null, "name": null, "ref": null, "post_box:type": null, "post_box:design": null, "operator": null, "drive_through": null, "design:year": null, "collection_times": null, "amenity": null, "vehicle": null, "motor_vehicle": null, "foot": null, "bicycle": null, "barrier": null }, "geometry": { "type": "Point", "coordinates": [ 30.423701646628711, 59.99980497860264 ] } },
{ "type": "Feature", "properties": { "full_id": "n11915131321", "osm_id": "11915131321", "osm_type": "node", "leisure": null, "building": null, "width": null, "level": null, "display": null, "subject": null, "artwork_type": null, "crossing": null, "alt_name": null, "subject:wikipedia": null, "subject:wikidata": null, "memorial:subject": null, "memorial": null, "inscription": null, "historic": null, "name:en": null, "tourism": null, "door": null, "motorcycle": null, "maxwidth:physical": null, "shop": null, "opening_hours": null, "contact:vk": null, "contact:phone": null, "addr:street": null, "addr:housenumber": null, "addr:city": null, "horse": null, "fee": null, "description": null, "tactile_paving": "no", "check_date": null, "bollard": null, "kerb": "lowered", "waterway": null, "motorcar": null, "access:conditional": null, "maxwidth": null, "wheelchair": null, "material": null, "locked": null, "entrance": null, "access": null, "natural": null, "name": null, "ref": null, "post_box:type": null, "post_box:design": null, "operator": null, "drive_through": null, "design:year": null, "collection_times": null, "amenity": null, "vehicle": null, "motor_vehicle": null, "foot": null, "bicycle": null, "barrier": "kerb" }, "geometry": { "type": "Point", "coordinates": [ 30.1951294, 60.0033548 ] } },
{ "type": "Feature", "properties": { "full_id": "n12229350763", "osm_id": "12229350763", "osm_type": "node", "leisure": null, "building": null, "width": null, "level": null, "display": null, "subject": null, "artwork_type": null, "crossing": null, "alt_name": null, "subject:wikipedia": null, "subject:wikidata": null, "memorial:subject": null, "memorial": null, "inscription": null, "historic": null, "name:en": null, "tourism": null, "door": null, "motorcycle": null, "maxwidth:physical": null, "shop": null, "opening_hours": null, "contact:vk": null, "contact:phone": null, "addr:street": null, "addr:housenumber": null, "addr:city": null, "horse": null, "fee": null, "description": null, "tactile_paving": null, "check_date": null, "bollard": null, "kerb": "raised", "waterway": null, "motorcar": null, "access:conditional": null, "maxwidth": null, "wheelchair": null, "material": null, "locked": null, "entrance": null, "access": null, "natural": null, "name": null, "ref": null, "post_box:type": null, "post_box:design": null, "operator": null, "drive_through": null, "design:year": null, "collection_times": null, "amenity": null, "vehicle": null, "motor_vehicle": null, "foot": null, "bicycle": null, "barrier": "kerb" }, "geometry": { "type": "Point", "coordinates": [ 30.2256227, 60.0195165 ] } },
{ "type": "Feature", "properties": { "full_id": null, "osm_id": null, "osm_type": null, "leisure": null, "building": null, "width": null, "level": null, "display": null, "subject": null, "artwork_type": null, "crossing": null, "alt_name": null, "subject:wikipedia": null, "subject:wikidata": null, "memorial:subject": null, "memorial": null, "inscription": null, "historic": null, "name:en": null, "tourism": null, "door": null, "motorcycle": null, "maxwidth:physical": null, "shop": null, "opening_hours": null, "contact:vk": null, "contact:phone": null, "addr:street": null, "addr:housenumber": null, "addr:city": null, "horse": null, "fee": null, "description": null, "tactile_paving": null, "check_date": null, "bollard": null, "kerb": null, "waterway": null, "motorcar": null, "access:conditional": null, "maxwidth": null, "wheelchair": null, "material": null, "locked": null, "entrance": null, "access": null, "natural": null, "name": null, "ref": null, "post_box:type": null, "post_box:design": null, "operator": null, "drive_through": null, "design:year": null, "collection_times": null, "amenity": null, "vehicle": null, "motor_vehicle": null, "foot": null, "bicycle": null, "barrier": null }, "geometry": { "type": "Point", "coordinates": [ 30.427720439219232, 59.983842197642886 ] } },
{ "type": "Feature", "properties": { "full_id": "n13123014122", "osm_id": "13123014122", "osm_type": "node", "leisure": null, "building": null, "width": null, "level": null, "display": null, "subject": null, "artwork_type": null, "crossing": null, "alt_name": null, "subject:wikipedia": null, "subject:wikidata": null, "memorial:subject": null, "memorial": null, "inscription": null, "historic": null, "name:en": null, "tourism": null, "door": null, "motorcycle": null, "maxwidth:physical": null, "shop": null, "opening_hours": null, "contact:vk": null, "contact:phone": null, "addr:street": null, "addr:housenumber": null, "addr:city": null, "horse": null, "fee": null, "description": null, "tactile_paving": null, "check_date": null, "bollard": null, "kerb": null, "waterway": null, "motorcar": null, "access:conditional": null, "maxwidth": null, "wheelchair": null, "material": null, "locked": null, "entrance": null, "access": null, "natural": null, "name": null, "ref": null, "post_box:type": null, "post_box:design": null, "operator": null, "drive_through": null, "design:year": null, "collection_times": null, "amenity": null, "vehicle": null, "motor_vehicle": null, "foot": null, "bicycle": null, "barrier": "gate" }, "geometry": { "type": "Point", "coordinates": [ 30.4119814, 59.9969199 ] } },
{ "type": "Feature", "properties": { "full_id": "n13154345037", "osm_id": "13154345037", "osm_type": "node", "leisure": null, "building": null, "width": null, "level": null, "display": null, "subject": null, "artwork_type": null, "crossing": null, "alt_name": null, "subject:wikipedia": null, "subject:wikidata": null, "memorial:subject": null, "memorial": null, "inscription": null, "historic": null, "name:en": null, "tourism": null, "door": null, "motorcycle": null, "maxwidth:physical": null, "shop": null, "opening_hours": null, "contact:vk": null, "contact:phone": null, "addr:street": null, "addr:housenumber": null, "addr:city": null, "horse": null, "fee": null, "description": null, "tactile_paving": null, "check_date": null, "bollard": null, "kerb": null, "waterway": null, "motorcar": null, "access:conditional": null, "maxwidth": null, "wheelchair": null, "material": null, "locked": "yes", "entrance": null, "access": null, "natural": null, "name": null, "ref": null, "post_box:type": null, "post_box:design": null, "operator": null, "drive_through": null, "design:year": null, "collection_times": null, "amenity": null, "vehicle": null, "motor_vehicle": null, "foot": null, "bicycle": null, "barrier": "gate" }, "geometry": { "type": "Point", "coordinates": [ 30.237736900818359, 60.023529358798882 ] } },
{ "type": "Feature", "properties": { "full_id": null, "osm_id": null, "osm_type": null, "leisure": null, "building": null, "width": null, "level": null, "display": null, "subject": null, "artwork_type": null, "crossing": null, "alt_name": null, "subject:wikipedia": null, "subject:wikidata": null, "memorial:subject": null, "memorial": null, "inscription": null, "historic": null, "name:en": null, "tourism": null, "door": null, "motorcycle": null, "maxwidth:physical": null, "shop": null, "opening_hours": null, "contact:vk": null, "contact:phone": null, "addr:street": null, "addr:housenumber": null, "addr:city": null, "horse": null, "fee": null, "description": null, "tactile_paving": null, "check_date": null, "bollard": null, "kerb": null, "waterway": null, "motorcar": null, "access:conditional": null, "maxwidth": null, "wheelchair": null, "material": null, "locked": null, "entrance": null, "access": null, "natural": null, "name": null, "ref": null, "post_box:type": null, "post_box:design": null, "operator": null, "drive_through": null, "design:year": null, "collection_times": null, "amenity": null, "vehicle": null, "motor_vehicle": null, "foot": null, "bicycle": null, "barrier": null }, "geometry": { "type": "Point", "coordinates": [ 30.211319033990005, 60.041547865295499 ] } },
{ "type": "Feature", "properties": { "full_id": "n13331180499", "osm_id": "13331180499", "osm_type": "node", "leisure": null, "building": null, "width": null, "level": null, "display": null, "subject": null, "artwork_type": null, "crossing": null, "alt_name": null, "subject:wikipedia": null, "subject:wikidata": null, "memorial:subject": null, "memorial": null, "inscription": null, "historic": null, "name:en": null, "tourism": null, "door": null, "motorcycle": null, "maxwidth:physical": null, "shop": null, "opening_hours": null, "contact:vk": null, "contact:phone": null, "addr:street": null, "addr:housenumber": null, "addr:city": null, "horse": null, "fee": null, "description": null, "tactile_paving": null, "check_date": null, "bollard": null, "kerb": null, "waterway": null, "motorcar": null, "access:conditional": null, "maxwidth": null, "wheelchair": null, "material": "metal", "locked": "yes", "entrance": null, "access": null, "natural": null, "name": null, "ref": null, "post_box:type": null, "post_box:design": null, "operator": null, "drive_through": null, "design:year": null, "collection_times": null, "amenity": null, "vehicle": null, "motor_vehicle": null, "foot": null, "bicycle": null, "barrier": "gate" }, "geometry": { "type": "Point", "coordinates": [ 30.2214779, 60.0299131 ] } },
{ "type": "Feature", "properties": { "full_id": null, "osm_id": null, "osm_type": null, "leisure": null, "building": null, "width": null, "level": null, "display": null, "subject": null, "artwork_type": null, "crossing": null, "alt_name": null, "subject:wikipedia": null, "subject:wikidata": null, "memorial:subject": null, "memorial": null, "inscription": null, "historic": null, "name:en": null, "tourism": null, "door": null, "motorcycle": null, "maxwidth:physical": null, "shop": null, "opening_hours": null, "contact:vk": null, "contact:phone": null, "addr:street": null, "addr:housenumber": null, "addr:city": null, "horse": null, "fee": null, "description": null, "tactile_paving": null, "check_date": null, "bollard": null, "kerb": null, "waterway": null, "motorcar": null, "access:conditional": null, "maxwidth": null, "wheelchair": null, "material": null, "locked": null, "entrance": null, "access": null, "natural": null, "name": null, "ref": null, "post_box:type": null, "post_box:design": null, "operator": null, "drive_through": null, "design:year": null, "collection_times": null, "amenity": null, "vehicle": null, "motor_vehicle": null, "foot": null, "bicycle": null, "barrier": null }, "geometry": { "type": "Point", "coordinates": [ 30.219589286110484, 60.038146570267806 ] } },
{ "type": "Feature", "properties": { "full_id": null, "osm_id": null, "osm_type": null, "leisure": null, "building": null, "width": null, "level": null, "display": null, "subject": null, "artwork_type": null, "crossing": null, "alt_name": null, "subject:wikipedia": null, "subject:wikidata": null, "memorial:subject": null, "memorial": null, "inscription": null, "historic": null, "name:en": null, "tourism": null, "door": null, "motorcycle": null, "maxwidth:physical": null, "shop": null, "opening_hours": null, "contact:vk": null, "contact:phone": null, "addr:street": null, "addr:housenumber": null, "addr:city": null, "horse": null, "fee": null, "description": null, "tactile_paving": null, "check_date": null, "bollard": null, "kerb": null, "waterway": null, "motorcar": null, "access:conditional": null, "maxwidth": null, "wheelchair": null, "material": null, "locked": null, "entrance": null, "access": null, "natural": null, "name": null, "ref": null, "post_box:type": null, "post_box:design": null, "operator": null, "drive_through": null, "design:year": null, "collection_times": null, "amenity": null, "vehicle": null, "motor_vehicle": null, "foot": null, "bicycle": null, "barrier": null }, "geometry": { "type": "Point", "coordinates": [ 30.418054185462047, 59.983387214298475 ] } }
]
}
