{
"type": "FeatureCollection",
"name": "schools",
"crs": { "type": "name", "properties": { "name": "urn:ogc:def:crs:OGC:1.3:CRS84" } },
"features": [
{ "type": "Feature", "properties": { "full_id": null, "osm_id": null, "osm_type": null, "amenity": null, "official_name": null, "name": null }, "geometry": { "type": "Point", "coordinates": [ 30.311374705522105, 60.02709099136559 ] } },
{ "type": "Feature", "properties": { "full_id": null, "osm_id": null, "osm_type": null, "amenity": null, "official_name": null, "name": null }, "geometry": { "type": "Point", "coordinates": [ 30.325376977958513, 60.033426900083477 ] } },
{ "type": "Feature", "properties": { "full_id": "n1170807562", "osm_id": "1170807562", "osm_type": "node", "amenity": null, "official_name": null, "name": null }, "geometry": { "type": "Point", "coordinates": [ 30.2910739, 59.9884737 ] } },
{ "type": "Feature", "properties": { "full_id": null, "osm_id": null, "osm_type": null, "amenity": null, "official_name": null, "name": null }, "geometry": { "type": "Point", "coordinates": [ 30.303812355979812, 59.989253522975382 ] } },
{ "type": "Feature", "properties": { "full_id": null, "osm_id": null, "osm_type": null, "amenity": null, "official_name": null, "name": null }, "geometry": { "type": "Point", "coordinates": [ 30.317884780081734, 59.996733274372843 ] } },
{ "type": "Feature", "properties": { "full_id": "n1384175270", "osm_id": "1384175270", "osm_type": "node", "amenity": null, "official_name": null, "name": null }, "geometry": { "type": "Point", "coordinates": [ 30.2994453, 60.0275256 ] } },
{ "type": "Feature", "properties": { "full_id": "n1399674876", "osm_id": "1399674876", "osm_type": "node", "amenity": null, "official_name": null, "name": null }, "geometry": { "type": "Point", "coordinates": [ 30.4788636, 59.9524779 ] } },
{ "type": "Feature", "properties": { "full_id": "n1415488823", "osm_id": "1415488823", "osm_type": "node", "amenity": null, "official_name": null, "name": null }, "geometry": { "type": "Point", "coordinates": [ 30.3125322, 59.9951289 ] } },
{ "type": "Feature", "properties": { "full_id": "n1415489033", "osm_id": "1415489033", "osm_type": "node", "amenity": null, "official_name": null, "name": null }, "geometry": { "type": "Point", "coordinates": [ 30.3127412, 59.9963467 ] } },
{ "type": "Feature", "properties": { "full_id": "n1421425071", "osm_id": "1421425071", "osm_type": "node", "amenity": null, "official_name": null, "name": null }, "geometry": { "type": "Point", "coordinates": [ 30.2396414, 60.012862 ] } },
{ "type": "Feature", "properties": { "full_id": null, "osm_id": null, "osm_type": null, "amenity": null, "official_name": null, "name": null }, "geometry": { "type": "Point", "coordinates": [ 30.228441406552541, 60.006455826446384 ] } },
{ "type": "Feature", "properties": { "full_id": null, "osm_id": null, "osm_type": null, "amenity": null, "official_name": null, "name": null }, "geometry": { "type": "Point", "coordinates": [ 30.23589151343004, 60.021847528765925 ] } },
{ "type": "Feature", "properties": { "full_id": null, "osm_id": null, "osm_type": null, "amenity": null, "official_name": null, "name": null }, "geometry": { "type": "Point", "coordinates": [ 30.239651642701542, 60.020431370787165 ] } },
{ "type": "Feature", "properties": { "full_id": "n1721548156", "osm_id": "1721548156", "osm_type": "node", "amenity": null, "official_name": null, "name": null }, "geometry": { "type": "Point", "coordinates": [ 30.1456585, 60.0006576 ] } },
{ "type": "Feature", "properties": { "full_id": "n1750953355", "osm_id": "1750953355", "osm_type": "node", "amenity": null, "official_name": null, "name": null }, "geometry": { "type": "Point", "coordinates": [ 30.4132258, 59.9953943 ] } },
{ "type": "Feature", "properties": { "full_id": null, "osm_id": null, "osm_type": null, "amenity": null, "official_name": null, "name": null }, "geometry": { "type": "Point", "coordinates": [ 30.253920491466904, 60.00336961158407 ] } },
{ "type": "Feature", "properties": { "full_id": "n2031328582", "osm_id": "2031328582", "osm_type": "node", "amenity": null, "official_name": null, "name": null }, "geometry": { "type": "Point", "coordinates": [ 30.3090193, 59.9905885 ] } },
{ "type": "Feature", "properties": { "full_id": null, "osm_id": null, "osm_type": null, "amenity": null, "official_name": null, "name": null }, "geometry": { "type": "Point", "coordinates": [ 30.236957818745832, 60.016974849270298 ] } },
{ "type": "Feature", "properties": { "full_id": "n2157946372", "osm_id": "2157946372", "osm_type": "node", "amenity": null, "official_name": null, "name": null }, "geometry": { "type": "Point", "coordinates": [ 30.2783519, 60.0028419 ] } },
{ "type": "Feature", "properties": { "full_id": null, "osm_id": null, "osm_type": null, "amenity": null, "official_name": null, "name": null }, "geometry": { "type": "Point", "coordinates": [ 30.235667028100352, 60.030812784100625 ] } },
{ "type": "Feature", "properties": { "full_id": null, "osm_id": null, "osm_type": null, "amenity": null, "official_name": null, "name": null }, "geometry": { "type": "Point", "coordinates": [ 30.240774069349712, 60.036124899381782 ] } },
{ "type": "Feature", "properties": { "full_id": "n2251135612", "osm_id": "2251135612", "osm_type": "node", "amenity": null, "official_name": null, "name": null }, "geometry": { "type": "Point", "coordinates": [ 30.2861946, 59.9881291 ] } },
{ "type": "Feature", "properties": { "full_id": null, "osm_id": null, "osm_type": null, "amenity": null, "official_name": null, "name": null }, "geometry": { "type": "Point", "coordinates": [ 30.21135246083357, 59.990404364012946 ] } },
{ "type": "Feature", "properties": { "full_id": "n2333407425", "osm_id": "2333407425", "osm_type": "node", "amenity": null, "official_name": null, "name": null }, "geometry": { "type": "Point", "coordinates": [ 30.2156477, 59.9977703 ] } },
{ "type": "Feature", "properties": { "full_id": "n2335033183", "osm_id": "2335033183", "osm_type": "node", "amenity": null, "official_name": null, "name": null }, "geometry": { "type": "Point", "coordinates": [ 30.2051013, 59.9987023 ] } },
{ "type": "Feature", "properties": { "full_id": null, "osm_id": null, "osm_type": null, "amenity": null, "official_name": null, "name": null }, "geometry": { "type": "Point", "coordinates": [ 30.484922910835024, 59.964149622348948 ] } },
{ "type": "Feature", "properties": { "full_id": null, "osm_id": null, "osm_type": null, "amenity": null, "official_name": null, "name": null }, "geometry": { "type": "Point", "coordinates": [ 30.487799129121065, 59.958566051373182 ] } },
{ "type": "Feature", "properties": { "full_id": null, "osm_id": null, "osm_type": null, "amenity": null, "official_name": null, "name": null }, "geometry": { "type": "Point", "coordinates": [ 30.209079546870932, 59.985498976718475 ] } },
{ "type": "Feature", "properties": { "full_id": "n2355721361", "osm_id": "2355721361", "osm_type": "node", "amenity": null, "official_name": null, "name": null }, "geometry": { "type": "Point", "coordinates": [ 30.2182948, 59.9888223 ] } },
{ "type": "Feature", "properties": { "full_id": null, "osm_id": null, "osm_type": null, "amenity": null, "official_name": null, "name": null }, "geometry": { "type": "Point", "coordinates": [ 30.264316968295947, 60.006020968146771 ] } },
{ "type": "Feature", "properties": { "full_id": null, "osm_id": null, "osm_type": null, "amenity": null, "official_name": null, "name": null }, "geometry": { "type": "Point", "coordinates": [ 30.270350011530073, 60.00956279275055 ] } },
{ "type": "Feature", "properties": { "full_id": "n2356103439", "osm_id": "2356103439", "osm_type": "node", "amenity": null, "official_name": null, "name": null }, "geometry": { "type": "Point", "coordinates": [ 30.2750421, 60.0151587 ] } },
{ "type": "Feature", "properties": { "full_id": "n2360255600", "osm_id": "2360255600", "osm_type": "node", "amenity": null, "official_name": null, "name": null }, "geometry": { "type": "Point", "coordinates": [ 30.2831032, 60.0013232 ] } },
{ "type": "Feature", "properties": { "full_id": "n2364341973", "osm_id": "2364341973", "osm_type": "node", "amenity": null, "official_name": null, "name": null }, "geometry": { "type": "Point", "coordinates": [ 30.2857324, 60.008922 ] } },
{ "type": "Feature", "properties": { "full_id": "n2364342177", "osm_id": "2364342177", "osm_type": "node", "amenity": null, "official_name": null, "name": null }, "geometry": { "type": "Point", "coordinates": [ 30.286825, 60.0107533 ] } },
{ "type": "Feature", "properties": { "full_id": "n2367114663", "osm_id": "2367114663", "osm_type": "node", "amenity": null, "official_name": null, "name": null }, "geometry": { "type": "Point", "coordinates": [ 30.2898013, 60.0267829 ] } },
{ "type": "Feature", "properties": { "full_id": "n2367114715", "osm_id": "2367114715", "osm_type": "node", "amenity": null, "official_name": null, "name": null }, "geometry": { "type": "Point", "coordinates": [ 30.2914781, 60.0273834 ] } },
{ "type": "Feature", "properties": { "full_id": "n2369780354", "osm_id": "2369780354", "osm_type": "node", "amenity": "community_centre", "official_name": null, "name": "Золотой ключик" }, "geometry": { "type": "Point", "coordinates": [ 30.2943765, 60.0283154 ] } },
{ "type": "Feature", "properties": { "full_id": "n2380657057", "osm_id": "2380657057", "osm_type": "node", "amenity": null, "official_name": null, "name": null }, "geometry": { "type": "Point", "coordinates": [ 30.3169544, 59.9920486 ] } },
{ "type": "Feature", "properties": { "full_id": "n2388373371", "osm_id": "2388373371", "osm_type": "node", "amenity": null, "official_name": null, "name": null }, "geometry": { "type": "Point", "coordinates": [ 30.3013421, 59.991771 ] } },
{ "type": "Feature", "properties": { "full_id": "n2388373444", "osm_id": "2388373444", "osm_type": "node", "amenity": null, "official_name": null, "name": null }, "geometry": { "type": "Point", "coordinates": [ 30.3155269, 59.9927296 ] } },
{ "type": "Feature", "properties": { "full_id": null, "osm_id": null, "osm_type": null, "amenity": null, "official_name": null, "name": null }, "geometry": { "type": "Point", "coordinates": [ 30.239616566868719, 60.07023031989123 ] } },
{ "type": "Feature", "properties": { "full_id": null, "osm_id": null, "osm_type": null, "amenity": null, "official_name": null, "name": null }, "geometry": { "type": "Point", "coordinates": [ 30.249711391536117, 60.020045772708784 ] } },
{ "type": "Feature", "properties": { "full_id": null, "osm_id": null, "osm_type": null, "amenity": null, "official_name": null, "name": null }, "geometry": { "type": "Point", "coordinates": [ 30.250721575519503, 60.011379145730928 ] } },
{ "type": "Feature", "properties": { "full_id": "n2921873607", "osm_id": "2921873607", "osm_type": "node", "amenity": null, "official_name": null, "name": null }, "geometry": { "type": "Point", "coordinates": [ 30.138018, 60.0008271 ] } },
{ "type": "Feature", "properties": { "full_id": "n3048048846", "osm_id": "3048048846", "osm_type": "node", "amenity": null, "official_name": null, "name": null }, "geometry": { "type": "Point", "coordinates": [ 30.2401827, 60.0057826 ] } },
{ "type": "Feature", "properties": { "full_id": "n3191453876", "osm_id": "3191453876", "osm_type": "node", "amenity": null, "official_name": null, "name": null }, "geometry": { "type": "Point", "coordinates": [ 30.259897, 60.0021594 ] } },
{ "type": "Feature", "properties": { "full_id": "n3677386148", "osm_id": "3677386148", "osm_type": "node", "amenity": null, "official_name": null, "name": null }, "geometry": { "type": "Point", "coordinates": [ 30.2466958, 60.0135745 ] } },
{ "type": "Feature", "properties": { "full_id": "n3677388127", "osm_id": "3677388127", "osm_type": "node", "amenity": null, "official_name": null, "name": null }, "geometry": { "type": "Point", "coordinates": [ 30.2647722, 60.0111696 ] } },
{ "type": "Feature", "properties": { "full_id": "n3682343882", "osm_id": "3682343882", "osm_type": "node", "amenity": null, "official_name": null, "name": null }, "geometry": { "type": "Point", "coordinates": [ 30.2663434, 60.1100553 ] } },
{ "type": "Feature", "properties": { "full_id": null, "osm_id": null, "osm_type": null, "amenity": null, "official_name": null, "name": null }, "geometry": { "type": "Point", "coordinates": [ 30.351845201356578, 60.085627313985313 ] } },
{ "type": "Feature", "properties": { "full_id": null, "osm_id": null, "osm_type": null, "amenity": null, "official_name": null, "name": null }, "geometry": { "type": "Point", "coordinates": [ 30.350357986047701, 60.079665331041824 ] } },
{ "type": "Feature", "properties": { "full_id": "n3685478864", "osm_id": "3685478864", "osm_type": "node", "amenity": null, "official_name": null, "name": null }, "geometry": { "type": "Point", "coordinates": [ 30.2399658, 60.0179103 ] } },
{ "type": "Feature", "properties": { "full_id": null, "osm_id": null, "osm_type": null, "amenity": null, "official_name": null, "name": null }, "geometry": { "type": "Point", "coordinates": [ 30.420446515061922, 59.986874523475791 ] } },
{ "type": "Feature", "properties": { "full_id": "n3692572653", "osm_id": "3692572653", "osm_type": "node", "amenity": null, "official_name": null, "name": null }, "geometry": { "type": "Point", "coordinates": [ 30.4330473, 59.9964122 ] } },
{ "type": "Feature", "properties": { "full_id": null, "osm_id": null, "osm_type": null, "amenity": null, "official_name": null, "name": null }, "geometry": { "type": "Point", "coordinates": [ 30.346092764784501, 60.078755544005126 ] } },
{ "type": "Feature", "properties": { "full_id": "n3735363731", "osm_id": "3735363731", "osm_type": "node", "amenity": null, "official_name": null, "name": null }, "geometry": { "type": "Point", "coordinates": [ 30.2626087, 60.1076445 ] } },
{ "type": "Feature", "properties": { "full_id": null, "osm_id": null, "osm_type": null, "amenity": null, "official_name": null, "name": null }, "geometry": { "type": "Point", "coordinates": [ 30.348772558407102, 60.078398620696774 ] } },
{ "type": "Feature", "properties": { "full_id": "n3740813684", "osm_id": "3740813684", "osm_type": "node", "amenity": null, "official_name": null, "name": null }, "geometry": { "type": "Point", "coordinates": [ 30.2406342, 60.0110078 ] } },
{ "type": "Feature", "properties": { "full_id": "n5030322782", "osm_id": "5030322782", "osm_type": "node", "amenity": null, "official_name": null, "name": null }, "geometry": { "type": "Point", "coordinates": [ 30.2879295, 60.0022289 ] } },
{ "type": "Feature", "properties": { "full_id": "n5034964248", "osm_id": "5034964248", "osm_type": "node", "amenity": null, "official_name": null, "name": null }, "geometry": { "type": "Point", "coordinates": [ 30.2001975, 59.9964637 ] } },
{ "type": "Feature", "properties": { "full_id": "n5715149948", "osm_id": "5715149948", "osm_type": "node", "amenity": null, "official_name": null, "name": null }, "geometry": { "type": "Point", "coordinates": [ 30.4478842, 60.0404791 ] } },
{ "type": "Feature", "properties": { "full_id": "n5942465809", "osm_id": "5942465809", "osm_type": "node", "amenity": null, "official_name": null, "name": null }, "geometry": { "type": "Point", "coordinates": [ 30.145572, 60.0297419 ] } },
{ "type": "Feature", "properties": { "full_id": "n7773736681", "osm_id": "7773736681", "osm_type": "node", "amenity": null, "official_name": null, "name": null }, "geometry": { "type": "Point", "coordinates": [ 30.4536939, 60.0275035 ] } },
{ "type": "Feature", "properties": { "full_id": "n9006498342", "osm_id": "9006498342", "osm_type": "node", "amenity": null, "official_name": null, "name": null }, "geometry": { "type": "Point", "coordinates": [ 30.2860599, 60.0095064 ] } },
{ "type": "Feature", "properties": { "full_id": "n9436404662", "osm_id": "9436404662", "osm_type": "node", "amenity": "community_centre", "official_name": null, "name": "Клуб «Молодежная ИдеЯ»" }, "geometry": { "type": "Point", "coordinates": [ 30.2088977, 59.9968017 ] } },
{ "type": "Feature", "properties": { "full_id": "n9445674309", "osm_id": "9445674309", "osm_type": "node", "amenity": null, "official_name": null, "name": null }, "geometry": { "type": "Point", "coordinates": [ 30.2249763, 60.0039333 ] } },
{ "type": "Feature", "properties": { "full_id": "n9472345111", "osm_id": "9472345111", "osm_type": "node", "amenity": "community_centre", "official_name": null, "name": "Дом культуры «Галактика»" }, "geometry": { "type": "Point", "coordinates": [ 30.4352309, 60.0007182 ] } },
{ "type": "Feature", "properties": { "full_id": "n9720728768", "osm_id": "9720728768", "osm_type": "node", "amenity": null, "official_name": null, "name": null }, "geometry": { "type": "Point", "coordinates": [ 30.1967676, 60.1013676 ] } },
{ "type": "Feature", "properties": { "full_id": "n9779237564", "osm_id": "9779237564", "osm_type": "node", "amenity": null, "official_name": null, "name": null }, "geometry": { "type": "Point", "coordinates": [ 30.4533577, 60.0330336 ] } },
{ "type": "Feature", "properties": { "full_id": null, "osm_id": null, "osm_type": null, "amenity": null, "official_name": null, "name": null }, "geometry": { "type": "Point", "coordinates": [ 30.489286344429946, 59.953719170352478 ] } },
{ "type": "Feature", "properties": { "full_id": null, "osm_id": null, "osm_type": null, "amenity": null, "official_name": null, "name": null }, "geometry": { "type": "Point", "coordinates": [ 30.339835236220736, 60.078888514445985 ] } },
{ "type": "Feature", "properties": { "full_id": "n10880940172", "osm_id": "10880940172", "osm_type": "node", "amenity": null, "official_name": null, "name": null }, "geometry": { "type": "Point", "coordinates": [ 30.1946588, 59.986369 ] } },
{ "type": "Feature", "properties": { "full_id": null, "osm_id": null, "osm_type": null, "amenity": null, "official_name": null, "name": null }, "geometry": { "type": "Point", "coordinates": [ 30.497592301626693, 59.948899684394362 ] } },
{ "type": "Feature", "properties": { "full_id": "n11051403963", "osm_id": "11051403963", "osm_type": "node", "amenity": null, "official_name": null, "name": null }, "geometry": { "type": "Point", "coordinates": [ 30.4929517, 59.950842 ] } },
{ "type": "Feature", "properties": { "full_id": "n11068062848", "osm_id": "11068062848", "osm_type": "node", "amenity": null, "official_name": null, "name": null }, "geometry": { "type": "Point", "coordinates": [ 30.2383386, 60.0009891 ] } },
{ "type": "Feature", "properties": { "full_id": null, "osm_id": null, "osm_type": null, "amenity": null, "official_name": null, "name": null }, "geometry": { "type": "Point", "coordinates": [ 30.476462619974154, 59.94938447488537 ] } },
{ "type": "Feature", "properties": { "full_id": "n11105857804", "osm_id": "11105857804", "osm_type": "node", "amenity": null, "official_name": null, "name": null }, "geometry": { "type": "Point", "coordinates": [ 30.4655673, 59.9479588 ] } },
{ "type": "Feature", "properties": { "full_id": null, "osm_id": null, "osm_type": null, "amenity": null, "official_name": null, "name": null }, "geometry": { "type": "Point", "coordinates": [ 30.464943716496908, 59.9518996508558 ] } },
{ "type": "Feature", "properties": { "full_id": "n11105876674", "osm_id": "11105876674", "osm_type": "node", "amenity": null, "official_name": null, "name": null }, "geometry": { "type": "Point", "coordinates": [ 30.4662542, 59.9529171 ] } },
{ "type": "Feature", "properties": { "full_id": null, "osm_id": null, "osm_type": null, "amenity": null, "official_name": null, "name": null }, "geometry": { "type": "Point", "coordinates": [ 30.43793532527436, 59.937902169719003 ] } },
{ "type": "Feature", "properties": { "full_id": "n11105895399", "osm_id": "11105895399", "osm_type": "node", "amenity": null, "official_name": null, "name": null }, "geometry": { "type": "Point", "coordinates": [ 30.4783039, 59.9548004 ] } },
{ "type": "Feature", "properties": { "full_id": "n11195998605", "osm_id": "11195998605", "osm_type": "node", "amenity": null, "official_name": null, "name": null }, "geometry": { "type": "Point", "coordinates": [ 30.2068383, 60.00382 ] } },
{ "type": "Feature", "properties": { "full_id": "n11332580704", "osm_id": "11332580704", "osm_type": "node", "amenity": null, "official_name": null, "name": null }, "geometry": { "type": "Point", "coordinates": [ 30.4931286, 59.9539849 ] } },
{ "type": "Feature", "properties": { "full_id": "n11345030716", "osm_id": "11345030716", "osm_type": "node", "amenity": null, "official_name": null, "name": null }, "geometry": { "type": "Point", "coordinates": [ 30.2799822, 60.0141757 ] } },
{ "type": "Feature", "properties": { "full_id": "n11372261543", "osm_id": "11372261543", "osm_type": "node", "amenity": null, "official_name": null, "name": null }, "geometry": { "type": "Point", "coordinates": [ 30.4722651, 59.9393947 ] } },
{ "type": "Feature", "properties": { "full_id": null, "osm_id": null, "osm_type": null, "amenity": null, "official_name": null, "name": null }, "geometry": { "type": "Point", "coordinates": [ 30.338207717580829, 60.080358152025418 ] } },
{ "type": "Feature", "properties": { "full_id": "n11608384891", "osm_id": "11608384891", "osm_type": "node", "amenity": null, "official_name": null, "name": null }, "geometry": { "type": "Point", "coordinates": [ 30.1964518, 59.9878108 ] } },
{ "type": "Feature", "properties": { "full_id": "n11916496313", "osm_id": "11916496313", "osm_type": "node", "amenity": null, "official_name": null, "name": null }, "geometry": { "type": "Point", "coordinates": [ 30.2172971, 60.0044457 ] } },
{ "type": "Feature", "properties": { "full_id": "n11917147333", "osm_id": "11917147333", "osm_type": "node", "amenity": null, "official_name": null, "name": null }, "geometry": { "type": "Point", "coordinates": [ 30.2172945, 60.0024755 ] } },
{ "type": "Feature", "properties": { "full_id": "n13131009811", "osm_id": "13131009811", "osm_type": "node", "amenity": null, "official_name": null, "name": null }, "geometry": { "type": "Point", "coordinates": [ 30.4533053, 60.0373651 ] } },
{ "type": "Feature", "properties": { "full_id": "n13150608164", "osm_id": "13150608164", "osm_type": "node", "amenity": null, "official_name": null, "name": null }, "geometry": { "type": "Point", "coordinates": [ 30.2320583, 60.0211097 ] } },
{ "type": "Feature", "properties": { "full_id": "n13300268696", "osm_id": "13300268696", "osm_type": "node", "amenity": null, "official_name": null, "name": null }, "geometry": { "type": "Point", "coordinates": [ 30.2109844, 60.037613 ] } },
{ "type": "Feature", "properties": { "full_id": "n13300268816", "osm_id": "13300268816", "osm_type": "node", "amenity": null, "official_name": null, "name": null }, "geometry": { "type": "Point", "coordinates": [ 30.2150946, 60.037716 ] } },
{ "type": "Feature", "properties": { "full_id": "n13342509241", "osm_id": "13342509241", "osm_type": "node", "amenity": null, "official_name": null, "name": null }, "geometry": { "type": "Point", "coordinates": [ 30.2306877, 60.0367093 ] } },
{ "type": "Feature", "properties": { "full_id": "n13354052374", "osm_id": "13354052374", "osm_type": "node", "amenity": null, "official_name": null, "name": null }, "geometry": { "type": "Point", "coordinates": [ 30.2266216, 60.0405352 ] } },
{ "type": "Feature", "properties": { "full_id": "n13601840712", "osm_id": "13601840712", "osm_type": "node", "amenity": null, "official_name": null, "name": null }, "geometry": { "type": "Point", "coordinates": [ 30.2114477, 60.0349053 ] } },
{ "type": "Feature", "properties": { "full_id": null, "osm_id": null, "osm_type": null, "amenity": null, "official_name": null, "name": null }, "geometry": { "type": "Point", "coordinates": [ 30.134753857259756, 60.031390991108275 ] } },
{ "type": "Feature", "properties": { "full_id": null, "osm_id": null, "osm_type": null, "amenity": null, "official_name": null, "name": null }, "geometry": { "type": "Point", "coordinates": [ 30.419520513077153, 59.985119989505939 ] } },
{ "type": "Feature", "properties": { "full_id": null, "osm_id": null, "osm_type": null, "amenity": null, "official_name": null, "name": null }, "geometry": { "type": "Point", "coordinates": [ 30.453252941439573, 60.027215408347836 ] } }
]
}
