{
"type": "FeatureCollection",
"name": "shopping_malls",
"crs": { "type": "name", "properties": { "name": "urn:ogc:def:crs:OGC:1.3:CRS84" } },
"features": [
{ "type": "Feature", "properties": { "full_id": null, "osm_id": null, "osm_type": null, "shop": null, "takeaway": null, "payment:visa_electron": null, "payment:maestro": null, "payment:contactless": null, "healthcare": null, "leisure": null, "contact:instagram": null, "operator": null, "contact:email": null, "access:conditional": null, "surveillance:zone": null, "addr:city": null, "training": null, "contact:website": null, "contact:phone": null, "contact:vk": null, "lit": null, "automatic_door": null, "camera:type": null, "camera:mount": null, "camera:direction": null, "maxheight": null, "description": null, "toilets": null, "phone": null, "name:ru": null, "internet_access": null, "addr:street": null, "addr:housenumber": null, "motor_vehicle": null, "ref": null, "addr:flats": null, "website": null, "self_service": null, "payment:visa": null, "payment:mastercard": null, "payment:debit_cards": null, "payment:credit_cards": null, "payment:cash": null, "automated": null, "emergency": null, "parking": null, "foot": null, "fee": null, "amenity": null, "layer": null, "access": null, "opening_hours": null, "name": null, "level": null, "check_date": null, "highway": null, "direction": null, "barrier": null, "surveillance:type": null, "surveillance": null, "man_made": null, "wheelchair": null, "entrance": null, "door": null }, "geometry": { "type": "Point", "coordinates": [ 30.453278442918045, 60.035776516949795 ] } },
{ "type": "Feature", "properties": { "full_id": null, "osm_id": null, "osm_type": null, "shop": null, "takeaway": null, "payment:visa_electron": null, "payment:maestro": null, "payment:contactless": null, "healthcare": null, "leisure": null, "contact:instagram": null, "operator": null, "contact:email": null, "access:conditional": null, "surveillance:zone": null, "addr:city": null, "training": null, "contact:website": null, "contact:phone": null, "contact:vk": null, "lit": null, "automatic_door": null, "camera:type": null, "camera:mount": null, "camera:direction": null, "maxheight": null, "description": null, "toilets": null, "phone": null, "name:ru": null, "internet_access": null, "addr:street": null, "addr:housenumber": null, "motor_vehicle": null, "ref": null, "addr:flats": null, "website": null, "self_service": null, "payment:visa": null, "payment:mastercard": null, "payment:debit_cards": null, "payment:credit_cards": null, "payment:cash": null, "automated": null, "emergency": null, "parking": null, "foot": null, "fee": null, "amenity": null, "layer": null, "access": null, "opening_hours": null, "name": null, "level": null, "check_date": null, "highway": null, "direction": null, "barrier": null, "surveillance:type": null, "surveillance": null, "man_made": null, "wheelchair": null, "entrance": null, "door": null }, "geometry": { "type": "Point", "coordinates": [ 30.438236332695464, 59.933021143235756 ] } },
{ "type": "Feature", "properties": { "full_id": null, "osm_id": null, "osm_type": null, "shop": null, "takeaway": null, "payment:visa_electron": null, "payment:maestro": null, "payment:contactless": null, "healthcare": null, "leisure": null, "contact:instagram": null, "operator": null, "contact:email": null, "access:conditional": null, "surveillance:zone": null, "addr:city": null, "training": null, "contact:website": null, "contact:phone": null, "contact:vk": null, "lit": null, "automatic_door": null, "camera:type": null, "camera:mount": null, "camera:direction": null, "maxheight": null, "description": null, "toilets": null, "phone": null, "name:ru": null, "internet_access": null, "addr:street": null, "addr:housenumber": null, "motor_vehicle": null, "ref": null, "addr:flats": null, "website": null, "self_service": null, "payment:visa": null, "payment:mastercard": null, "payment:debit_cards": null, "payment:credit_cards": null, "payment:cash": null, "automated": null, "emergency": null, "parking": null, "foot": null, "fee": null, "amenity": null, "layer": null, "access": null, "opening_hours": null, "name": null, "level": null, "check_date": null, "highway": null, "direction": null, "barrier": null, "surveillance:type": null, "surveillance": null, "man_made": null, "wheelchair": null, "entrance": null, "door": null }, "geometry": { "type": "Point", "coordinates": [ 30.224892867884574, 59.989091368186713 ] } },
{ "type": "Feature", "properties": { "full_id": null, "osm_id": null, "osm_type": null, "shop": null, "takeaway": null, "payment:visa_electron": null, "payment:maestro": null, "payment:contactless": null, "healthcare": null, "leisure": null, "contact:instagram": null, "operator": null, "contact:email": null, "access:conditional": null, "surveillance:zone": null, "addr:city": null, "training": null, "contact:website": null, "contact:phone": null, "contact:vk": null, "lit": null, "automatic_door": null, "camera:type": null, "camera:mount": null, "camera:direction": null, "maxheight": null, "description": null, "toilets": null, "phone": null, "name:ru": null, "internet_access": null, "addr:street": null, "addr:housenumber": null, "motor_vehicle": null, "ref": null, "addr:flats": null, "website": null, "self_service": null, "payment:visa": null, "payment:mastercard": null, "payment:debit_cards": null, "payment:credit_cards": null, "payment:cash": null, "automated": null, "emergency": null, "parking": null, "foot": null, "fee": null, "amenity": null, "layer": null, "access": null, "opening_hours": null, "name": null, "level": null, "check_date": null, "highway": null, "direction": null, "barrier": null, "surveillance:type": null, "surveillance": null, "man_made": null, "wheelchair": null, "entrance": null, "door": null }, "geometry": { "type": "Point", "coordinates": [ 30.21897668438163, 59.990758473194774 ] } },
{ "type": "Feature", "properties": { "full_id": null, "osm_id": null, "osm_type": null, "shop": null, "takeaway": null, "payment:visa_electron": null, "payment:maestro": null, "payment:contactless": null, "healthcare": null, "leisure": null, "contact:instagram": null, "operator": null, "contact:email": null, "access:conditional": null, "surveillance:zone": null, "addr:city": null, "training": null, "contact:website": null, "contact:phone": null, "contact:vk": null, "lit": null, "automatic_door": null, "camera:type": null, "camera:mount": null, "camera:direction": null, "maxheight": null, "description": null, "toilets": null, "phone": null, "name:ru": null, "internet_access": null, "addr:street": null, "addr:housenumber": null, "motor_vehicle": null, "ref": null, "addr:flats": null, "website": null, "self_service": null, "payment:visa": null, "payment:mastercard": null, "payment:debit_cards": null, "payment:credit_cards": null, "payment:cash": null, "automated": null, "emergency": null, "parking": null, "foot": null, "fee": null, "amenity": null, "layer": null, "access": null, "opening_hours": null, "name": null, "level": null, "check_date": null, "highway": null, "direction": null, "barrier": null, "surveillance:type": null, "surveillance": null, "man_made": null, "wheelchair": null, "entrance": null, "door": null }, "geometry": { "type": "Point", "coordinates": [ 30.219859838580305, 59.999230438153404 ] } },
{ "type": "Feature", "properties": { "full_id": null, "osm_id": null, "osm_type": null, "shop": null, "takeaway": null, "payment:visa_electron": null, "payment:maestro": null, "payment:contactless": null, "healthcare": null, "leisure": null, "contact:instagram": null, "operator": null, "contact:email": null, "access:conditional": null, "surveillance:zone": null, "addr:city": null, "training": null, "contact:website": null, "contact:phone": null, "contact:vk": null, "lit": null, "automatic_door": null, "camera:type": null, "camera:mount": null, "camera:direction": null, "maxheight": null, "description": null, "toilets": null, "phone": null, "name:ru": null, "internet_access": null, "addr:street": null, "addr:housenumber": null, "motor_vehicle": null, "ref": null, "addr:flats": null, "website": null, "self_service": null, "payment:visa": null, "payment:mastercard": null, "payment:debit_cards": null, "payment:credit_cards": null, "payment:cash": null, "automated": null, "emergency": null, "parking": null, "foot": null, "fee": null, "amenity": null, "layer": null, "access": null, "opening_hours": null, "name": null, "level": null, "check_date": null, "highway": null, "direction": null, "barrier": null, "surveillance:type": null, "surveillance": null, "man_made": null, "wheelchair": null, "entrance": null, "door": null }, "geometry": { "type": "Point", "coordinates": [ 30.227917433607999, 60.00296472702157 ] } },
{ "type": "Feature", "properties": { "full_id": null, "osm_id": null, "osm_type": null, "shop": null, "takeaway": null, "payment:visa_electron": null, "payment:maestro": null, "payment:contactless": null, "healthcare": null, "leisure": null, "contact:instagram": null, "operator": null, "contact:email": null, "access:conditional": null, "surveillance:zone": null, "addr:city": null, "training": null, "contact:website": null, "contact:phone": null, "contact:vk": null, "lit": null, "automatic_door": null, "camera:type": null, "camera:mount": null, "camera:direction": null, "maxheight": null, "description": null, "toilets": null, "phone": null, "name:ru": null, "internet_access": null, "addr:street": null, "addr:housenumber": null, "motor_vehicle": null, "ref": null, "addr:flats": null, "website": null, "self_service": null, "payment:visa": null, "payment:mastercard": null, "payment:debit_cards": null, "payment:credit_cards": null, "payment:cash": null, "automated": null, "emergency": null, "parking": null, "foot": null, "fee": null, "amenity": null, "layer": null, "access": null, "opening_hours": null, "name": null, "level": null, "check_date": null, "highway": null, "direction": null, "barrier": null, "surveillance:type": null, "surveillance": null, "man_made": null, "wheelchair": null, "entrance": null, "door": null }, "geometry": { "type": "Point", "coordinates": [ 30.424628161010531, 59.98432944481187 ] } },
{ "type": "Feature", "properties": { "full_id": "n890798709", "osm_id": "890798709", "osm_type": "node", "shop": null, "takeaway": null, "payment:visa_electron": null, "payment:maestro": null, "payment:contactless": null, "healthcare": null, "leisure": null, "contact:instagram": null, "operator": null, "contact:email": null, "access:conditional": null, "surveillance:zone": null, "addr:city": null, "training": null, "contact:website": null, "contact:phone": null, "contact:vk": null, "lit": null, "automatic_door": null, "camera:type": null, "camera:mount": null, "camera:direction": null, "maxheight": null, "description": null, "toilets": null, "phone": null, "name:ru": null, "internet_access": null, "addr:street": null, "addr:housenumber": null, "motor_vehicle": null, "ref": null, "addr:flats": null, "website": null, "self_service": null, "payment:visa": null, "payment:mastercard": null, "payment:debit_cards": null, "payment:credit_cards": null, "payment:cash": null, "automated": null, "emergency": null, "parking": null, "foot": null, "fee": null, "amenity": null, "layer": null, "access": null, "opening_hours": null, "name": null, "level": null, "check_date": null, "highway": "stop", "direction": "forward", "barrier": null, "surveillance:type": null, "surveillance": null, "man_made": null, "wheelchair": null, "entrance": null, "door": null }, "geometry": { "type": "Point", "coordinates": [ 30.4728719, 59.9465435 ] } },
{ "type": "Feature", "properties": { "full_id": null, "osm_id": null, "osm_type": null, "shop": null, "takeaway": null, "payment:visa_electron": null, "payment:maestro": null, "payment:contactless": null, "healthcare": null, "leisure": null, "contact:instagram": null, "operator": null, "contact:email": null, "access:conditional": null, "surveillance:zone": null, "addr:city": null, "training": null, "contact:website": null, "contact:phone": null, "contact:vk": null, "lit": null, "automatic_door": null, "camera:type": null, "camera:mount": null, "camera:direction": null, "maxheight": null, "description": null, "toilets": null, "phone": null, "name:ru": null, "internet_access": null, "addr:street": null, "addr:housenumber": null, "motor_vehicle": null, "ref": null, "addr:flats": null, "website": null, "self_service": null, "payment:visa": null, "payment:mastercard": null, "payment:debit_cards": null, "payment:credit_cards": null, "payment:cash": null, "automated": null, "emergency": null, "parking": null, "foot": null, "fee": null, "amenity": null, "layer": null, "access": null, "opening_hours": null, "name": null, "level": null, "check_date": null, "highway": null, "direction": null, "barrier": null, "surveillance:type": null, "surveillance": null, "man_made": null, "wheelchair": null, "entrance": null, "door": null }, "geometry": { "type": "Point", "coordinates": [ 30.447181830062686, 60.033409672813136 ] } },
{ "type": "Feature", "properties": { "full_id": null, "osm_id": null, "osm_type": null, "shop": null, "takeaway": null, "payment:visa_electron": null, "payment:maestro": null, "payment:contactless": null, "healthcare": null, "leisure": null, "contact:instagram": null, "operator": null, "contact:email": null, "access:conditional": null, "surveillance:zone": null, "addr:city": null, "training": null, "contact:website": null, "contact:phone": null, "contact:vk": null, "lit": null, "automatic_door": null, "camera:type": null, "camera:mount": null, "camera:direction": null, "maxheight": null, "description": null, "toilets": null, "phone": null, "name:ru": null, "internet_access": null, "addr:street": null, "addr:housenumber": null, "motor_vehicle": null, "ref": null, "addr:flats": null, "website": null, "self_service": null, "payment:visa": null, "payment:mastercard": null, "payment:debit_cards": null, "payment:credit_cards": null, "payment:cash": null, "automated": null, "emergency": null, "parking": null, "foot": null, "fee": null, "amenity": null, "layer": null, "access": null, "opening_hours": null, "name": null, "level": null, "check_date": null, "highway": null, "direction": null, "barrier": null, "surveillance:type": null, "surveillance": null, "man_made": null, "wheelchair": null, "entrance": null, "door": null }, "geometry": { "type": "Point", "coordinates": [ 30.489829631205112, 59.955522429329299 ] } },
{ "type": "Feature", "properties": { "full_id": null, "osm_id": null, "osm_type": null, "shop": null, "takeaway": null, "payment:visa_electron": null, "payment:maestro": null, "payment:contactless": null, "healthcare": null, "leisure": null, "contact:instagram": null, "operator": null, "contact:email": null, "access:conditional": null, "surveillance:zone": null, "addr:city": null, "training": null, "contact:website": null, "contact:phone": null, "contact:vk": null, "lit": null, "automatic_door": null, "camera:type": null, "camera:mount": null, "camera:direction": null, "maxheight": null, "description": null, "toilets": null, "phone": null, "name:ru": null, "internet_access": null, "addr:street": null, "addr:housenumber": null, "motor_vehicle": null, "ref": null, "addr:flats": null, "website": null, "self_service": null, "payment:visa": null, "payment:mastercard": null, "payment:debit_cards": null, "payment:credit_cards": null, "payment:cash": null, "automated": null, "emergency": null, "parking": null, "foot": null, "fee": null, "amenity": null, "layer": null, "access": null, "opening_hours": null, "name": null, "level": null, "check_date": null, "highway": null, "direction": null, "barrier": null, "surveillance:type": null, "surveillance": null, "man_made": null, "wheelchair": null, "entrance": null, "door": null }, "geometry": { "type": "Point", "coordinates": [ 30.244127586480456, 60.022030801733607 ] } },
{ "type": "Feature", "properties": { "full_id": null, "osm_id": null, "osm_type": null, "shop": null, "takeaway": null, "payment:visa_electron": null, "payment:maestro": null, "payment:contactless": null, "healthcare": null, "leisure": null, "contact:instagram": null, "operator": null, "contact:email": null, "access:conditional": null, "surveillance:zone": null, "addr:city": null, "training": null, "contact:website": null, "contact:phone": null, "contact:vk": null, "lit": null, "automatic_door": null, "camera:type": null, "camera:mount": null, "camera:direction": null, "maxheight": null, "description": null, "toilets": null, "phone": null, "name:ru": null, "internet_access": null, "addr:street": null, "addr:housenumber": null, "motor_vehicle": null, "ref": null, "addr:flats": null, "website": null, "self_service": null, "payment:visa": null, "payment:mastercard": null, "payment:debit_cards": null, "payment:credit_cards": null, "payment:cash": null, "automated": null, "emergency": null, "parking": null, "foot": null, "fee": null, "amenity": null, "layer": null, "access": null, "opening_hours": null, "name": null, "level": null, "check_date": null, "highway": null, "direction": null, "barrier": null, "surveillance:type": null, "surveillance": null, "man_made": null, "wheelchair": null, "entrance": null, "door": null }, "geometry": { "type": "Point", "coordinates": [ 30.488538136893066, 59.95017791392646 ] } },
{ "type": "Feature", "properties": { "full_id": null, "osm_id": null, "osm_type": null, "shop": null, "takeaway": null, "payment:visa_electron": null, "payment:maestro": null, "payment:contactless": null, "healthcare": null, "leisure": null, "contact:instagram": null, "operator": null, "contact:email": null, "access:conditional": null, "surveillance:zone": null, "addr:city": null, "training": null, "contact:website": null, "contact:phone": null, "contact:vk": null, "lit": null, "automatic_door": null, "camera:type": null, "camera:mount": null, "camera:direction": null, "maxheight": null, "description": null, "toilets": null, "phone": null, "name:ru": null, "internet_access": null, "addr:street": null, "addr:housenumber": null, "motor_vehicle": null, "ref": null, "addr:flats": null, "website": null, "self_service": null, "payment:visa": null, "payment:mastercard": null, "payment:debit_cards": null, "payment:credit_cards": null, "payment:cash": null, "automated": null, "emergency": null, "parking": null, "foot": null, "fee": null, "amenity": null, "layer": null, "access": null, "opening_hours": null, "name": null, "level": null, "check_date": null, "highway": null, "direction": null, "barrier": null, "surveillance:type": null, "surveillance": null, "man_made": null, "wheelchair": null, "entrance": null, "door": null }, "geometry": { "type": "Point", "coordinates": [ 30.218497122155501, 60.030195900571236 ] } },
{ "type": "Feature", "properties": { "full_id": "n1108099587", "osm_id": "1108099587", "osm_type": "node", "shop": null, "takeaway": null, "payment:visa_electron": null, "payment:maestro": null, "payment:contactless": null, "healthcare": null, "leisure": null, "contact:instagram": null, "operator": null, "contact:email": null, "access:conditional": null, "surveillance:zone": null, "addr:city": null, "training": null, "contact:website": null, "contact:phone": null, "contact:vk": null, "lit": null, "automatic_door": null, "camera:type": null, "camera:mount": null, "camera:direction": null, "maxheight": null, "description": null, "toilets": null, "phone": null, "name:ru": null, "internet_access": null, "addr:street": null, "addr:housenumber": null, "motor_vehicle": null, "ref": null, "addr:flats": null, "website": null, "self_service": null, "payment:visa": null, "payment:mastercard": null, "payment:debit_cards": null, "payment:credit_cards": null, "payment:cash": null, "automated": null, "emergency": null, "parking": null, "foot": null, "fee": null, "amenity": null, "layer": null, "access": "yes", "opening_hours": null, "name": null, "level": null, "check_date": null, "highway": null, "direction": null, "barrier": null, "surveillance:type": null, "surveillance": null, "man_made": null, "wheelchair": "yes", "entrance": "main", "door": null }, "geometry": { "type": "Point", "coordinates": [ 30.2603698, 60.0077796 ] } },
{ "type": "Feature", "properties": { "full_id": null, "osm_id": null, "osm_type": null, "shop": null, "takeaway": null, "payment:visa_electron": null, "payment:maestro": null, "payment:contactless": null, "healthcare": null, "leisure": null, "contact:instagram": null, "operator": null, "contact:email": null, "access:conditional": null, "surveillance:zone": null, "addr:city": null, "training": null, "contact:website": null, "contact:phone": null, "contact:vk": null, "lit": null, "automatic_door": null, "camera:type": null, "camera:mount": null, "camera:direction": null, "maxheight": null, "description": null, "toilets": null, "phone": null, "name:ru": null, "internet_access": null, "addr:street": null, "addr:housenumber": null, "motor_vehicle": null, "ref": null, "addr:flats": null, "website": null, "self_service": null, "payment:visa": null, "payment:mastercard": null, "payment:debit_cards": null, "payment:credit_cards": null, "payment:cash": null, "automated": null, "emergency": null, "parking": null, "foot": null, "fee": null, "amenity": null, "layer": null, "access": null, "opening_hours": null, "name": null, "level": null, "check_date": null, "highway": null, "direction": null, "barrier": null, "surveillance:type": null, "surveillance": null, "man_made": null, "wheelchair": null, "entrance": null, "door": null }, "geometry": { "type": "Point", "coordinates": [ 30.2644496293317, 60.010258787179623 ] } },
{ "type": "Feature", "properties": { "full_id": null, "osm_id": null, "osm_type": null, "shop": null, "takeaway": null, "payment:visa_electron": null, "payment:maestro": null, "payment:contactless": null, "healthcare": null, "leisure": null, "contact:instagram": null, "operator": null, "contact:email": null, "access:conditional": null, "surveillance:zone": null, "addr:city": null, "training": null, "contact:website": null, "contact:phone": null, "contact:vk": null, "lit": null, "automatic_door": null, "camera:type": null, "camera:mount": null, "camera:direction": null, "maxheight": null, "description": null, "toilets": null, "phone": null, "name:ru": null, "internet_access": null, "addr:street": null, "addr:housenumber": null, "motor_vehicle": null, "ref": null, "addr:flats": null, "website": null, "self_service": null, "payment:visa": null, "payment:mastercard": null, "payment:debit_cards": null, "payment:credit_cards": null, "payment:cash": null, "automated": null, "emergency": null, "parking": null, "foot": null, "fee": null, "amenity": null, "layer": null, "access": null, "opening_hours": null, "name": null, "level": null, "check_date": null, "highway": null, "direction": null, "barrier": null, "surveillance:type": null, "surveillance": null, "man_made": null, "wheelchair": null, "entrance": null, "door": null }, "geometry": { "type": "Point", "coordinates": [ 30.272003921428979, 60.000412731602381 ] } },
{ "type": "Feature", "properties": { "full_id": null, "osm_id": null, "osm_type": null, "shop": null, "takeaway": null, "payment:visa_electron": null, "payment:maestro": null, "payment:contactless": null, "healthcare": null, "leisure": null, "contact:instagram": null, "operator": null, "contact:email": null, "access:conditional": null, "surveillance:zone": null, "addr:city": null, "training": null, "contact:website": null, "contact:phone": null, "contact:vk": null, "lit": null, "automatic_door": null, "camera:type": null, "camera:mount": null, "camera:direction": null, "maxheight": null, "description": null, "toilets": null, "phone": null, "name:ru": null, "internet_access": null, "addr:street": null, "addr:housenumber": null, "motor_vehicle": null, "ref": null, "addr:flats": null, "website": null, "self_service": null, "payment:visa": null, "payment:mastercard": null, "payment:debit_cards": null, "payment:credit_cards": null, "payment:cash": null, "automated": null, "emergency": null, "parking": null, "foot": null, "fee": null, "amenity": null, "layer": null, "access": null, "opening_hours": null, "name": null, "level": null, "check_date": null, "highway": null, "direction": null, "barrier": null, "surveillance:type": null, "surveillance": null, "man_made": null, "wheelchair": null, "entrance": null, "door": null }, "geometry": { "type": "Point", "coordinates": [ 30.268746696803767, 59.998522941142404 ] } },
{ "type": "Feature", "properties": { "full_id": null, "osm_id": null, "osm_type": null, "shop": null, "takeaway": null, "payment:visa_electron": null, "payment:maestro": null, "payment:contactless": null, "healthcare": null, "leisure": null, "contact:instagram": null, "operator": null, "contact:email": null, "access:conditional": null, "surveillance:zone": null, "addr:city": null, "training": null, "contact:website": null, "contact:phone": null, "contact:vk": null, "lit": null, "automatic_door": null, "camera:type": null, "camera:mount": null, "camera:direction": null, "maxheight": null, "description": null, "toilets": null, "phone": null, "name:ru": null, "internet_access": null, "addr:street": null, "addr:housenumber": null, "motor_vehicle": null, "ref": null, "addr:flats": null, "website": null, "self_service": null, "payment:visa": null, "payment:mastercard": null, "payment:debit_cards": null, "payment:credit_cards": null, "payment:cash": null, "automated": null, "emergency": null, "parking": null, "foot": null, "fee": null, "amenity": null, "layer": null, "access": null, "opening_hours": null, "name": null, "level": null, "check_date": null, "highway": null, "direction": null, "barrier": null, "surveillance:type": null, "surveillance": null, "man_made": null, "wheelchair": null, "entrance": null, "door": null }, "geometry": { "type": "Point", "coordinates": [ 30.469650032579494, 59.951476082765076 ] } },
{ "type": "Feature", "properties": { "full_id": null, "osm_id": null, "osm_type": null, "shop": null, "takeaway": null, "payment:visa_electron": null, "payment:maestro": null, "payment:contactless": null, "healthcare": null, "leisure": null, "contact:instagram": null, "operator": null, "contact:email": null, "access:conditional": null, "surveillance:zone": null, "addr:city": null, "training": null, "contact:website": null, "contact:phone": null, "contact:vk": null, "lit": null, "automatic_door": null, "camera:type": null, "camera:mount": null, "camera:direction": null, "maxheight": null, "description": null, "toilets": null, "phone": null, "name:ru": null, "internet_access": null, "addr:street": null, "addr:housenumber": null, "motor_vehicle": null, "ref": null, "addr:flats": null, "website": null, "self_service": null, "payment:visa": null, "payment:mastercard": null, "payment:debit_cards": null, "payment:credit_cards": null, "payment:cash": null, "automated": null, "emergency": null, "parking": null, "foot": null, "fee": null, "amenity": null, "layer": null, "access": null, "opening_hours": null, "name": null, "level": null, "check_date": null, "highway": null, "direction": null, "barrier": null, "surveillance:type": null, "surveillance": null, "man_made": null, "wheelchair": null, "entrance": null, "door": null }, "geometry": { "type": "Point", "coordinates": [ 30.233966565054835, 59.994835639667905 ] } },
{ "type": "Feature", "properties": { "full_id": "n1422865348", "osm_id": "1422865348", "osm_type": "node", "shop": null, "takeaway": null, "payment:visa_electron": null, "payment:maestro": null, "payment:contactless": null, "healthcare": null, "leisure": null, "contact:instagram": null, "operator": null, "contact:email": null, "access:conditional": null, "surveillance:zone": null, "addr:city": null, "training": null, "contact:website": null, "contact:phone": null, "contact:vk": null, "lit": null, "automatic_door": null, "camera:type": null, "camera:mount": null, "camera:direction": null, "maxheight": null, "description": null, "toilets": null, "phone": null, "name:ru": null, "internet_access": null, "addr:street": null, "addr:housenumber": null, "motor_vehicle": null, "ref": null, "addr:flats": null, "website": null, "self_service": null, "payment:visa": null, "payment:mastercard": null, "payment:debit_cards": null, "payment:credit_cards": null, "payment:cash": null, "automated": null, "emergency": null, "parking": null, "foot": null, "fee": null, "amenity": null, "layer": null, "access": "yes", "opening_hours": null, "name": null, "level": null, "check_date": null, "highway": null, "direction": null, "barrier": null, "surveillance:type": null, "surveillance": null, "man_made": null, "wheelchair": null, "entrance": "main", "door": null }, "geometry": { "type": "Point", "coordinates": [ 30.2674545, 60.0010598 ] } },
{ "type": "Feature", "properties": { "full_id": null, "osm_id": null, "osm_type": null, "shop": null, "takeaway": null, "payment:visa_electron": null, "payment:maestro": null, "payment:contactless": null, "healthcare": null, "leisure": null, "contact:instagram": null, "operator": null, "contact:email": null, "access:conditional": null, "surveillance:zone": null, "addr:city": null, "training": null, "contact:website": null, "contact:phone": null, "contact:vk": null, "lit": null, "automatic_door": null, "camera:type": null, "camera:mount": null, "camera:direction": null, "maxheight": null, "description": null, "toilets": null, "phone": null, "name:ru": null, "internet_access": null, "addr:street": null, "addr:housenumber": null, "motor_vehicle": null, "ref": null, "addr:flats": null, "website": null, "self_service": null, "payment:visa": null, "payment:mastercard": null, "payment:debit_cards": null, "payment:credit_cards": null, "payment:cash": null, "automated": null, "emergency": null, "parking": null, "foot": null, "fee": null, "amenity": null, "layer": null, "access": null, "opening_hours": null, "name": null, "level": null, "check_date": null, "highway": null, "direction": null, "barrier": null, "surveillance:type": null, "surveillance": null, "man_made": null, "wheelchair": null, "entrance": null, "door": null }, "geometry": { "type": "Point", "coordinates": [ 30.268585260014763, 59.997397562372718 ] } },
{ "type": "Feature", "properties": { "full_id": null, "osm_id": null, "osm_type": null, "shop": null, "takeaway": null, "payment:visa_electron": null, "payment:maestro": null, "payment:contactless": null, "healthcare": null, "leisure": null, "contact:instagram": null, "operator": null, "contact:email": null, "access:conditional": null, "surveillance:zone": null, "addr:city": null, "training": null, "contact:website": null, "contact:phone": null, "contact:vk": null, "lit": null, "automatic_door": null, "camera:type": null, "camera:mount": null, "camera:direction": null, "maxheight": null, "description": null, "toilets": null, "phone": null, "name:ru": null, "internet_access": null, "addr:street": null, "addr:housenumber": null, "motor_vehicle": null, "ref": null, "addr:flats": null, "website": null, "self_service": null, "payment:visa": null, "payment:mastercard": null, "payment:debit_cards": null, "payment:credit_cards": null, "payment:cash": null, "automated": null, "emergency": null, "parking": null, "foot": null, "fee": null, "amenity": null, "layer": null, "access": null, "opening_hours": null, "name": null, "level": null, "check_date": null, "highway": null, "direction": null, "barrier": null, "surveillance:type": null, "surveillance": null, "man_made": null, "wheelchair": null, "entrance": null, "door": null }, "geometry": { "type": "Point", "coordinates": [ 30.290930010869406, 60.010695477776785 ] } },
{ "type": "Feature", "properties": { "full_id": "n1576156180", "osm_id": "1576156180", "osm_type": "node", "shop": null, "takeaway": null, "payment:visa_electron": null, "payment:maestro": null, "payment:contactless": null, "healthcare": null, "leisure": null, "contact:instagram": null, "operator": null, "contact:email": null, "access:conditional": null, "surveillance:zone": null, "addr:city": null, "training": null, "contact:website": null, "contact:phone": null, "contact:vk": null, "lit": null, "automatic_door": null, "camera:type": null, "camera:mount": null, "camera:direction": null, "maxheight": null, "description": null, "toilets": null, "phone": null, "name:ru": null, "internet_access": null, "addr:street": null, "addr:housenumber": null, "motor_vehicle": null, "ref": null, "addr:flats": null, "website": null, "self_service": null, "payment:visa": null, "payment:mastercard": null, "payment:debit_cards": null, "payment:credit_cards": null, "payment:cash": null, "automated": null, "emergency": null, "parking": null, "foot": null, "fee": null, "amenity": null, "layer": null, "access": null, "opening_hours": null, "name": null, "level": null, "check_date": null, "highway": null, "direction": null, "barrier": null, "surveillance:type": null, "surveillance": null, "man_made": null, "wheelchair": null, "entrance": "yes", "door": null }, "geometry": { "type": "Point", "coordinates": [ 30.3003174, 60.0047035 ] } },
{ "type": "Feature", "properties": { "full_id": null, "osm_id": null, "osm_type": null, "shop": null, "takeaway": null, "payment:visa_electron": null, "payment:maestro": null, "payment:contactless": null, "healthcare": null, "leisure": null, "contact:instagram": null, "operator": null, "contact:email": null, "access:conditional": null, "surveillance:zone": null, "addr:city": null, "training": null, "contact:website": null, "contact:phone": null, "contact:vk": null, "lit": null, "automatic_door": null, "camera:type": null, "camera:mount": null, "camera:direction": null, "maxheight": null, "description": null, "toilets": null, "phone": null, "name:ru": null, "internet_access": null, "addr:street": null, "addr:housenumber": null, "motor_vehicle": null, "ref": null, "addr:flats": null, "website": null, "self_service": null, "payment:visa": null, "payment:mastercard": null, "payment:debit_cards": null, "payment:credit_cards": null, "payment:cash": null, "automated": null, "emergency": null, "parking": null, "foot": null, "fee": null, "amenity": null, "layer": null, "access": null, "opening_hours": null, "name": null, "level": null, "check_date": null, "highway": null, "direction": null, "barrier": null, "surveillance:type": null, "surveillance": null, "man_made": null, "wheelchair": null, "entrance": null, "door": null }, "geometry": { "type": "Point", "coordinates": [ 30.303230069749382, 60.026178838669807 ] } },
{ "type": "Feature", "properties": { "full_id": "n1774682554", "osm_id": "1774682554", "osm_type": "node", "shop": null, "takeaway": null, "payment:visa_electron": null, "payment:maestro": null, "payment:contactless": null, "healthcare": null, "leisure": null, "contact:instagram": null, "operator": null, "contact:email": null, "access:conditional": null, "surveillance:zone": null, "addr:city": null, "training": null, "contact:website": null, "contact:phone": null, "contact:vk": null, "lit": null, "automatic_door": null, "camera:type": null, "camera:mount": null, "camera:direction": null, "maxheight": null, "description": null, "toilets": null, "phone": null, "name:ru": null, "internet_access": null, "addr:street": null, "addr:housenumber": null, "motor_vehicle": null, "ref": null, "addr:flats": null, "website": "http://bkfservice.ru/", "self_service": "yes", "payment:visa": "no", "payment:mastercard": "no", "payment:debit_cards": "no", "payment:credit_cards": "no", "payment:cash": "yes", "automated": "yes", "emergency": null, "parking": null, "foot": null, "fee": null, "amenity": "car_wash", "layer": null, "access": null, "opening_hours": "24/7", "name": "H2O Express", "level": null, "check_date": null, "highway": null, "direction": null, "barrier": null, "surveillance:type": null, "surveillance": null, "man_made": null, "wheelchair": null, "entrance": null, "door": null }, "geometry": { "type": "Point", "coordinates": [ 30.2614793, 60.0983438 ] } },
{ "type": "Feature", "properties": { "full_id": "n2397179129", "osm_id": "2397179129", "osm_type": "node", "shop": "mall", "takeaway": null, "payment:visa_electron": null, "payment:maestro": null, "payment:contactless": null, "healthcare": null, "leisure": null, "contact:instagram": null, "operator": null, "contact:email": null, "access:conditional": null, "surveillance:zone": null, "addr:city": null, "training": null, "contact:website": null, "contact:phone": null, "contact:vk": null, "lit": null, "automatic_door": null, "camera:type": null, "camera:mount": null, "camera:direction": null, "maxheight": null, "description": null, "toilets": "yes", "phone": "+7 812 3032686", "name:ru": "ТЦ \"Купеческий двор\"", "internet_access": "no", "addr:street": "Коломяжский проспект", "addr:housenumber": "15 к2", "motor_vehicle": null, "ref": null, "addr:flats": null, "website": "https://www.kupdvorspb.ru/", "self_service": null, "payment:visa": null, "payment:mastercard": null, "payment:debit_cards": null, "payment:credit_cards": null, "payment:cash": null, "automated": null, "emergency": null, "parking": null, "foot": null, "fee": null, "amenity": null, "layer": null, "access": null, "opening_hours": "Mo-Su 11:00-21:00", "name": "ТЦ \"Купеческий двор\"", "level": null, "check_date": "2025-12-08", "highway": null, "direction": null, "barrier": null, "surveillance:type": null, "surveillance": null, "man_made": null, "wheelchair": null, "entrance": null, "door": null }, "geometry": { "type": "Point", "coordinates": [ 30.29905, 60.0023883 ] } },
{ "type": "Feature", "properties": { "full_id": null, "osm_id": null, "osm_type": null, "shop": null, "takeaway": null, "payment:visa_electron": null, "payment:maestro": null, "payment:contactless": null, "healthcare": null, "leisure": null, "contact:instagram": null, "operator": null, "contact:email": null, "access:conditional": null, "surveillance:zone": null, "addr:city": null, "training": null, "contact:website": null, "contact:phone": null, "contact:vk": null, "lit": null, "automatic_door": null, "camera:type": null, "camera:mount": null, "camera:direction": null, "maxheight": null, "description": null, "toilets": null, "phone": null, "name:ru": null, "internet_access": null, "addr:street": null, "addr:housenumber": null, "motor_vehicle": null, "ref": null, "addr:flats": null, "website": null, "self_service": null, "payment:visa": null, "payment:mastercard": null, "payment:debit_cards": null, "payment:credit_cards": null, "payment:cash": null, "automated": null, "emergency": null, "parking": null, "foot": null, "fee": null, "amenity": null, "layer": null, "access": null, "opening_hours": null, "name": null, "level": null, "check_date": null, "highway": null, "direction": null, "barrier": null, "surveillance:type": null, "surveillance": null, "man_made": null, "wheelchair": null, "entrance": null, "door": null }, "geometry": { "type": "Point", "coordinates": [ 30.267882535168525, 60.013429409560551 ] } },
{ "type": "Feature", "properties": { "full_id": "n2780140092", "osm_id": "2780140092", "osm_type": "node", "shop": null, "takeaway": null, "payment:visa_electron": null, "payment:maestro": null, "payment:contactless": null, "healthcare": null, "leisure": null, "contact:instagram": null, "operator": null, "contact:email": null, "access:conditional": null, "surveillance:zone": null, "addr:city": null, "training": null, "contact:website": null, "contact:phone": null, "contact:vk": null, "lit": null, "automatic_door": null, "camera:type": null, "camera:mount": null, "camera:direction": null, "maxheight": null, "description": null, "toilets": null, "phone": null, "name:ru": null, "internet_access": null, "addr:street": null, "addr:housenumber": null, "motor_vehicle": null, "ref": null, "addr:flats": null, "website": null, "self_service": null, "payment:visa": null, "payment:mastercard": null, "payment:debit_cards": null, "payment:credit_cards": null, "payment:cash": null, "automated": null, "emergency": null, "parking": null, "foot": null, "fee": null, "amenity": null, "layer": null, "access": null, "opening_hours": null, "name": null, "level": null, "check_date": null, "highway": null, "direction": null, "barrier": null, "surveillance:type": null, "surveillance": null, "man_made": null, "wheelchair": null, "entrance": "yes", "door": null }, "geometry": { "type": "Point", "coordinates": [ 30.2642249, 60.003646 ] } },
{ "type": "Feature", "properties": { "full_id": "n3200275135", "osm_id": "3200275135", "osm_type": "node", "shop": null, "takeaway": null, "payment:visa_electron": null, "payment:maestro": null, "payment:contactless": null, "healthcare": null, "leisure": null, "contact:instagram": null, "operator": null, "contact:email": null, "access:conditional": null, "surveillance:zone": null, "addr:city": null, "training": null, "contact:website": null, "contact:phone": null, "contact:vk": null, "lit": null, "automatic_door": null, "camera:type": null, "camera:mount": null, "camera:direction": null, "maxheight": null, "description": null, "toilets": null, "phone": null, "name:ru": null, "internet_access": null, "addr:street": null, "addr:housenumber": null, "motor_vehicle": null, "ref": null, "addr:flats": null, "website": null, "self_service": null, "payment:visa": null, "payment:mastercard": null, "payment:debit_cards": null, "payment:credit_cards": null, "payment:cash": null, "automated": null, "emergency": null, "parking": null, "foot": null, "fee": null, "amenity": null, "layer": null, "access": null, "opening_hours": null, "name": null, "level": null, "check_date": null, "highway": null, "direction": null, "barrier": null, "surveillance:type": null, "surveillance": null, "man_made": null, "wheelchair": null, "entrance": "main", "door": null }, "geometry": { "type": "Point", "coordinates": [ 30.2471179, 60.0169979 ] } },
{ "type": "Feature", "properties": { "full_id": "n3761660476", "osm_id": "3761660476", "osm_type": "node", "shop": null, "takeaway": null, "payment:visa_electron": null, "payment:maestro": null, "payment:contactless": null, "healthcare": null, "leisure": null, "contact:instagram": null, "operator": null, "contact:email": null, "access:conditional": null, "surveillance:zone": null, "addr:city": null, "training": null, "contact:website": null, "contact:phone": null, "contact:vk": null, "lit": null, "automatic_door": null, "camera:type": null, "camera:mount": null, "camera:direction": null, "maxheight": null, "description": null, "toilets": null, "phone": null, "name:ru": null, "internet_access": null, "addr:street": null, "addr:housenumber": null, "motor_vehicle": null, "ref": null, "addr:flats": null, "website": null, "self_service": null, "payment:visa": null, "payment:mastercard": null, "payment:debit_cards": null, "payment:credit_cards": null, "payment:cash": null, "automated": null, "emergency": null, "parking": null, "foot": null, "fee": null, "amenity": null, "layer": null, "access": null, "opening_hours": null, "name": null, "level": null, "check_date": null, "highway": null, "direction": null, "barrier": null, "surveillance:type": null, "surveillance": null, "man_made": null, "wheelchair": null, "entrance": "yes", "door": null }, "geometry": { "type": "Point", "coordinates": [ 30.4398846, 59.9335218 ] } },
{ "type": "Feature", "properties": { "full_id": "n3790643936", "osm_id": "3790643936", "osm_type": "node", "shop": null, "takeaway": null, "payment:visa_electron": null, "payment:maestro": null, "payment:contactless": null, "healthcare": null, "leisure": null, "contact:instagram": null, "operator": null, "contact:email": null, "access:conditional": null, "surveillance:zone": null, "addr:city": null, "training": null, "contact:website": null, "contact:phone": null, "contact:vk": null, "lit": null, "automatic_door": null, "camera:type": null, "camera:mount": null, "camera:direction": null, "maxheight": null, "description": null, "toilets": null, "phone": null, "name:ru": null, "internet_access": null, "addr:street": null, "addr:housenumber": null, "motor_vehicle": null, "ref": null, "addr:flats": null, "website": null, "self_service": null, "payment:visa": null, "payment:mastercard": null, "payment:debit_cards": null, "payment:credit_cards": null, "payment:cash": null, "automated": null, "emergency": null, "parking": null, "foot": null, "fee": null, "amenity": null, "layer": null, "access": null, "opening_hours": null, "name": null, "level": null, "check_date": null, "highway": null, "direction": null, "barrier": null, "surveillance:type": null, "surveillance": null, "man_made": null, "wheelchair": null, "entrance": "main", "door": null }, "geometry": { "type": "Point", "coordinates": [ 30.2721306, 60.002485 ] } },
{ "type": "Feature", "properties": { "full_id": "n3799507100", "osm_id": "3799507100", "osm_type": "node", "shop": null, "takeaway": null, "payment:visa_electron": null, "payment:maestro": null, "payment:contactless": null, "healthcare": null, "leisure": null, "contact:instagram": null, "operator": null, "contact:email": null, "access:conditional": null, "surveillance:zone": null, "addr:city": null, "training": null, "contact:website": null, "contact:phone": null, "contact:vk": null, "lit": null, "automatic_door": null, "camera:type": null, "camera:mount": null, "camera:direction": null, "maxheight": null, "description": null, "toilets": null, "phone": null, "name:ru": null, "internet_access": null, "addr:street": null, "addr:housenumber": null, "motor_vehicle": null, "ref": null, "addr:flats": null, "website": null, "self_service": null, "payment:visa": null, "payment:mastercard": null, "payment:debit_cards": null, "payment:credit_cards": null, "payment:cash": null, "automated": null, "emergency": null, "parking": null, "foot": null, "fee": null, "amenity": "parking_entrance", "layer": null, "access": null, "opening_hours": null, "name": null, "level": null, "check_date": null, "highway": null, "direction": null, "barrier": null, "surveillance:type": null, "surveillance": null, "man_made": null, "wheelchair": null, "entrance": null, "door": null }, "geometry": { "type": "Point", "coordinates": [ 30.2638591, 60.0077906 ] } },
{ "type": "Feature", "properties": { "full_id": "n3916429789", "osm_id": "3916429789", "osm_type": "node", "shop": null, "takeaway": null, "payment:visa_electron": null, "payment:maestro": null, "payment:contactless": null, "healthcare": null, "leisure": null, "contact:instagram": null, "operator": null, "contact:email": null, "access:conditional": null, "surveillance:zone": null, "addr:city": null, "training": null, "contact:website": null, "contact:phone": null, "contact:vk": null, "lit": null, "automatic_door": null, "camera:type": null, "camera:mount": null, "camera:direction": null, "maxheight": null, "description": null, "toilets": null, "phone": null, "name:ru": null, "internet_access": null, "addr:street": null, "addr:housenumber": null, "motor_vehicle": null, "ref": null, "addr:flats": null, "website": null, "self_service": null, "payment:visa": null, "payment:mastercard": null, "payment:debit_cards": null, "payment:credit_cards": null, "payment:cash": null, "automated": null, "emergency": null, "parking": null, "foot": null, "fee": null, "amenity": null, "layer": null, "access": null, "opening_hours": null, "name": null, "level": null, "check_date": null, "highway": null, "direction": null, "barrier": null, "surveillance:type": null, "surveillance": null, "man_made": null, "wheelchair": null, "entrance": "main", "door": null }, "geometry": { "type": "Point", "coordinates": [ 30.2466325, 60.011143 ] } },
{ "type": "Feature", "properties": { "full_id": null, "osm_id": null, "osm_type": null, "shop": null, "takeaway": null, "payment:visa_electron": null, "payment:maestro": null, "payment:contactless": null, "healthcare": null, "leisure": null, "contact:instagram": null, "operator": null, "contact:email": null, "access:conditional": null, "surveillance:zone": null, "addr:city": null, "training": null, "contact:website": null, "contact:phone": null, "contact:vk": null, "lit": null, "automatic_door": null, "camera:type": null, "camera:mount": null, "camera:direction": null, "maxheight": null, "description": null, "toilets": null, "phone": null, "name:ru": null, "internet_access": null, "addr:street": null, "addr:housenumber": null, "motor_vehicle": null, "ref": null, "addr:flats": null, "website": null, "self_service": null, "payment:visa": null, "payment:mastercard": null, "payment:debit_cards": null, "payment:credit_cards": null, "payment:cash": null, "automated": null, "emergency": null, "parking": null, "foot": null, "fee": null, "amenity": null, "layer": null, "access": null, "opening_hours": null, "name": null, "level": null, "check_date": null, "highway": null, "direction": null, "barrier": null, "surveillance:type": null, "surveillance": null, "man_made": null, "wheelchair": null, "entrance": null, "door": null }, "geometry": { "type": "Point", "coordinates": [ 30.243595794704913, 60.011860748913591 ] } },
{ "type": "Feature", "properties": { "full_id": "n3947937903", "osm_id": "3947937903", "osm_type": "node", "shop": "mall", "takeaway": null, "payment:visa_electron": null, "payment:maestro": null, "payment:contactless": null, "healthcare": null, "leisure": null, "contact:instagram": null, "operator": null, "contact:email": null, "access:conditional": null, "surveillance:zone": null, "addr:city": null, "training": null, "contact:website": null, "contact:phone": null, "contact:vk": "https://vk.com/tksabina", "lit": null, "automatic_door": null, "camera:type": null, "camera:mount": null, "camera:direction": null, "maxheight": null, "description": null, "toilets": null, "phone": null, "name:ru": null, "internet_access": null, "addr:street": null, "addr:housenumber": null, "motor_vehicle": null, "ref": null, "addr:flats": null, "website": null, "self_service": null, "payment:visa": null, "payment:mastercard": null, "payment:debit_cards": null, "payment:credit_cards": null, "payment:cash": null, "automated": null, "emergency": null, "parking": null, "foot": null, "fee": null, "amenity": null, "layer": null, "access": null, "opening_hours": "Mo-Su 11:00-20:00", "name": "Сабина", "level": null, "check_date": null, "highway": null, "direction": null, "barrier": null, "surveillance:type": null, "surveillance": null, "man_made": null, "wheelchair": null, "entrance": null, "door": null }, "geometry": { "type": "Point", "coordinates": [ 30.2467134, 60.0074335 ] } },
{ "type": "Feature", "properties": { "full_id": "n4015114686", "osm_id": "4015114686", "osm_type": "node", "shop": null, "takeaway": null, "payment:visa_electron": null, "payment:maestro": null, "payment:contactless": null, "healthcare": null, "leisure": null, "contact:instagram": null, "operator": null, "contact:email": null, "access:conditional": null, "surveillance:zone": null, "addr:city": null, "training": null, "contact:website": null, "contact:phone": null, "contact:vk": null, "lit": null, "automatic_door": null, "camera:type": null, "camera:mount": null, "camera:direction": null, "maxheight": null, "description": null, "toilets": null, "phone": null, "name:ru": null, "internet_access": null, "addr:street": null, "addr:housenumber": null, "motor_vehicle": null, "ref": null, "addr:flats": null, "website": null, "self_service": null, "payment:visa": null, "payment:mastercard": null, "payment:debit_cards": null, "payment:credit_cards": null, "payment:cash": null, "automated": null, "emergency": null, "parking": null, "foot": null, "fee": null, "amenity": null, "layer": null, "access": null, "opening_hours": null, "name": null, "level": null, "check_date": null, "highway": null, "direction": null, "barrier": null, "surveillance:type": null, "surveillance": null, "man_made": null, "wheelchair": null, "entrance": "yes", "door": null }, "geometry": { "type": "Point", "coordinates": [ 30.2668248, 59.9987008 ] } },
{ "type": "Feature", "properties": { "full_id": "n4052464829", "osm_id": "4052464829", "osm_type": "node", "shop": null, "takeaway": null, "payment:visa_electron": null, "payment:maestro": null, "payment:contactless": null, "healthcare": null, "leisure": null, "contact:instagram": null, "operator": null, "contact:email": null, "access:conditional": null, "surveillance:zone": null, "addr:city": null, "training": null, "contact:website": null, "contact:phone": null, "contact:vk": null, "lit": null, "automatic_door": null, "camera:type": null, "camera:mount": null, "camera:direction": null, "maxheight": null, "description": null, "toilets": null, "phone": null, "name:ru": null, "internet_access": null, "addr:street": null, "addr:housenumber": null, "motor_vehicle": null, "ref": null, "addr:flats": null, "website": null, "self_service": null, "payment:visa": null, "payment:mastercard": null, "payment:debit_cards": null, "payment:credit_cards": null, "payment:cash": null, "automated": null, "emergency": null, "parking": null, "foot": null, "fee": null, "amenity": null, "layer": null, "access": null, "opening_hours": null, "name": null, "level": null, "check_date": null, "highway": null, "direction": null, "barrier": null, "surveillance:type": null, "surveillance": null, "man_made": null, "wheelchair": null, "entrance": "main", "door": null }, "geometry": { "type": "Point", "coordinates": [ 30.2238415, 60.0218529 ] } },
{ "type": "Feature", "properties": { "full_id": "n4541894930", "osm_id": "4541894930", "osm_type": "node", "shop": "mall", "takeaway": null, "payment:visa_electron": null, "payment:maestro": null, "payment:contactless": null, "healthcare": null, "leisure": null, "contact:instagram": null, "operator": null, "contact:email": null, "access:conditional": null, "surveillance:zone": null, "addr:city": "Санкт-Петербург", "training": null, "contact:website": null, "contact:phone": null, "contact:vk": null, "lit": null, "automatic_door": null, "camera:type": null, "camera:mount": null, "camera:direction": null, "maxheight": null, "description": null, "toilets": null, "phone": null, "name:ru": null, "internet_access": null, "addr:street": "Индустриальный проспект", "addr:housenumber": "19", "motor_vehicle": null, "ref": null, "addr:flats": null, "website": "http://tkostrov.spb.ru/", "self_service": null, "payment:visa": null, "payment:mastercard": null, "payment:debit_cards": null, "payment:credit_cards": null, "payment:cash": null, "automated": null, "emergency": null, "parking": null, "foot": null, "fee": null, "amenity": null, "layer": null, "access": null, "opening_hours": "10:00-22:00", "name": "Остров", "level": null, "check_date": "2022-05-02", "highway": null, "direction": null, "barrier": null, "surveillance:type": null, "surveillance": null, "man_made": null, "wheelchair": null, "entrance": null, "door": null }, "geometry": { "type": "Point", "coordinates": [ 30.4796082, 59.9442893 ] } },
{ "type": "Feature", "properties": { "full_id": "n4837817695", "osm_id": "4837817695", "osm_type": "node", "shop": null, "takeaway": null, "payment:visa_electron": null, "payment:maestro": null, "payment:contactless": null, "healthcare": null, "leisure": null, "contact:instagram": null, "operator": null, "contact:email": null, "access:conditional": null, "surveillance:zone": null, "addr:city": null, "training": null, "contact:website": null, "contact:phone": null, "contact:vk": null, "lit": null, "automatic_door": null, "camera:type": null, "camera:mount": null, "camera:direction": null, "maxheight": null, "description": null, "toilets": null, "phone": null, "name:ru": null, "internet_access": null, "addr:street": null, "addr:housenumber": null, "motor_vehicle": null, "ref": null, "addr:flats": null, "website": null, "self_service": null, "payment:visa": null, "payment:mastercard": null, "payment:debit_cards": null, "payment:credit_cards": null, "payment:cash": null, "automated": null, "emergency": null, "parking": null, "foot": null, "fee": null, "amenity": null, "layer": null, "access": null, "opening_hours": null, "name": null, "level": null, "check_date": null, "highway": null, "direction": null, "barrier": null, "surveillance:type": null, "surveillance": null, "man_made": null, "wheelchair": null, "entrance": "yes", "door": null }, "geometry": { "type": "Point", "coordinates": [ 30.321909, 60.0367539 ] } },
{ "type": "Feature", "properties": { "full_id": "n4837821937", "osm_id": "4837821937", "osm_type": "node", "shop": null, "takeaway": null, "payment:visa_electron": null, "payment:maestro": null, "payment:contactless": null, "healthcare": null, "leisure": null, "contact:instagram": null, "operator": null, "contact:email": null, "access:conditional": null, "surveillance:zone": null, "addr:city": null, "training": null, "contact:website": null, "contact:phone": null, "contact:vk": null, "lit": null, "automatic_door": null, "camera:type": null, "camera:mount": null, "camera:direction": null, "maxheight": null, "description": null, "toilets": null, "phone": null, "name:ru": null, "internet_access": null, "addr:street": null, "addr:housenumber": null, "motor_vehicle": null, "ref": null, "addr:flats": null, "website": null, "self_service": null, "payment:visa": null, "payment:mastercard": null, "payment:debit_cards": null, "payment:credit_cards": null, "payment:cash": null, "automated": null, "emergency": null, "parking": null, "foot": null, "fee": null, "amenity": null, "layer": null, "access": null, "opening_hours": null, "name": null, "level": null, "check_date": null, "highway": null, "direction": null, "barrier": null, "surveillance:type": null, "surveillance": null, "man_made": null, "wheelchair": null, "entrance": "yes", "door": null }, "geometry": { "type": "Point", "coordinates": [ 30.3214522, 60.0363293 ] } },
{ "type": "Feature", "properties": { "full_id": "n5067224627", "osm_id": "5067224627", "osm_type": "node", "shop": null, "takeaway": null, "payment:visa_electron": null, "payment:maestro": null, "payment:contactless": null, "healthcare": null, "leisure": null, "contact:instagram": null, "operator": null, "contact:email": null, "access:conditional": null, "surveillance:zone": null, "addr:city": null, "training": null, "contact:website": null, "contact:phone": null, "contact:vk": null, "lit": null, "automatic_door": null, "camera:type": null, "camera:mount": null, "camera:direction": null, "maxheight": null, "description": null, "toilets": null, "phone": null, "name:ru": null, "internet_access": null, "addr:street": null, "addr:housenumber": null, "motor_vehicle": null, "ref": null, "addr:flats": null, "website": null, "self_service": null, "payment:visa": null, "payment:mastercard": null, "payment:debit_cards": null, "payment:credit_cards": null, "payment:cash": null, "automated": null, "emergency": null, "parking": null, "foot": null, "fee": null, "amenity": null, "layer": null, "access": null, "opening_hours": null, "name": null, "level": null, "check_date": null, "highway": null, "direction": null, "barrier": null, "surveillance:type": null, "surveillance": null, "man_made": null, "wheelchair": null, "entrance": "yes", "door": null }, "geometry": { "type": "Point", "coordinates": [ 30.2980414, 60.0080909 ] } },
{ "type": "Feature", "properties": { "full_id": "n5901137492", "osm_id": "5901137492", "osm_type": "node", "shop": null, "takeaway": null, "payment:visa_electron": null, "payment:maestro": null, "payment:contactless": null, "healthcare": null, "leisure": null, "contact:instagram": null, "operator": null, "contact:email": null, "access:conditional": null, "surveillance:zone": null, "addr:city": null, "training": null, "contact:website": null, "contact:phone": null, "contact:vk": null, "lit": null, "automatic_door": null, "camera:type": null, "camera:mount": null, "camera:direction": null, "maxheight": null, "description": null, "toilets": null, "phone": null, "name:ru": null, "internet_access": null, "addr:street": null, "addr:housenumber": null, "motor_vehicle": null, "ref": null, "addr:flats": null, "website": null, "self_service": null, "payment:visa": null, "payment:mastercard": null, "payment:debit_cards": null, "payment:credit_cards": null, "payment:cash": null, "automated": null, "emergency": null, "parking": null, "foot": null, "fee": null, "amenity": null, "layer": null, "access": null, "opening_hours": null, "name": null, "level": null, "check_date": null, "highway": null, "direction": null, "barrier": null, "surveillance:type": null, "surveillance": null, "man_made": null, "wheelchair": null, "entrance": "main", "door": null }, "geometry": { "type": "Point", "coordinates": [ 30.3111312, 60.0162322 ] } },
{ "type": "Feature", "properties": { "full_id": "n6374707995", "osm_id": "6374707995", "osm_type": "node", "shop": "mall", "takeaway": null, "payment:visa_electron": null, "payment:maestro": null, "payment:contactless": null, "healthcare": null, "leisure": null, "contact:instagram": null, "operator": null, "contact:email": null, "access:conditional": null, "surveillance:zone": null, "addr:city": null, "training": null, "contact:website": null, "contact:phone": null, "contact:vk": null, "lit": null, "automatic_door": null, "camera:type": null, "camera:mount": null, "camera:direction": null, "maxheight": null, "description": null, "toilets": null, "phone": null, "name:ru": null, "internet_access": null, "addr:street": null, "addr:housenumber": null, "motor_vehicle": null, "ref": null, "addr:flats": null, "website": "https://dalportcityspb.ru/", "self_service": null, "payment:visa": null, "payment:mastercard": null, "payment:debit_cards": null, "payment:credit_cards": null, "payment:cash": null, "automated": null, "emergency": null, "parking": null, "foot": null, "fee": null, "amenity": null, "layer": null, "access": null, "opening_hours": "Mo-Su 09:00-21:00", "name": "ДаЛпортСити", "level": null, "check_date": null, "highway": null, "direction": null, "barrier": null, "surveillance:type": null, "surveillance": null, "man_made": null, "wheelchair": null, "entrance": null, "door": null }, "geometry": { "type": "Point", "coordinates": [ 30.2416127, 60.0038071 ] } },
{ "type": "Feature", "properties": { "full_id": "n7295387911", "osm_id": "7295387911", "osm_type": "node", "shop": null, "takeaway": null, "payment:visa_electron": null, "payment:maestro": null, "payment:contactless": null, "healthcare": null, "leisure": null, "contact:instagram": null, "operator": null, "contact:email": null, "access:conditional": null, "surveillance:zone": null, "addr:city": null, "training": null, "contact:website": null, "contact:phone": null, "contact:vk": null, "lit": null, "automatic_door": null, "camera:type": null, "camera:mount": null, "camera:direction": null, "maxheight": null, "description": null, "toilets": null, "phone": null, "name:ru": null, "internet_access": null, "addr:street": null, "addr:housenumber": null, "motor_vehicle": null, "ref": null, "addr:flats": null, "website": null, "self_service": null, "payment:visa": null, "payment:mastercard": null, "payment:debit_cards": null, "payment:credit_cards": null, "payment:cash": null, "automated": null, "emergency": null, "parking": null, "foot": null, "fee": null, "amenity": null, "layer": null, "access": null, "opening_hours": null, "name": null, "level": null, "check_date": null, "highway": null, "direction": null, "barrier": null, "surveillance:type": null, "surveillance": null, "man_made": null, "wheelchair": null, "entrance": "yes", "door": null }, "geometry": { "type": "Point", "coordinates": [ 30.2971815, 59.9862684 ] } },
{ "type": "Feature", "properties": { "full_id": null, "osm_id": null, "osm_type": null, "shop": null, "takeaway": null, "payment:visa_electron": null, "payment:maestro": null, "payment:contactless": null, "healthcare": null, "leisure": null, "contact:instagram": null, "operator": null, "contact:email": null, "access:conditional": null, "surveillance:zone": null, "addr:city": null, "training": null, "contact:website": null, "contact:phone": null, "contact:vk": null, "lit": null, "automatic_door": null, "camera:type": null, "camera:mount": null, "camera:direction": null, "maxheight": null, "description": null, "toilets": null, "phone": null, "name:ru": null, "internet_access": null, "addr:street": null, "addr:housenumber": null, "motor_vehicle": null, "ref": null, "addr:flats": null, "website": null, "self_service": null, "payment:visa": null, "payment:mastercard": null, "payment:debit_cards": null, "payment:credit_cards": null, "payment:cash": null, "automated": null, "emergency": null, "parking": null, "foot": null, "fee": null, "amenity": null, "layer": null, "access": null, "opening_hours": null, "name": null, "level": null, "check_date": null, "highway": null, "direction": null, "barrier": null, "surveillance:type": null, "surveillance": null, "man_made": null, "wheelchair": null, "entrance": null, "door": null }, "geometry": { "type": "Point", "coordinates": [ 30.30036219267409, 59.985905349168519 ] } },
{ "type": "Feature", "properties": { "full_id": "n7685881554", "osm_id": "7685881554", "osm_type": "node", "shop": null, "takeaway": null, "payment:visa_electron": null, "payment:maestro": null, "payment:contactless": null, "healthcare": null, "leisure": null, "contact:instagram": null, "operator": null, "contact:email": null, "access:conditional": null, "surveillance:zone": null, "addr:city": null, "training": null, "contact:website": null, "contact:phone": null, "contact:vk": null, "lit": null, "automatic_door": null, "camera:type": null, "camera:mount": null, "camera:direction": null, "maxheight": null, "description": null, "toilets": null, "phone": null, "name:ru": null, "internet_access": null, "addr:street": null, "addr:housenumber": null, "motor_vehicle": null, "ref": null, "addr:flats": null, "website": null, "self_service": null, "payment:visa": null, "payment:mastercard": null, "payment:debit_cards": null, "payment:credit_cards": null, "payment:cash": null, "automated": null, "emergency": null, "parking": "underground", "foot": null, "fee": null, "amenity": "parking_entrance", "layer": null, "access": null, "opening_hours": null, "name": null, "level": null, "check_date": null, "highway": null, "direction": null, "barrier": null, "surveillance:type": null, "surveillance": null, "man_made": null, "wheelchair": null, "entrance": null, "door": null }, "geometry": { "type": "Point", "coordinates": [ 30.2070842, 59.9921942 ] } },
{ "type": "Feature", "properties": { "full_id": "n7765724735", "osm_id": "7765724735", "osm_type": "node", "shop": null, "takeaway": null, "payment:visa_electron": null, "payment:maestro": null, "payment:contactless": null, "healthcare": null, "leisure": null, "contact:instagram": null, "operator": null, "contact:email": null, "access:conditional": null, "surveillance:zone": null, "addr:city": null, "training": null, "contact:website": null, "contact:phone": null, "contact:vk": null, "lit": null, "automatic_door": null, "camera:type": "fixed", "camera:mount": null, "camera:direction": "65", "maxheight": null, "description": null, "toilets": null, "phone": null, "name:ru": null, "internet_access": null, "addr:street": null, "addr:housenumber": null, "motor_vehicle": null, "ref": null, "addr:flats": null, "website": null, "self_service": null, "payment:visa": null, "payment:mastercard": null, "payment:debit_cards": null, "payment:credit_cards": null, "payment:cash": null, "automated": null, "emergency": null, "parking": null, "foot": null, "fee": null, "amenity": null, "layer": null, "access": null, "opening_hours": null, "name": null, "level": null, "check_date": null, "highway": null, "direction": null, "barrier": null, "surveillance:type": "camera", "surveillance": "outdoor", "man_made": "surveillance", "wheelchair": null, "entrance": null, "door": null }, "geometry": { "type": "Point", "coordinates": [ 30.4446696, 60.040983 ] } },
{ "type": "Feature", "properties": { "full_id": "n8184769669", "osm_id": "8184769669", "osm_type": "node", "shop": null, "takeaway": null, "payment:visa_electron": null, "payment:maestro": null, "payment:contactless": null, "healthcare": null, "leisure": null, "contact:instagram": null, "operator": null, "contact:email": null, "access:conditional": null, "surveillance:zone": null, "addr:city": null, "training": null, "contact:website": null, "contact:phone": null, "contact:vk": null, "lit": null, "automatic_door": null, "camera:type": null, "camera:mount": null, "camera:direction": null, "maxheight": null, "description": null, "toilets": null, "phone": null, "name:ru": null, "internet_access": null, "addr:street": null, "addr:housenumber": null, "motor_vehicle": "destination", "ref": null, "addr:flats": null, "website": null, "self_service": null, "payment:visa": null, "payment:mastercard": null, "payment:debit_cards": null, "payment:credit_cards": null, "payment:cash": null, "automated": null, "emergency": null, "parking": null, "foot": null, "fee": null, "amenity": null, "layer": null, "access": null, "opening_hours": null, "name": null, "level": null, "check_date": null, "highway": null, "direction": null, "barrier": null, "surveillance:type": null, "surveillance": null, "man_made": null, "wheelchair": null, "entrance": "yes", "door": null }, "geometry": { "type": "Point", "coordinates": [ 30.2092052, 59.9806788 ] } },
{ "type": "Feature", "properties": { "full_id": "n8370809481", "osm_id": "8370809481", "osm_type": "node", "shop": "mall", "takeaway": null, "payment:visa_electron": null, "payment:maestro": null, "payment:contactless": null, "healthcare": null, "leisure": null, "contact:instagram": null, "operator": "Индустриальный", "contact:email": "info@tk-industrial.ru", "access:conditional": null, "surveillance:zone": null, "addr:city": null, "training": null, "contact:website": "https://tk-industrial.ru/", "contact:phone": "+7 812 2913012", "contact:vk": null, "lit": null, "automatic_door": null, "camera:type": null, "camera:mount": null, "camera:direction": null, "maxheight": null, "description": null, "toilets": null, "phone": null, "name:ru": null, "internet_access": null, "addr:street": "Индустриальный проспект", "addr:housenumber": "31", "motor_vehicle": null, "ref": null, "addr:flats": null, "website": null, "self_service": null, "payment:visa": null, "payment:mastercard": null, "payment:debit_cards": null, "payment:credit_cards": null, "payment:cash": null, "automated": null, "emergency": null, "parking": null, "foot": null, "fee": null, "amenity": null, "layer": null, "access": null, "opening_hours": "Mo-Su 10:00-22:00", "name": "Индустриальный", "level": null, "check_date": "2025-09-30", "highway": null, "direction": null, "barrier": null, "surveillance:type": null, "surveillance": null, "man_made": null, "wheelchair": null, "entrance": null, "door": null }, "geometry": { "type": "Point", "coordinates": [ 30.4731238, 59.9512875 ] } },
{ "type": "Feature", "properties": { "full_id": "n11181710838", "osm_id": "11181710838", "osm_type": "node", "shop": "mall", "takeaway": null, "payment:visa_electron": null, "payment:maestro": null, "payment:contactless": null, "healthcare": null, "leisure": null, "contact:instagram": null, "operator": null, "contact:email": null, "access:conditional": null, "surveillance:zone": null, "addr:city": null, "training": null, "contact:website": null, "contact:phone": null, "contact:vk": null, "lit": null, "automatic_door": null, "camera:type": null, "camera:mount": null, "camera:direction": null, "maxheight": null, "description": null, "toilets": null, "phone": null, "name:ru": null, "internet_access": null, "addr:street": null, "addr:housenumber": null, "motor_vehicle": null, "ref": null, "addr:flats": null, "website": null, "self_service": null, "payment:visa": null, "payment:mastercard": null, "payment:debit_cards": null, "payment:credit_cards": null, "payment:cash": null, "automated": null, "emergency": null, "parking": null, "foot": null, "fee": null, "amenity": null, "layer": null, "access": null, "opening_hours": "11:00-20:00", "name": "Садко", "level": null, "check_date": "2024-06-16", "highway": null, "direction": null, "barrier": null, "surveillance:type": null, "surveillance": null, "man_made": null, "wheelchair": null, "entrance": null, "door": null }, "geometry": { "type": "Point", "coordinates": [ 30.4708412, 59.9506748 ] } },
{ "type": "Feature", "properties": { "full_id": "n11347604506", "osm_id": "11347604506", "osm_type": "node", "shop": null, "takeaway": null, "payment:visa_electron": null, "payment:maestro": null, "payment:contactless": null, "healthcare": null, "leisure": null, "contact:instagram": null, "operator": null, "contact:email": null, "access:conditional": null, "surveillance:zone": null, "addr:city": null, "training": null, "contact:website": null, "contact:phone": null, "contact:vk": null, "lit": null, "automatic_door": null, "camera:type": null, "camera:mount": null, "camera:direction": null, "maxheight": null, "description": null, "toilets": null, "phone": null, "name:ru": null, "internet_access": null, "addr:street": null, "addr:housenumber": null, "motor_vehicle": null, "ref": null, "addr:flats": null, "website": null, "self_service": null, "payment:visa": null, "payment:mastercard": null, "payment:debit_cards": null, "payment:credit_cards": null, "payment:cash": null, "automated": null, "emergency": null, "parking": null, "foot": null, "fee": null, "amenity": null, "layer": null, "access": "private", "opening_hours": null, "name": null, "level": null, "check_date": null, "highway": null, "direction": null, "barrier": "gate", "surveillance:type": null, "surveillance": null, "man_made": null, "wheelchair": null, "entrance": null, "door": null }, "geometry": { "type": "Point", "coordinates": [ 30.2049114, 59.9872448 ] } },
{ "type": "Feature", "properties": { "full_id": "n13370503298", "osm_id": "13370503298", "osm_type": "node", "shop": null, "takeaway": null, "payment:visa_electron": null, "payment:maestro": null, "payment:contactless": null, "healthcare": null, "leisure": null, "contact:instagram": null, "operator": null, "contact:email": null, "access:conditional": null, "surveillance:zone": null, "addr:city": null, "training": null, "contact:website": null, "contact:phone": null, "contact:vk": null, "lit": null, "automatic_door": null, "camera:type": null, "camera:mount": null, "camera:direction": null, "maxheight": null, "description": null, "toilets": null, "phone": null, "name:ru": null, "internet_access": null, "addr:street": null, "addr:housenumber": null, "motor_vehicle": null, "ref": null, "addr:flats": null, "website": null, "self_service": null, "payment:visa": null, "payment:mastercard": null, "payment:debit_cards": null, "payment:credit_cards": null, "payment:cash": null, "automated": null, "emergency": null, "parking": null, "foot": null, "fee": null, "amenity": null, "layer": null, "access": null, "opening_hours": null, "name": null, "level": null, "check_date": null, "highway": null, "direction": null, "barrier": null, "surveillance:type": null, "surveillance": null, "man_made": null, "wheelchair": null, "entrance": "yes", "door": null }, "geometry": { "type": "Point", "coordinates": [ 30.2954852, 60.0022722 ] } }
]
}
