{
"type": "FeatureCollection",
"name": "sports_object_polygons",
"crs": { "type": "name", "properties": { "name": "urn:ogc:def:crs:OGC:1.3:CRS84" } },
"features": [
{ "type": "Feature", "properties": { "ID": null, "CENTER_LON": "30.261773994276457", "CENTER_LAT": "60.10518072402721", "AA_METERS": 1500, "AA_MODE": "foot-hiking", "TOTAL_POP": "1139", "lead_id": 0, "NUMPOINTS": 0.0 }, "geometry": { "type": "Polygon", "coordinates": [ [ [ 30.240667, 60.110473 ], [ 30.238028, 60.10876 ], [ 30.238675, 60.105219 ], [ 30.238865, 60.102638 ], [ 30.238894, 60.102612 ], [ 30.240805, 60.102329 ], [ 30.240847, 60.102349 ], [ 30.242617, 60.105191 ], [ 30.243579, 60.105651 ], [ 30.247921, 60.10167 ], [ 30.247027, 60.100148 ], [ 30.246754, 60.099573 ], [ 30.246701, 60.099396 ], [ 30.250009, 60.098125 ], [ 30.253346, 60.094797 ], [ 30.253425, 60.094693 ], [ 30.25357, 60.094623 ], [ 30.25641, 60.094464 ], [ 30.257009, 60.094493 ], [ 30.257519, 60.094582 ], [ 30.258812, 60.096471 ], [ 30.260682, 60.097907 ], [ 30.26489, 60.097907 ], [ 30.266482, 60.097053 ], [ 30.266814, 60.096872 ], [ 30.271714, 60.099201 ], [ 30.273304, 60.098607 ], [ 30.27363, 60.098567 ], [ 30.277453, 60.099662 ], [ 30.280313, 60.100761 ], [ 30.284345, 60.102798 ], [ 30.286928, 60.10654 ], [ 30.288072, 60.108077 ], [ 30.288282, 60.109077 ], [ 30.288217, 60.109196 ], [ 30.286777, 60.110137 ], [ 30.284299, 60.111222 ], [ 30.2821, 60.111916 ], [ 30.277205, 60.114125 ], [ 30.273058, 60.115369 ], [ 30.271996, 60.115675 ], [ 30.266988, 60.116326 ], [ 30.261545, 60.117781 ], [ 30.261198, 60.117799 ], [ 30.257745, 60.117934 ], [ 30.253523, 60.117739 ], [ 30.253026, 60.117671 ], [ 30.248821, 60.116718 ], [ 30.248681, 60.116685 ], [ 30.246868, 60.115888 ], [ 30.242534, 60.113528 ], [ 30.240667, 60.110473 ] ] ] } },
{ "type": "Feature", "properties": { "ID": null, "CENTER_LON": "30.231576292518895", "CENTER_LAT": "60.074133904879574", "AA_METERS": 1500, "AA_MODE": "foot-hiking", "TOTAL_POP": "978", "lead_id": 1, "NUMPOINTS": 0.0 }, "geometry": { "type": "Polygon", "coordinates": [ [ [ 30.207133, 60.076676 ], [ 30.207431, 60.071674 ], [ 30.207503, 60.071321 ], [ 30.210446, 60.070275 ], [ 30.211806, 60.070096 ], [ 30.213317, 60.069782 ], [ 30.215482, 60.069195 ], [ 30.217108, 60.068829 ], [ 30.220438, 60.064087 ], [ 30.220498, 60.063732 ], [ 30.221567, 60.062913 ], [ 30.226182, 60.061989 ], [ 30.226701, 60.062266 ], [ 30.232298, 60.064273 ], [ 30.233266, 60.064482 ], [ 30.235105, 60.064879 ], [ 30.236943, 60.065276 ], [ 30.241249, 60.064968 ], [ 30.24328, 60.064197 ], [ 30.24813, 60.067627 ], [ 30.252325, 60.070848 ], [ 30.254581, 60.07152 ], [ 30.2546, 60.071879 ], [ 30.253966, 60.075868 ], [ 30.255141, 60.078346 ], [ 30.255158, 60.078435 ], [ 30.255165, 60.078795 ], [ 30.2551, 60.078901 ], [ 30.25343, 60.079523 ], [ 30.249852, 60.081042 ], [ 30.247474, 60.082515 ], [ 30.246509, 60.082702 ], [ 30.243454, 60.082879 ], [ 30.240901, 60.083063 ], [ 30.239034, 60.083267 ], [ 30.238259, 60.083137 ], [ 30.232531, 60.084761 ], [ 30.232247, 60.084541 ], [ 30.227798, 60.081419 ], [ 30.22594, 60.081119 ], [ 30.224081, 60.080819 ], [ 30.222222, 60.08052 ], [ 30.220363, 60.08022 ], [ 30.214534, 60.079736 ], [ 30.214375, 60.079744 ], [ 30.21369, 60.079687 ], [ 30.213006, 60.079631 ], [ 30.210152, 60.077502 ], [ 30.207236, 60.077021 ], [ 30.207133, 60.076676 ] ] ] } },
{ "type": "Feature", "properties": { "ID": null, "CENTER_LON": "30.45138338279614", "CENTER_LAT": "59.94157707915619", "AA_METERS": 1500, "AA_MODE": "foot-hiking", "TOTAL_POP": "49891", "lead_id": 2, "NUMPOINTS": 3.0 }, "geometry": { "type": "Polygon", "coordinates": [ [ [ 30.428112, 59.940198 ], [ 30.428434, 59.938772 ], [ 30.428551, 59.938419 ], [ 30.428781, 59.937782 ], [ 30.433311, 59.933944 ], [ 30.433247, 59.932345 ], [ 30.433333, 59.932229 ], [ 30.434811, 59.931599 ], [ 30.438168, 59.930386 ], [ 30.439376, 59.930199 ], [ 30.439434, 59.930191 ], [ 30.441327, 59.930595 ], [ 30.442462, 59.931238 ], [ 30.442728, 59.931453 ], [ 30.44553, 59.936625 ], [ 30.447956, 59.937287 ], [ 30.449383, 59.937643 ], [ 30.451322, 59.938551 ], [ 30.453892, 59.939677 ], [ 30.457701, 59.937561 ], [ 30.458398, 59.937701 ], [ 30.461119, 59.938156 ], [ 30.46535, 59.936274 ], [ 30.465454, 59.936215 ], [ 30.466017, 59.936079 ], [ 30.467936, 59.935905 ], [ 30.47041, 59.935752 ], [ 30.472141, 59.935768 ], [ 30.475716, 59.939541 ], [ 30.475877, 59.9419 ], [ 30.47573, 59.942851 ], [ 30.475208, 59.94521 ], [ 30.4745, 59.948929 ], [ 30.473962, 59.949353 ], [ 30.473115, 59.949537 ], [ 30.470375, 59.950286 ], [ 30.46684, 59.951696 ], [ 30.463962, 59.952606 ], [ 30.46317, 59.95282 ], [ 30.457918, 59.953028 ], [ 30.455475, 59.952686 ], [ 30.454483, 59.952567 ], [ 30.449557, 59.952006 ], [ 30.446392, 59.952339 ], [ 30.441375, 59.951009 ], [ 30.439683, 59.94999 ], [ 30.435862, 59.946885 ], [ 30.434374, 59.946144 ], [ 30.429226, 59.944848 ], [ 30.429089, 59.94477 ], [ 30.428112, 59.940198 ] ] ] } },
{ "type": "Feature", "properties": { "ID": null, "CENTER_LON": "30.347094374974496", "CENTER_LAT": "60.085193109138395", "AA_METERS": 1500, "AA_MODE": "foot-hiking", "TOTAL_POP": "3583", "lead_id": 3, "NUMPOINTS": 1.0 }, "geometry": { "type": "Polygon", "coordinates": [ [ [ 30.321844, 60.085585 ], [ 30.321651, 60.085345 ], [ 30.322917, 60.0832 ], [ 30.32569, 60.079003 ], [ 30.327025, 60.077723 ], [ 30.327484, 60.077738 ], [ 30.333075, 60.07682 ], [ 30.336849, 60.075362 ], [ 30.338602, 60.074538 ], [ 30.342406, 60.073238 ], [ 30.344384, 60.07337 ], [ 30.349747, 60.073802 ], [ 30.349967, 60.07386 ], [ 30.353521, 60.074744 ], [ 30.356954, 60.07545 ], [ 30.35767, 60.075808 ], [ 30.357704, 60.075849 ], [ 30.357961, 60.077783 ], [ 30.359034, 60.079796 ], [ 30.359247, 60.080063 ], [ 30.364989, 60.078344 ], [ 30.366138, 60.077984 ], [ 30.367056, 60.077802 ], [ 30.368915, 60.078252 ], [ 30.369626, 60.081781 ], [ 30.369398, 60.081827 ], [ 30.36686, 60.081629 ], [ 30.364759, 60.087073 ], [ 30.366291, 60.088208 ], [ 30.367336, 60.08893 ], [ 30.366118, 60.091493 ], [ 30.365288, 60.091891 ], [ 30.360242, 60.093685 ], [ 30.359235, 60.093801 ], [ 30.358782, 60.093849 ], [ 30.358386, 60.093848 ], [ 30.355483, 60.093427 ], [ 30.354961, 60.093198 ], [ 30.352873, 60.092162 ], [ 30.347454, 60.090233 ], [ 30.344468, 60.089469 ], [ 30.340449, 60.087529 ], [ 30.335251, 60.088571 ], [ 30.334614, 60.089173 ], [ 30.334001, 60.089129 ], [ 30.333641, 60.08907 ], [ 30.333244, 60.088942 ], [ 30.332247, 60.087938 ], [ 30.327628, 60.086214 ], [ 30.324229, 60.086753 ], [ 30.322147, 60.085923 ], [ 30.321844, 60.085585 ] ] ] } },
{ "type": "Feature", "properties": { "ID": null, "CENTER_LON": "30.2275772", "CENTER_LAT": "60.0404029", "AA_METERS": 1500, "AA_MODE": "foot-hiking", "TOTAL_POP": "14479", "lead_id": 4, "NUMPOINTS": 1.0 }, "geometry": { "type": "Polygon", "coordinates": [ [ [ 30.203354, 60.039486 ], [ 30.20334, 60.039292 ], [ 30.204449, 60.037272 ], [ 30.205351, 60.036439 ], [ 30.206447, 60.035681 ], [ 30.206873, 60.035426 ], [ 30.21114, 60.03175 ], [ 30.211711, 60.030937 ], [ 30.211736, 60.030916 ], [ 30.212069, 60.030765 ], [ 30.213347, 60.03057 ], [ 30.218465, 60.030014 ], [ 30.219789, 60.029249 ], [ 30.220037, 60.0291 ], [ 30.225284, 60.028548 ], [ 30.226501, 60.028657 ], [ 30.231595, 60.028338 ], [ 30.233219, 60.028019 ], [ 30.234787, 60.028171 ], [ 30.239939, 60.029403 ], [ 30.241105, 60.029649 ], [ 30.242576, 60.030004 ], [ 30.242693, 60.030038 ], [ 30.243942, 60.031192 ], [ 30.243978, 60.031232 ], [ 30.246271, 60.035006 ], [ 30.246473, 60.038199 ], [ 30.246411, 60.039263 ], [ 30.245501, 60.041768 ], [ 30.244494, 60.044401 ], [ 30.242415, 60.045113 ], [ 30.24164, 60.045046 ], [ 30.239044, 60.045276 ], [ 30.23518, 60.048943 ], [ 30.234591, 60.049457 ], [ 30.233424, 60.050141 ], [ 30.23304, 60.050322 ], [ 30.232108, 60.050239 ], [ 30.228537, 60.047963 ], [ 30.224024, 60.049452 ], [ 30.218924, 60.051893 ], [ 30.218458, 60.051733 ], [ 30.219277, 60.050111 ], [ 30.219625, 60.048327 ], [ 30.219789, 60.042813 ], [ 30.217893, 60.042555 ], [ 30.216703, 60.042076 ], [ 30.213676, 60.041877 ], [ 30.212769, 60.042068 ], [ 30.210923, 60.041618 ], [ 30.205982, 60.042343 ], [ 30.204707, 60.042378 ], [ 30.203354, 60.039486 ] ] ] } },
{ "type": "Feature", "properties": { "ID": null, "CENTER_LON": "30.134618718188534", "CENTER_LAT": "60.00516974708838", "AA_METERS": 1500, "AA_MODE": "foot-hiking", "TOTAL_POP": "1069", "lead_id": 5, "NUMPOINTS": 0.0 }, "geometry": { "type": "Polygon", "coordinates": [ [ [ 30.108933, 60.007571 ], [ 30.10922, 60.00751 ], [ 30.109446, 60.007471 ], [ 30.110499, 60.007451 ], [ 30.111524, 60.007434 ], [ 30.113078, 60.007421 ], [ 30.11463, 60.007408 ], [ 30.116521, 60.007379 ], [ 30.118412, 60.00735 ], [ 30.121416, 60.005849 ], [ 30.122107, 60.001387 ], [ 30.122133, 60.001028 ], [ 30.123829, 60.00115 ], [ 30.126565, 59.996875 ], [ 30.126995, 59.995755 ], [ 30.13099, 59.994285 ], [ 30.133382, 59.993799 ], [ 30.138315, 59.993639 ], [ 30.140843, 59.994394 ], [ 30.14353, 59.995201 ], [ 30.144849, 59.995651 ], [ 30.147305, 59.996457 ], [ 30.149534, 59.997453 ], [ 30.149654, 59.997674 ], [ 30.150906, 59.999277 ], [ 30.155677, 59.998544 ], [ 30.157032, 59.999458 ], [ 30.157239, 59.999753 ], [ 30.154716, 60.003078 ], [ 30.152133, 60.004389 ], [ 30.151529, 60.004797 ], [ 30.150672, 60.00537 ], [ 30.146355, 60.009515 ], [ 30.147122, 60.010943 ], [ 30.148087, 60.012338 ], [ 30.148023, 60.012692 ], [ 30.147697, 60.012722 ], [ 30.147584, 60.012559 ], [ 30.146805, 60.011114 ], [ 30.146038, 60.009686 ], [ 30.14527, 60.008257 ], [ 30.144502, 60.006829 ], [ 30.14403, 60.00596 ], [ 30.141327, 60.004419 ], [ 30.137247, 60.00879 ], [ 30.136543, 60.008897 ], [ 30.133157, 60.008303 ], [ 30.132797, 60.008281 ], [ 30.131391, 60.008335 ], [ 30.131112, 60.008384 ], [ 30.130826, 60.008416 ], [ 30.130607, 60.008395 ], [ 30.126128, 60.011634 ], [ 30.12614, 60.013427 ], [ 30.126396, 60.01526 ], [ 30.126342, 60.015611 ], [ 30.126191, 60.015701 ], [ 30.123973, 60.015852 ], [ 30.123927, 60.015495 ], [ 30.123721, 60.011627 ], [ 30.11951, 60.009997 ], [ 30.117151, 60.009941 ], [ 30.113518, 60.012411 ], [ 30.113208, 60.012228 ], [ 30.112291, 60.011288 ], [ 30.108927, 60.00799 ], [ 30.108747, 60.007679 ], [ 30.108933, 60.007571 ] ] ] } },
{ "type": "Feature", "properties": { "ID": null, "CENTER_LON": "30.18550991275845", "CENTER_LAT": "60.10730040424622", "AA_METERS": 1500, "AA_MODE": "foot-hiking", "TOTAL_POP": "1286", "lead_id": 6, "NUMPOINTS": 0.0 }, "geometry": { "type": "Polygon", "coordinates": [ [ [ 30.163775, 60.113174 ], [ 30.166602, 60.109223 ], [ 30.166509, 60.106174 ], [ 30.166792, 60.105952 ], [ 30.167628, 60.107015 ], [ 30.168464, 60.108079 ], [ 30.174003, 60.109201 ], [ 30.175639, 60.108421 ], [ 30.175959, 60.108288 ], [ 30.176244, 60.108172 ], [ 30.176612, 60.107997 ], [ 30.17699, 60.107817 ], [ 30.177414, 60.107704 ], [ 30.179651, 60.106172 ], [ 30.178381, 60.101189 ], [ 30.178359, 60.100829 ], [ 30.180134, 60.100724 ], [ 30.18191, 60.100618 ], [ 30.183725, 60.10051 ], [ 30.18554, 60.100403 ], [ 30.185541, 60.100403 ], [ 30.187203, 60.100306 ], [ 30.191024, 60.097642 ], [ 30.191386, 60.097878 ], [ 30.191748, 60.098114 ], [ 30.197555, 60.098701 ], [ 30.198941, 60.098239 ], [ 30.200384, 60.098284 ], [ 30.205156, 60.098438 ], [ 30.20531, 60.098536 ], [ 30.207583, 60.102481 ], [ 30.207689, 60.102825 ], [ 30.208093, 60.106281 ], [ 30.207923, 60.106358 ], [ 30.206832, 60.106582 ], [ 30.20578, 60.106794 ], [ 30.200189, 60.107724 ], [ 30.197576, 60.10826 ], [ 30.196426, 60.108499 ], [ 30.194689, 60.108843 ], [ 30.191095, 60.108812 ], [ 30.188681, 60.109077 ], [ 30.183448, 60.108175 ], [ 30.181572, 60.107876 ], [ 30.177896, 60.107952 ], [ 30.177504, 60.108053 ], [ 30.176767, 60.108322 ], [ 30.173375, 60.112887 ], [ 30.172863, 60.114429 ], [ 30.17253, 60.114567 ], [ 30.171625, 60.11349 ], [ 30.166888, 60.112338 ], [ 30.165712, 60.112787 ], [ 30.164811, 60.113147 ], [ 30.163909, 60.113508 ], [ 30.163775, 60.113174 ] ] ] } },
{ "type": "Feature", "properties": { "ID": null, "CENTER_LON": "30.272324233628574", "CENTER_LAT": "60.00399310886681", "AA_METERS": 1500, "AA_MODE": "foot-hiking", "TOTAL_POP": "139079", "lead_id": 7, "NUMPOINTS": 5.0 }, "geometry": { "type": "Polygon", "coordinates": [ [ [ 30.247535, 60.00631 ], [ 30.247358, 60.005988 ], [ 30.248137, 60.004269 ], [ 30.249844, 60.000535 ], [ 30.25085, 59.998884 ], [ 30.251731, 59.998226 ], [ 30.252874, 59.997588 ], [ 30.253189, 59.99746 ], [ 30.258365, 59.995887 ], [ 30.259911, 59.99441 ], [ 30.260035, 59.99433 ], [ 30.260157, 59.994331 ], [ 30.262127, 59.99455 ], [ 30.264557, 59.994671 ], [ 30.265432, 59.995123 ], [ 30.268145, 59.996409 ], [ 30.272482, 59.994566 ], [ 30.274779, 59.991733 ], [ 30.27518, 59.991362 ], [ 30.275708, 59.991117 ], [ 30.279548, 59.990404 ], [ 30.283433, 59.992867 ], [ 30.288782, 59.995178 ], [ 30.290267, 59.995605 ], [ 30.290525, 59.995929 ], [ 30.290686, 59.99616 ], [ 30.293757, 59.999787 ], [ 30.295351, 60.001235 ], [ 30.296125, 60.002079 ], [ 30.296588, 60.003452 ], [ 30.296579, 60.003476 ], [ 30.295425, 60.00566 ], [ 30.293629, 60.008393 ], [ 30.290125, 60.011686 ], [ 30.286532, 60.01441 ], [ 30.285575, 60.015051 ], [ 30.280938, 60.017647 ], [ 30.279538, 60.018548 ], [ 30.279322, 60.018677 ], [ 30.279258, 60.018685 ], [ 30.279231, 60.018688 ], [ 30.279168, 60.018696 ], [ 30.275739, 60.017951 ], [ 30.272161, 60.01735 ], [ 30.271049, 60.017199 ], [ 30.267634, 60.016264 ], [ 30.265702, 60.015645 ], [ 30.263745, 60.015058 ], [ 30.260014, 60.013687 ], [ 30.255395, 60.01313 ], [ 30.255284, 60.013098 ], [ 30.25491, 60.012586 ], [ 30.254095, 60.011563 ], [ 30.250139, 60.008723 ], [ 30.248601, 60.007839 ], [ 30.247535, 60.00631 ] ] ] } },
{ "type": "Feature", "properties": { "ID": null, "CENTER_LON": "30.233871436122428", "CENTER_LAT": "60.014626595245", "AA_METERS": 1500, "AA_MODE": "foot-hiking", "TOTAL_POP": "120322", "lead_id": 8, "NUMPOINTS": 4.0 }, "geometry": { "type": "Polygon", "coordinates": [ [ [ 30.215345, 60.022939 ], [ 30.214553, 60.01929 ], [ 30.213535, 60.014624 ], [ 30.212978, 60.011702 ], [ 30.213833, 60.009657 ], [ 30.217366, 60.006841 ], [ 30.22204, 60.003242 ], [ 30.225565, 60.002675 ], [ 30.226224, 60.002704 ], [ 30.230264, 60.002984 ], [ 30.233678, 60.001801 ], [ 30.23544, 60.001201 ], [ 30.236217, 60.001117 ], [ 30.240015, 60.002181 ], [ 30.242281, 60.003211 ], [ 30.246782, 60.004443 ], [ 30.248813, 60.004953 ], [ 30.251244, 60.005724 ], [ 30.251707, 60.005882 ], [ 30.252776, 60.006283 ], [ 30.254272, 60.007156 ], [ 30.254293, 60.007196 ], [ 30.255859, 60.010554 ], [ 30.256251, 60.011425 ], [ 30.257789, 60.014918 ], [ 30.258099, 60.020146 ], [ 30.25763, 60.020949 ], [ 30.257401, 60.021198 ], [ 30.257168, 60.021397 ], [ 30.254813, 60.022327 ], [ 30.252818, 60.022752 ], [ 30.251914, 60.023028 ], [ 30.247464, 60.025574 ], [ 30.247273, 60.025612 ], [ 30.243395, 60.025948 ], [ 30.239798, 60.026158 ], [ 30.237612, 60.024731 ], [ 30.23622, 60.024339 ], [ 30.235012, 60.023983 ], [ 30.229984, 60.026833 ], [ 30.229554, 60.027107 ], [ 30.227734, 60.027139 ], [ 30.226178, 60.026999 ], [ 30.220714, 60.026249 ], [ 30.216658, 60.026291 ], [ 30.215345, 60.022939 ] ] ] } },
{ "type": "Feature", "properties": { "ID": null, "CENTER_LON": "30.4928298", "CENTER_LAT": "59.9595759", "AA_METERS": 1500, "AA_MODE": "foot-hiking", "TOTAL_POP": "27446", "lead_id": 9, "NUMPOINTS": 3.0 }, "geometry": { "type": "Polygon", "coordinates": [ [ [ 30.479537, 59.966316 ], [ 30.476023, 59.961796 ], [ 30.475652, 59.961401 ], [ 30.474648, 59.959356 ], [ 30.47447, 59.958001 ], [ 30.474422, 59.954067 ], [ 30.473721, 59.951181 ], [ 30.473827, 59.951079 ], [ 30.475321, 59.950581 ], [ 30.479509, 59.949582 ], [ 30.484695, 59.948435 ], [ 30.490548, 59.947284 ], [ 30.492862, 59.946761 ], [ 30.492883, 59.946762 ], [ 30.498721, 59.946671 ], [ 30.501696, 59.946268 ], [ 30.502484, 59.946153 ], [ 30.502581, 59.946181 ], [ 30.505388, 59.949238 ], [ 30.510455, 59.951657 ], [ 30.510497, 59.951694 ], [ 30.510582, 59.952336 ], [ 30.512059, 59.957151 ], [ 30.513212, 59.958243 ], [ 30.513548, 59.960652 ], [ 30.511621, 59.963049 ], [ 30.51138, 59.962985 ], [ 30.509341, 59.961974 ], [ 30.506109, 59.966057 ], [ 30.50266, 59.965379 ], [ 30.499939, 59.967736 ], [ 30.496053, 59.967675 ], [ 30.494404, 59.966938 ], [ 30.488895, 59.96773 ], [ 30.487755, 59.968949 ], [ 30.483732, 59.969322 ], [ 30.481588, 59.969199 ], [ 30.480361, 59.968184 ], [ 30.479537, 59.966316 ] ] ] } },
{ "type": "Feature", "properties": { "ID": null, "CENTER_LON": "30.1350633", "CENTER_LAT": "60.0317394", "AA_METERS": 1500, "AA_MODE": "foot-hiking", "TOTAL_POP": "697", "lead_id": 10, "NUMPOINTS": 0.0 }, "geometry": { "type": "Polygon", "coordinates": [ [ [ 30.112392, 60.030825 ], [ 30.114367, 60.027815 ], [ 30.115899, 60.026904 ], [ 30.116487, 60.026779 ], [ 30.118389, 60.027576 ], [ 30.118464, 60.027722 ], [ 30.121523, 60.030927 ], [ 30.124332, 60.031181 ], [ 30.125743, 60.030942 ], [ 30.12801, 60.026786 ], [ 30.126506, 60.024978 ], [ 30.125548, 60.024087 ], [ 30.127408, 60.02118 ], [ 30.127589, 60.021244 ], [ 30.127623, 60.021257 ], [ 30.131439, 60.022361 ], [ 30.133507, 60.022686 ], [ 30.135341, 60.023967 ], [ 30.135848, 60.024235 ], [ 30.136382, 60.024587 ], [ 30.13914, 60.026199 ], [ 30.142268, 60.02223 ], [ 30.143317, 60.022183 ], [ 30.145272, 60.023843 ], [ 30.14547, 60.024617 ], [ 30.145716, 60.026635 ], [ 30.150978, 60.028433 ], [ 30.151227, 60.028636 ], [ 30.151684, 60.029172 ], [ 30.151993, 60.03029 ], [ 30.151649, 60.031427 ], [ 30.155881, 60.035403 ], [ 30.155356, 60.038965 ], [ 30.151334, 60.039977 ], [ 30.150993, 60.039942 ], [ 30.150238, 60.039826 ], [ 30.149442, 60.039665 ], [ 30.148911, 60.039531 ], [ 30.147696, 60.039226 ], [ 30.142468, 60.040583 ], [ 30.140619, 60.038595 ], [ 30.139975, 60.037986 ], [ 30.135584, 60.034176 ], [ 30.135028, 60.034147 ], [ 30.134516, 60.034087 ], [ 30.131735, 60.033862 ], [ 30.128214, 60.03451 ], [ 30.126855, 60.037843 ], [ 30.123669, 60.036545 ], [ 30.121761, 60.035767 ], [ 30.118664, 60.034979 ], [ 30.115144, 60.034746 ], [ 30.114393, 60.034663 ], [ 30.113222, 60.034023 ], [ 30.112392, 60.030825 ] ] ] } },
{ "type": "Feature", "properties": { "ID": null, "CENTER_LON": "30.23280239139937", "CENTER_LAT": "59.99840830280975", "AA_METERS": 1500, "AA_MODE": "foot-hiking", "TOTAL_POP": "77294", "lead_id": 11, "NUMPOINTS": 2.0 }, "geometry": { "type": "Polygon", "coordinates": [ [ [ 30.207052, 60.001768 ], [ 30.206851, 60.001401 ], [ 30.207937, 59.996953 ], [ 30.211965, 59.993459 ], [ 30.215577, 59.991949 ], [ 30.21837, 59.990733 ], [ 30.218511, 59.990686 ], [ 30.219321, 59.990659 ], [ 30.219494, 59.990718 ], [ 30.224302, 59.99297 ], [ 30.224531, 59.993076 ], [ 30.229232, 59.991482 ], [ 30.22964, 59.989094 ], [ 30.22944, 59.986429 ], [ 30.229387, 59.986227 ], [ 30.232869, 59.985312 ], [ 30.234537, 59.986211 ], [ 30.239999, 59.987392 ], [ 30.240499, 59.987298 ], [ 30.242505, 59.986953 ], [ 30.242689, 59.986909 ], [ 30.243425, 59.987238 ], [ 30.246538, 59.989074 ], [ 30.248875, 59.991171 ], [ 30.252903, 59.991213 ], [ 30.253199, 59.991214 ], [ 30.257501, 59.993588 ], [ 30.257316, 59.997353 ], [ 30.257075, 59.998095 ], [ 30.254642, 60.00192 ], [ 30.253324, 60.003623 ], [ 30.252326, 60.004658 ], [ 30.248943, 60.00728 ], [ 30.247164, 60.008376 ], [ 30.247067, 60.008384 ], [ 30.244839, 60.008517 ], [ 30.244383, 60.008577 ], [ 30.24274, 60.008138 ], [ 30.238102, 60.011279 ], [ 30.236736, 60.012006 ], [ 30.236234, 60.01207 ], [ 30.234124, 60.010855 ], [ 30.230329, 60.010299 ], [ 30.224773, 60.008998 ], [ 30.223255, 60.00865 ], [ 30.222018, 60.008323 ], [ 30.220722, 60.00792 ], [ 30.216508, 60.006569 ], [ 30.210969, 60.004339 ], [ 30.207524, 60.002511 ], [ 30.207052, 60.001768 ] ] ] } },
{ "type": "Feature", "properties": { "ID": null, "CENTER_LON": "30.449364502432562", "CENTER_LAT": "60.038970760250926", "AA_METERS": 1500, "AA_MODE": "foot-hiking", "TOTAL_POP": "11065", "lead_id": 12, "NUMPOINTS": 0.0 }, "geometry": { "type": "Polygon", "coordinates": [ [ [ 30.428226, 60.040731 ], [ 30.428519, 60.037656 ], [ 30.428591, 60.037149 ], [ 30.428923, 60.036764 ], [ 30.429094, 60.036729 ], [ 30.430989, 60.036468 ], [ 30.434582, 60.036247 ], [ 30.438186, 60.037382 ], [ 30.443174, 60.034402 ], [ 30.442916, 60.033634 ], [ 30.44376, 60.030358 ], [ 30.444381, 60.029732 ], [ 30.445269, 60.028769 ], [ 30.44633, 60.027711 ], [ 30.448137, 60.026108 ], [ 30.452585, 60.025475 ], [ 30.45841, 60.026456 ], [ 30.463306, 60.02845 ], [ 30.463107, 60.033166 ], [ 30.46254, 60.03568 ], [ 30.465725, 60.039615 ], [ 30.466379, 60.040154 ], [ 30.469195, 60.042102 ], [ 30.469171, 60.042659 ], [ 30.46836, 60.044089 ], [ 30.467779, 60.045113 ], [ 30.465691, 60.046757 ], [ 30.465672, 60.04676 ], [ 30.463744, 60.046798 ], [ 30.460039, 60.048943 ], [ 30.458914, 60.049105 ], [ 30.453859, 60.050511 ], [ 30.452231, 60.050937 ], [ 30.447462, 60.051094 ], [ 30.445549, 60.050991 ], [ 30.445464, 60.050979 ], [ 30.444542, 60.050783 ], [ 30.442127, 60.050233 ], [ 30.441385, 60.049985 ], [ 30.439759, 60.04886 ], [ 30.439728, 60.048676 ], [ 30.440158, 60.047108 ], [ 30.436043, 60.043867 ], [ 30.434717, 60.044217 ], [ 30.43333, 60.044559 ], [ 30.432282, 60.044802 ], [ 30.431509, 60.044932 ], [ 30.430285, 60.044024 ], [ 30.428226, 60.040731 ] ] ] } },
{ "type": "Feature", "properties": { "ID": null, "CENTER_LON": "30.457862669025474", "CENTER_LAT": "59.945002021195506", "AA_METERS": 1500, "AA_MODE": "foot-hiking", "TOTAL_POP": "65761", "lead_id": 13, "NUMPOINTS": 4.0 }, "geometry": { "type": "Polygon", "coordinates": [ [ [ 30.43589, 59.941484 ], [ 30.43619, 59.940297 ], [ 30.437143, 59.939221 ], [ 30.438663, 59.938273 ], [ 30.439928, 59.937891 ], [ 30.443756, 59.934138 ], [ 30.444669, 59.934515 ], [ 30.44578, 59.935147 ], [ 30.445865, 59.935202 ], [ 30.449383, 59.937643 ], [ 30.453869, 59.93733 ], [ 30.455226, 59.937389 ], [ 30.456438, 59.937477 ], [ 30.456998, 59.937493 ], [ 30.457479, 59.937529 ], [ 30.458398, 59.937701 ], [ 30.463692, 59.93628 ], [ 30.46393, 59.936112 ], [ 30.466679, 59.934989 ], [ 30.470229, 59.934556 ], [ 30.470841, 59.934636 ], [ 30.4751, 59.935542 ], [ 30.476822, 59.936832 ], [ 30.47906, 59.940754 ], [ 30.48102, 59.944697 ], [ 30.481297, 59.949652 ], [ 30.481259, 59.950387 ], [ 30.481159, 59.950482 ], [ 30.477485, 59.953658 ], [ 30.476898, 59.953923 ], [ 30.476182, 59.954122 ], [ 30.475348, 59.954304 ], [ 30.473463, 59.954703 ], [ 30.468492, 59.956034 ], [ 30.465815, 59.957117 ], [ 30.464573, 59.957402 ], [ 30.464374, 59.957436 ], [ 30.463472, 59.957517 ], [ 30.45799, 59.956791 ], [ 30.457038, 59.956477 ], [ 30.45678, 59.956394 ], [ 30.456024, 59.956113 ], [ 30.450422, 59.954668 ], [ 30.449717, 59.954651 ], [ 30.449803, 59.951052 ], [ 30.44621, 59.947143 ], [ 30.446313, 59.945836 ], [ 30.447318, 59.941053 ], [ 30.444673, 59.939862 ], [ 30.443783, 59.939967 ], [ 30.44157, 59.941108 ], [ 30.441223, 59.941265 ], [ 30.440468, 59.94178 ], [ 30.43865, 59.942801 ], [ 30.438206, 59.942977 ], [ 30.438019, 59.943023 ], [ 30.435894, 59.941532 ], [ 30.43589, 59.941484 ] ] ] } },
{ "type": "Feature", "properties": { "ID": null, "CENTER_LON": "30.20358397899905", "CENTER_LAT": "59.99291037677112", "AA_METERS": 1500, "AA_MODE": "foot-hiking", "TOTAL_POP": "72837", "lead_id": 14, "NUMPOINTS": 3.0 }, "geometry": { "type": "Polygon", "coordinates": [ [ [ 30.189044, 59.999521 ], [ 30.189337, 59.998293 ], [ 30.189429, 59.995583 ], [ 30.186401, 59.99289 ], [ 30.184445, 59.992551 ], [ 30.183465, 59.992537 ], [ 30.180545, 59.991196 ], [ 30.180965, 59.98762 ], [ 30.182948, 59.987148 ], [ 30.185242, 59.987358 ], [ 30.190678, 59.984911 ], [ 30.193269, 59.983243 ], [ 30.194969, 59.982163 ], [ 30.200183, 59.979812 ], [ 30.200294, 59.979794 ], [ 30.200828, 59.979722 ], [ 30.205151, 59.980602 ], [ 30.207696, 59.98125 ], [ 30.210047, 59.981793 ], [ 30.214651, 59.98265 ], [ 30.218033, 59.983539 ], [ 30.220538, 59.984388 ], [ 30.225442, 59.985449 ], [ 30.225673, 59.985588 ], [ 30.226334, 59.986259 ], [ 30.226378, 59.986367 ], [ 30.226523, 59.987634 ], [ 30.226891, 59.990939 ], [ 30.227351, 59.99451 ], [ 30.226991, 59.994877 ], [ 30.222917, 59.998618 ], [ 30.221559, 60.001155 ], [ 30.218012, 60.002694 ], [ 30.214111, 60.004918 ], [ 30.210128, 60.006045 ], [ 30.20826, 60.006303 ], [ 30.203244, 60.005997 ], [ 30.199595, 60.005701 ], [ 30.198268, 60.005399 ], [ 30.196899, 60.005064 ], [ 30.191205, 60.003306 ], [ 30.189239, 60.002377 ], [ 30.189175, 60.002335 ], [ 30.189044, 59.999521 ] ] ] } },
{ "type": "Feature", "properties": { "ID": null, "CENTER_LON": "30.309835514127247", "CENTER_LAT": "60.02589726700329", "AA_METERS": 1500, "AA_MODE": "foot-hiking", "TOTAL_POP": "69967", "lead_id": 15, "NUMPOINTS": 3.0 }, "geometry": { "type": "Polygon", "coordinates": [ [ [ 30.294091, 60.035708 ], [ 30.29361, 60.035176 ], [ 30.292506, 60.032664 ], [ 30.290514, 60.029728 ], [ 30.289958, 60.028984 ], [ 30.286921, 60.02563 ], [ 30.286242, 60.024891 ], [ 30.285543, 60.023631 ], [ 30.286366, 60.021293 ], [ 30.286936, 60.020745 ], [ 30.288464, 60.019954 ], [ 30.292092, 60.016865 ], [ 30.293153, 60.016427 ], [ 30.297346, 60.016476 ], [ 30.302392, 60.015227 ], [ 30.303905, 60.01475 ], [ 30.307441, 60.014172 ], [ 30.31177, 60.013029 ], [ 30.316994, 60.012296 ], [ 30.317008, 60.012297 ], [ 30.320619, 60.013672 ], [ 30.32561, 60.015863 ], [ 30.328526, 60.017085 ], [ 30.32857, 60.01712 ], [ 30.328589, 60.017135 ], [ 30.328628, 60.017171 ], [ 30.330977, 60.02055 ], [ 30.331114, 60.021429 ], [ 30.331106, 60.021512 ], [ 30.330552, 60.022791 ], [ 30.329978, 60.023835 ], [ 30.33217, 60.028627 ], [ 30.332176, 60.028632 ], [ 30.332709, 60.029049 ], [ 30.332744, 60.029081 ], [ 30.333327, 60.030305 ], [ 30.333301, 60.030791 ], [ 30.333289, 60.030853 ], [ 30.331574, 60.032254 ], [ 30.327023, 60.035425 ], [ 30.325197, 60.036674 ], [ 30.323847, 60.037578 ], [ 30.323799, 60.037587 ], [ 30.319807, 60.038304 ], [ 30.31878, 60.038372 ], [ 30.31764, 60.038163 ], [ 30.315437, 60.037163 ], [ 30.315419, 60.037131 ], [ 30.314306, 60.035124 ], [ 30.309007, 60.03634 ], [ 30.30845, 60.037434 ], [ 30.308426, 60.037466 ], [ 30.306758, 60.037477 ], [ 30.301888, 60.037552 ], [ 30.29722, 60.03704 ], [ 30.294172, 60.035794 ], [ 30.294091, 60.035708 ] ] ] } },
{ "type": "Feature", "properties": { "ID": null, "CENTER_LON": "30.300073481748054", "CENTER_LAT": "59.99462863252669", "AA_METERS": 1500, "AA_MODE": "foot-hiking", "TOTAL_POP": "82336", "lead_id": 16, "NUMPOINTS": 1.0 }, "geometry": { "type": "Polygon", "coordinates": [ [ [ 30.284857, 60.000704 ], [ 30.284205, 59.99896 ], [ 30.281056, 59.995545 ], [ 30.281, 59.995401 ], [ 30.282853, 59.990209 ], [ 30.282878, 59.987653 ], [ 30.283647, 59.986698 ], [ 30.284646, 59.986055 ], [ 30.287152, 59.984959 ], [ 30.291553, 59.983426 ], [ 30.293889, 59.982543 ], [ 30.294428, 59.982485 ], [ 30.299482, 59.981863 ], [ 30.302242, 59.98142 ], [ 30.30681, 59.982159 ], [ 30.309821, 59.982571 ], [ 30.310004, 59.982613 ], [ 30.31255, 59.984243 ], [ 30.313398, 59.984839 ], [ 30.317427, 59.988696 ], [ 30.319695, 59.992223 ], [ 30.320832, 59.994713 ], [ 30.321118, 59.99609 ], [ 30.320866, 59.997569 ], [ 30.320663, 59.998434 ], [ 30.318153, 60.00244 ], [ 30.314617, 60.003795 ], [ 30.3117, 60.005095 ], [ 30.30806, 60.006078 ], [ 30.307712, 60.006119 ], [ 30.302577, 60.006225 ], [ 30.299948, 60.008076 ], [ 30.299591, 60.008197 ], [ 30.297273, 60.008904 ], [ 30.297226, 60.0089 ], [ 30.296316, 60.008681 ], [ 30.293134, 60.007478 ], [ 30.289479, 60.00557 ], [ 30.288728, 60.005046 ], [ 30.286736, 60.003178 ], [ 30.284857, 60.000704 ] ] ] } },
{ "type": "Feature", "properties": { "ID": null, "CENTER_LON": "30.43288615661219", "CENTER_LAT": "59.99170377525853", "AA_METERS": 1500, "AA_MODE": "foot-hiking", "TOTAL_POP": "18655", "lead_id": 17, "NUMPOINTS": 0.0 }, "geometry": { "type": "Polygon", "coordinates": [ [ [ 30.408201, 59.995382 ], [ 30.408183, 59.995299 ], [ 30.408067, 59.994487 ], [ 30.408621, 59.992691 ], [ 30.409573, 59.988517 ], [ 30.413989, 59.984819 ], [ 30.414482, 59.984248 ], [ 30.418202, 59.980462 ], [ 30.419113, 59.979625 ], [ 30.419875, 59.978952 ], [ 30.420225, 59.978703 ], [ 30.420317, 59.978683 ], [ 30.420861, 59.978628 ], [ 30.425952, 59.978749 ], [ 30.42657, 59.979463 ], [ 30.430633, 59.983165 ], [ 30.43276, 59.982834 ], [ 30.438366, 59.983262 ], [ 30.440182, 59.981679 ], [ 30.440189, 59.981678 ], [ 30.442215, 59.982097 ], [ 30.44231, 59.982131 ], [ 30.44639, 59.98345 ], [ 30.44828, 59.983216 ], [ 30.450106, 59.984601 ], [ 30.45432, 59.986733 ], [ 30.455284, 59.987286 ], [ 30.457194, 59.988831 ], [ 30.457204, 59.988867 ], [ 30.45726, 59.989225 ], [ 30.457262, 59.989262 ], [ 30.455677, 59.991115 ], [ 30.452659, 59.991941 ], [ 30.450917, 59.991016 ], [ 30.446686, 59.993644 ], [ 30.446554, 59.994403 ], [ 30.446475, 59.995275 ], [ 30.446417, 59.995517 ], [ 30.446256, 59.996469 ], [ 30.445958, 60.000653 ], [ 30.445866, 60.001073 ], [ 30.445409, 60.004174 ], [ 30.445259, 60.004178 ], [ 30.44465, 60.004087 ], [ 30.443372, 60.003669 ], [ 30.438384, 60.005244 ], [ 30.43798, 60.00567 ], [ 30.43756, 60.005692 ], [ 30.433672, 60.005623 ], [ 30.429083, 60.004393 ], [ 30.426331, 60.004193 ], [ 30.42326, 60.003378 ], [ 30.420298, 60.002847 ], [ 30.419514, 60.002532 ], [ 30.414486, 59.999856 ], [ 30.411764, 59.9987 ], [ 30.408647, 59.996291 ], [ 30.408201, 59.995382 ] ] ] } },
{ "type": "Feature", "properties": { "ID": null, "CENTER_LON": "30.198186842195316", "CENTER_LAT": "59.982538378148156", "AA_METERS": 1500, "AA_MODE": "foot-hiking", "TOTAL_POP": "33392", "lead_id": 18, "NUMPOINTS": 2.0 }, "geometry": { "type": "Polygon", "coordinates": [ [ [ 30.180771, 59.987598 ], [ 30.180973, 59.987496 ], [ 30.182902, 59.987124 ], [ 30.186039, 59.987582 ], [ 30.18954, 59.983792 ], [ 30.189764, 59.983551 ], [ 30.193175, 59.982532 ], [ 30.198303, 59.981585 ], [ 30.198572, 59.981522 ], [ 30.203625, 59.980293 ], [ 30.204416, 59.979975 ], [ 30.204681, 59.979907 ], [ 30.207286, 59.979641 ], [ 30.211932, 59.976843 ], [ 30.212649, 59.976031 ], [ 30.212944, 59.975744 ], [ 30.213005, 59.975781 ], [ 30.218293, 59.977958 ], [ 30.219878, 59.977688 ], [ 30.223993, 59.9817 ], [ 30.225093, 59.983334 ], [ 30.225078, 59.983387 ], [ 30.22326, 59.985225 ], [ 30.221039, 59.986618 ], [ 30.218143, 59.989013 ], [ 30.214454, 59.989893 ], [ 30.214228, 59.989924 ], [ 30.208708, 59.992233 ], [ 30.208337, 59.992615 ], [ 30.205423, 59.994462 ], [ 30.204474, 59.994667 ], [ 30.20345, 59.994451 ], [ 30.198213, 59.993185 ], [ 30.196644, 59.992888 ], [ 30.196557, 59.992871 ], [ 30.193378, 59.990441 ], [ 30.190091, 59.990134 ], [ 30.187064, 59.991068 ], [ 30.185764, 59.991356 ], [ 30.185279, 59.991454 ], [ 30.184859, 59.991512 ], [ 30.184466, 59.991539 ], [ 30.183826, 59.991538 ], [ 30.182504, 59.991426 ], [ 30.180351, 59.991173 ], [ 30.180771, 59.987598 ] ] ] } }
]
}
