{
"type": "FeatureCollection",
"name": "sports_object",
"crs": { "type": "name", "properties": { "name": "urn:ogc:def:crs:OGC:1.3:CRS84" } },
"features": [
{ "type": "Feature", "properties": { "full_id": null, "osm_id": null, "osm_type": null, "leisure": null, "swimming_pool": null, "operator:type": null, "material": null, "bench:type": null, "telegram": null, "contact:telegram": null, "payment:mir": null, "landuse": null, "int_name": null, "payment:debit_cards": null, "payment:credit_cards": null, "internet_access:fee": null, "addr:floor": null, "backrest": null, "playground": null, "capacity": null, "bicycle_parking": null, "information": null, "covered": null, "board_type": null, "maxwidth": null, "contact:instagram": null, "start_date": null, "payment:cash": null, "payment:cards": null, "memorial": null, "inscription": null, "historic": null, "training": null, "amenity": null, "payment:visa_electron": null, "payment:maestro": null, "climbing:boulder": null, "ski:type": null, "ski:repair": null, "ski:rental": null, "shop": null, "addr:unit": null, "payment:visa": null, "payment:mastercard": null, "golf": null, "tourism": null, "internet_access": null, "motor_vehicle": null, "fee": null, "operator": null, "email": null, "check_date": null, "contact:vk": null, "addr:country": null, "addr:city": null, "surveillance": null, "man_made": null, "motorcycle": null, "motorcar": null, "horse": null, "addr:postcode": null, "indoor": null, "official_name": null, "bicycle": null, "access": null, "wheelchair": null, "vehicle": null, "foot": null, "phone": null, "addr:street": null, "addr:housenumber": null, "barrier": null, "alt_name": null, "level": null, "door": null, "description": null, "website": null, "sport": null, "name:ru": null, "name:en": null, "entrance": null, "opening_hours": null, "name": null, "contact:website": null, "contact:phone": null, "contact:email": null }, "geometry": { "type": "Point", "coordinates": [ 30.457786802658283, 59.947261603845831 ] } },
{ "type": "Feature", "properties": { "full_id": null, "osm_id": null, "osm_type": null, "leisure": null, "swimming_pool": null, "operator:type": null, "material": null, "bench:type": null, "telegram": null, "contact:telegram": null, "payment:mir": null, "landuse": null, "int_name": null, "payment:debit_cards": null, "payment:credit_cards": null, "internet_access:fee": null, "addr:floor": null, "backrest": null, "playground": null, "capacity": null, "bicycle_parking": null, "information": null, "covered": null, "board_type": null, "maxwidth": null, "contact:instagram": null, "start_date": null, "payment:cash": null, "payment:cards": null, "memorial": null, "inscription": null, "historic": null, "training": null, "amenity": null, "payment:visa_electron": null, "payment:maestro": null, "climbing:boulder": null, "ski:type": null, "ski:repair": null, "ski:rental": null, "shop": null, "addr:unit": null, "payment:visa": null, "payment:mastercard": null, "golf": null, "tourism": null, "internet_access": null, "motor_vehicle": null, "fee": null, "operator": null, "email": null, "check_date": null, "contact:vk": null, "addr:country": null, "addr:city": null, "surveillance": null, "man_made": null, "motorcycle": null, "motorcar": null, "horse": null, "addr:postcode": null, "indoor": null, "official_name": null, "bicycle": null, "access": null, "wheelchair": null, "vehicle": null, "foot": null, "phone": null, "addr:street": null, "addr:housenumber": null, "barrier": null, "alt_name": null, "level": null, "door": null, "description": null, "website": null, "sport": null, "name:ru": null, "name:en": null, "entrance": null, "opening_hours": null, "name": null, "contact:website": null, "contact:phone": null, "contact:email": null }, "geometry": { "type": "Point", "coordinates": [ 30.295333911510863, 60.022124514921991 ] } },
{ "type": "Feature", "properties": { "full_id": null, "osm_id": null, "osm_type": null, "leisure": null, "swimming_pool": null, "operator:type": null, "material": null, "bench:type": null, "telegram": null, "contact:telegram": null, "payment:mir": null, "landuse": null, "int_name": null, "payment:debit_cards": null, "payment:credit_cards": null, "internet_access:fee": null, "addr:floor": null, "backrest": null, "playground": null, "capacity": null, "bicycle_parking": null, "information": null, "covered": null, "board_type": null, "maxwidth": null, "contact:instagram": null, "start_date": null, "payment:cash": null, "payment:cards": null, "memorial": null, "inscription": null, "historic": null, "training": null, "amenity": null, "payment:visa_electron": null, "payment:maestro": null, "climbing:boulder": null, "ski:type": null, "ski:repair": null, "ski:rental": null, "shop": null, "addr:unit": null, "payment:visa": null, "payment:mastercard": null, "golf": null, "tourism": null, "internet_access": null, "motor_vehicle": null, "fee": null, "operator": null, "email": null, "check_date": null, "contact:vk": null, "addr:country": null, "addr:city": null, "surveillance": null, "man_made": null, "motorcycle": null, "motorcar": null, "horse": null, "addr:postcode": null, "indoor": null, "official_name": null, "bicycle": null, "access": null, "wheelchair": null, "vehicle": null, "foot": null, "phone": null, "addr:street": null, "addr:housenumber": null, "barrier": null, "alt_name": null, "level": null, "door": null, "description": null, "website": null, "sport": null, "name:ru": null, "name:en": null, "entrance": null, "opening_hours": null, "name": null, "contact:website": null, "contact:phone": null, "contact:email": null }, "geometry": { "type": "Point", "coordinates": [ 30.21813626345098, 59.999495152105126 ] } },
{ "type": "Feature", "properties": { "full_id": null, "osm_id": null, "osm_type": null, "leisure": null, "swimming_pool": null, "operator:type": null, "material": null, "bench:type": null, "telegram": null, "contact:telegram": null, "payment:mir": null, "landuse": null, "int_name": null, "payment:debit_cards": null, "payment:credit_cards": null, "internet_access:fee": null, "addr:floor": null, "backrest": null, "playground": null, "capacity": null, "bicycle_parking": null, "information": null, "covered": null, "board_type": null, "maxwidth": null, "contact:instagram": null, "start_date": null, "payment:cash": null, "payment:cards": null, "memorial": null, "inscription": null, "historic": null, "training": null, "amenity": null, "payment:visa_electron": null, "payment:maestro": null, "climbing:boulder": null, "ski:type": null, "ski:repair": null, "ski:rental": null, "shop": null, "addr:unit": null, "payment:visa": null, "payment:mastercard": null, "golf": null, "tourism": null, "internet_access": null, "motor_vehicle": null, "fee": null, "operator": null, "email": null, "check_date": null, "contact:vk": null, "addr:country": null, "addr:city": null, "surveillance": null, "man_made": null, "motorcycle": null, "motorcar": null, "horse": null, "addr:postcode": null, "indoor": null, "official_name": null, "bicycle": null, "access": null, "wheelchair": null, "vehicle": null, "foot": null, "phone": null, "addr:street": null, "addr:housenumber": null, "barrier": null, "alt_name": null, "level": null, "door": null, "description": null, "website": null, "sport": null, "name:ru": null, "name:en": null, "entrance": null, "opening_hours": null, "name": null, "contact:website": null, "contact:phone": null, "contact:email": null }, "geometry": { "type": "Point", "coordinates": [ 30.233876350378967, 60.011358809253188 ] } },
{ "type": "Feature", "properties": { "full_id": "n1722247156", "osm_id": "1722247156", "osm_type": "node", "leisure": "sports_centre", "swimming_pool": null, "operator:type": null, "material": null, "bench:type": null, "telegram": null, "contact:telegram": null, "payment:mir": null, "landuse": null, "int_name": null, "payment:debit_cards": null, "payment:credit_cards": null, "internet_access:fee": null, "addr:floor": null, "backrest": null, "playground": null, "capacity": null, "bicycle_parking": null, "information": null, "covered": null, "board_type": null, "maxwidth": null, "contact:instagram": null, "start_date": null, "payment:cash": null, "payment:cards": null, "memorial": null, "inscription": null, "historic": null, "training": null, "amenity": null, "payment:visa_electron": null, "payment:maestro": null, "climbing:boulder": null, "ski:type": null, "ski:repair": null, "ski:rental": null, "shop": null, "addr:unit": null, "payment:visa": null, "payment:mastercard": null, "golf": null, "tourism": null, "internet_access": null, "motor_vehicle": null, "fee": null, "operator": null, "email": null, "check_date": null, "contact:vk": null, "addr:country": null, "addr:city": null, "surveillance": null, "man_made": null, "motorcycle": null, "motorcar": null, "horse": null, "addr:postcode": null, "indoor": null, "official_name": null, "bicycle": null, "access": null, "wheelchair": null, "vehicle": null, "foot": null, "phone": null, "addr:street": null, "addr:housenumber": null, "barrier": null, "alt_name": null, "level": "3", "door": null, "description": null, "website": null, "sport": null, "name:ru": null, "name:en": null, "entrance": null, "opening_hours": null, "name": "ExstraSport", "contact:website": null, "contact:phone": null, "contact:email": null }, "geometry": { "type": "Point", "coordinates": [ 30.4752597, 59.9459727 ] } },
{ "type": "Feature", "properties": { "full_id": null, "osm_id": null, "osm_type": null, "leisure": null, "swimming_pool": null, "operator:type": null, "material": null, "bench:type": null, "telegram": null, "contact:telegram": null, "payment:mir": null, "landuse": null, "int_name": null, "payment:debit_cards": null, "payment:credit_cards": null, "internet_access:fee": null, "addr:floor": null, "backrest": null, "playground": null, "capacity": null, "bicycle_parking": null, "information": null, "covered": null, "board_type": null, "maxwidth": null, "contact:instagram": null, "start_date": null, "payment:cash": null, "payment:cards": null, "memorial": null, "inscription": null, "historic": null, "training": null, "amenity": null, "payment:visa_electron": null, "payment:maestro": null, "climbing:boulder": null, "ski:type": null, "ski:repair": null, "ski:rental": null, "shop": null, "addr:unit": null, "payment:visa": null, "payment:mastercard": null, "golf": null, "tourism": null, "internet_access": null, "motor_vehicle": null, "fee": null, "operator": null, "email": null, "check_date": null, "contact:vk": null, "addr:country": null, "addr:city": null, "surveillance": null, "man_made": null, "motorcycle": null, "motorcar": null, "horse": null, "addr:postcode": null, "indoor": null, "official_name": null, "bicycle": null, "access": null, "wheelchair": null, "vehicle": null, "foot": null, "phone": null, "addr:street": null, "addr:housenumber": null, "barrier": null, "alt_name": null, "level": null, "door": null, "description": null, "website": null, "sport": null, "name:ru": null, "name:en": null, "entrance": null, "opening_hours": null, "name": null, "contact:website": null, "contact:phone": null, "contact:email": null }, "geometry": { "type": "Point", "coordinates": [ 30.227684774706539, 60.023118570104216 ] } },
{ "type": "Feature", "properties": { "full_id": "n2127149503", "osm_id": "2127149503", "osm_type": "node", "leisure": null, "swimming_pool": null, "operator:type": null, "material": null, "bench:type": null, "telegram": null, "contact:telegram": null, "payment:mir": null, "landuse": null, "int_name": null, "payment:debit_cards": null, "payment:credit_cards": null, "internet_access:fee": null, "addr:floor": null, "backrest": null, "playground": null, "capacity": null, "bicycle_parking": null, "information": null, "covered": null, "board_type": null, "maxwidth": null, "contact:instagram": null, "start_date": null, "payment:cash": null, "payment:cards": null, "memorial": null, "inscription": null, "historic": null, "training": null, "amenity": null, "payment:visa_electron": null, "payment:maestro": null, "climbing:boulder": null, "ski:type": null, "ski:repair": null, "ski:rental": null, "shop": null, "addr:unit": null, "payment:visa": null, "payment:mastercard": null, "golf": null, "tourism": null, "internet_access": null, "motor_vehicle": null, "fee": null, "operator": null, "email": null, "check_date": null, "contact:vk": null, "addr:country": null, "addr:city": null, "surveillance": null, "man_made": null, "motorcycle": null, "motorcar": null, "horse": null, "addr:postcode": null, "indoor": null, "official_name": null, "bicycle": null, "access": null, "wheelchair": null, "vehicle": null, "foot": null, "phone": null, "addr:street": null, "addr:housenumber": null, "barrier": null, "alt_name": null, "level": null, "door": null, "description": null, "website": null, "sport": null, "name:ru": null, "name:en": null, "entrance": "yes", "opening_hours": null, "name": null, "contact:website": null, "contact:phone": null, "contact:email": null }, "geometry": { "type": "Point", "coordinates": [ 30.2632781, 60.0035524 ] } },
{ "type": "Feature", "properties": { "full_id": "n2479551600", "osm_id": "2479551600", "osm_type": "node", "leisure": "swimming_pool", "swimming_pool": null, "operator:type": null, "material": null, "bench:type": null, "telegram": null, "contact:telegram": null, "payment:mir": null, "landuse": null, "int_name": null, "payment:debit_cards": null, "payment:credit_cards": null, "internet_access:fee": null, "addr:floor": null, "backrest": null, "playground": null, "capacity": null, "bicycle_parking": null, "information": null, "covered": null, "board_type": null, "maxwidth": null, "contact:instagram": null, "start_date": null, "payment:cash": null, "payment:cards": null, "memorial": null, "inscription": null, "historic": null, "training": null, "amenity": null, "payment:visa_electron": null, "payment:maestro": null, "climbing:boulder": null, "ski:type": null, "ski:repair": null, "ski:rental": null, "shop": null, "addr:unit": null, "payment:visa": null, "payment:mastercard": null, "golf": null, "tourism": null, "internet_access": null, "motor_vehicle": null, "fee": null, "operator": null, "email": null, "check_date": null, "contact:vk": null, "addr:country": null, "addr:city": null, "surveillance": null, "man_made": null, "motorcycle": null, "motorcar": null, "horse": null, "addr:postcode": null, "indoor": null, "official_name": null, "bicycle": null, "access": null, "wheelchair": null, "vehicle": null, "foot": null, "phone": null, "addr:street": null, "addr:housenumber": null, "barrier": null, "alt_name": null, "level": null, "door": null, "description": null, "website": null, "sport": null, "name:ru": null, "name:en": null, "entrance": null, "opening_hours": null, "name": "Бассейн СДЮШОР Приморского района Санкт-Петербурга", "contact:website": null, "contact:phone": null, "contact:email": null }, "geometry": { "type": "Point", "coordinates": [ 30.2777028, 60.0126461 ] } },
{ "type": "Feature", "properties": { "full_id": "n2886520254", "osm_id": "2886520254", "osm_type": "node", "leisure": "sports_centre", "swimming_pool": null, "operator:type": null, "material": null, "bench:type": null, "telegram": null, "contact:telegram": null, "payment:mir": null, "landuse": null, "int_name": null, "payment:debit_cards": null, "payment:credit_cards": null, "internet_access:fee": null, "addr:floor": null, "backrest": null, "playground": null, "capacity": null, "bicycle_parking": null, "information": null, "covered": null, "board_type": null, "maxwidth": null, "contact:instagram": null, "start_date": null, "payment:cash": null, "payment:cards": null, "memorial": null, "inscription": null, "historic": null, "training": null, "amenity": null, "payment:visa_electron": null, "payment:maestro": null, "climbing:boulder": null, "ski:type": null, "ski:repair": null, "ski:rental": null, "shop": null, "addr:unit": null, "payment:visa": null, "payment:mastercard": null, "golf": null, "tourism": null, "internet_access": null, "motor_vehicle": null, "fee": null, "operator": null, "email": null, "check_date": null, "contact:vk": null, "addr:country": null, "addr:city": null, "surveillance": null, "man_made": null, "motorcycle": null, "motorcar": null, "horse": null, "addr:postcode": null, "indoor": null, "official_name": null, "bicycle": null, "access": null, "wheelchair": null, "vehicle": null, "foot": null, "phone": null, "addr:street": null, "addr:housenumber": null, "barrier": null, "alt_name": null, "level": null, "door": null, "description": null, "website": null, "sport": null, "name:ru": null, "name:en": null, "entrance": null, "opening_hours": null, "name": "Фитнес \"Индустриальный\"", "contact:website": null, "contact:phone": null, "contact:email": null }, "geometry": { "type": "Point", "coordinates": [ 30.4679312, 59.9533601 ] } },
{ "type": "Feature", "properties": { "full_id": null, "osm_id": null, "osm_type": null, "leisure": null, "swimming_pool": null, "operator:type": null, "material": null, "bench:type": null, "telegram": null, "contact:telegram": null, "payment:mir": null, "landuse": null, "int_name": null, "payment:debit_cards": null, "payment:credit_cards": null, "internet_access:fee": null, "addr:floor": null, "backrest": null, "playground": null, "capacity": null, "bicycle_parking": null, "information": null, "covered": null, "board_type": null, "maxwidth": null, "contact:instagram": null, "start_date": null, "payment:cash": null, "payment:cards": null, "memorial": null, "inscription": null, "historic": null, "training": null, "amenity": null, "payment:visa_electron": null, "payment:maestro": null, "climbing:boulder": null, "ski:type": null, "ski:repair": null, "ski:rental": null, "shop": null, "addr:unit": null, "payment:visa": null, "payment:mastercard": null, "golf": null, "tourism": null, "internet_access": null, "motor_vehicle": null, "fee": null, "operator": null, "email": null, "check_date": null, "contact:vk": null, "addr:country": null, "addr:city": null, "surveillance": null, "man_made": null, "motorcycle": null, "motorcar": null, "horse": null, "addr:postcode": null, "indoor": null, "official_name": null, "bicycle": null, "access": null, "wheelchair": null, "vehicle": null, "foot": null, "phone": null, "addr:street": null, "addr:housenumber": null, "barrier": null, "alt_name": null, "level": null, "door": null, "description": null, "website": null, "sport": null, "name:ru": null, "name:en": null, "entrance": null, "opening_hours": null, "name": null, "contact:website": null, "contact:phone": null, "contact:email": null }, "geometry": { "type": "Point", "coordinates": [ 30.459154267223973, 59.9445602512397 ] } },
{ "type": "Feature", "properties": { "full_id": "n3752815019", "osm_id": "3752815019", "osm_type": "node", "leisure": "sports_centre", "swimming_pool": null, "operator:type": null, "material": null, "bench:type": null, "telegram": null, "contact:telegram": null, "payment:mir": null, "landuse": null, "int_name": null, "payment:debit_cards": null, "payment:credit_cards": null, "internet_access:fee": null, "addr:floor": null, "backrest": null, "playground": null, "capacity": null, "bicycle_parking": null, "information": null, "covered": null, "board_type": null, "maxwidth": null, "contact:instagram": null, "start_date": null, "payment:cash": null, "payment:cards": null, "memorial": null, "inscription": null, "historic": null, "training": null, "amenity": null, "payment:visa_electron": null, "payment:maestro": null, "climbing:boulder": null, "ski:type": null, "ski:repair": null, "ski:rental": null, "shop": null, "addr:unit": null, "payment:visa": null, "payment:mastercard": null, "golf": null, "tourism": null, "internet_access": null, "motor_vehicle": null, "fee": null, "operator": null, "email": null, "check_date": null, "contact:vk": null, "addr:country": null, "addr:city": "Санкт-Петербург", "surveillance": null, "man_made": null, "motorcycle": null, "motorcar": null, "horse": null, "addr:postcode": "194362", "indoor": null, "official_name": null, "bicycle": null, "access": null, "wheelchair": null, "vehicle": null, "foot": null, "phone": null, "addr:street": "улица Фёдора Абрамова", "addr:housenumber": "8", "barrier": null, "alt_name": null, "level": "2", "door": null, "description": null, "website": "https://susaninfitness.ru/", "sport": null, "name:ru": null, "name:en": null, "entrance": null, "opening_hours": "Mo-Fr 07:00-00:00; Sa-Su 09:00-23:00", "name": "Susanin fitness", "contact:website": null, "contact:phone": null, "contact:email": null }, "geometry": { "type": "Point", "coordinates": [ 30.339639899212134, 60.074657172648813 ] } },
{ "type": "Feature", "properties": { "full_id": null, "osm_id": null, "osm_type": null, "leisure": null, "swimming_pool": null, "operator:type": null, "material": null, "bench:type": null, "telegram": null, "contact:telegram": null, "payment:mir": null, "landuse": null, "int_name": null, "payment:debit_cards": null, "payment:credit_cards": null, "internet_access:fee": null, "addr:floor": null, "backrest": null, "playground": null, "capacity": null, "bicycle_parking": null, "information": null, "covered": null, "board_type": null, "maxwidth": null, "contact:instagram": null, "start_date": null, "payment:cash": null, "payment:cards": null, "memorial": null, "inscription": null, "historic": null, "training": null, "amenity": null, "payment:visa_electron": null, "payment:maestro": null, "climbing:boulder": null, "ski:type": null, "ski:repair": null, "ski:rental": null, "shop": null, "addr:unit": null, "payment:visa": null, "payment:mastercard": null, "golf": null, "tourism": null, "internet_access": null, "motor_vehicle": null, "fee": null, "operator": null, "email": null, "check_date": null, "contact:vk": null, "addr:country": null, "addr:city": null, "surveillance": null, "man_made": null, "motorcycle": null, "motorcar": null, "horse": null, "addr:postcode": null, "indoor": null, "official_name": null, "bicycle": null, "access": null, "wheelchair": null, "vehicle": null, "foot": null, "phone": null, "addr:street": null, "addr:housenumber": null, "barrier": null, "alt_name": null, "level": null, "door": null, "description": null, "website": null, "sport": null, "name:ru": null, "name:en": null, "entrance": null, "opening_hours": null, "name": null, "contact:website": null, "contact:phone": null, "contact:email": null }, "geometry": { "type": "Point", "coordinates": [ 30.4328495668979, 59.937901047825612 ] } },
{ "type": "Feature", "properties": { "full_id": "n5674577097", "osm_id": "5674577097", "osm_type": "node", "leisure": "sports_centre", "swimming_pool": null, "operator:type": null, "material": null, "bench:type": null, "telegram": null, "contact:telegram": null, "payment:mir": null, "landuse": null, "int_name": null, "payment:debit_cards": null, "payment:credit_cards": null, "internet_access:fee": null, "addr:floor": null, "backrest": null, "playground": null, "capacity": null, "bicycle_parking": null, "information": null, "covered": null, "board_type": null, "maxwidth": null, "contact:instagram": null, "start_date": null, "payment:cash": null, "payment:cards": null, "memorial": null, "inscription": null, "historic": null, "training": null, "amenity": null, "payment:visa_electron": null, "payment:maestro": null, "climbing:boulder": "yes", "ski:type": null, "ski:repair": null, "ski:rental": null, "shop": null, "addr:unit": null, "payment:visa": null, "payment:mastercard": null, "golf": null, "tourism": null, "internet_access": null, "motor_vehicle": null, "fee": null, "operator": null, "email": null, "check_date": null, "contact:vk": "https://vk.com/tanren", "addr:country": null, "addr:city": null, "surveillance": null, "man_made": null, "motorcycle": null, "motorcar": null, "horse": null, "addr:postcode": null, "indoor": null, "official_name": null, "bicycle": null, "access": null, "wheelchair": null, "vehicle": null, "foot": null, "phone": null, "addr:street": null, "addr:housenumber": null, "barrier": null, "alt_name": null, "level": null, "door": null, "description": null, "website": null, "sport": "climbing", "name:ru": null, "name:en": null, "entrance": null, "opening_hours": null, "name": "Скалодром Танрэн", "contact:website": null, "contact:phone": null, "contact:email": null }, "geometry": { "type": "Point", "coordinates": [ 30.2545506, 60.0163655 ] } },
{ "type": "Feature", "properties": { "full_id": "n6255673938", "osm_id": "6255673938", "osm_type": "node", "leisure": "swimming_pool", "swimming_pool": null, "operator:type": null, "material": null, "bench:type": null, "telegram": null, "contact:telegram": null, "payment:mir": null, "landuse": null, "int_name": null, "payment:debit_cards": null, "payment:credit_cards": null, "internet_access:fee": null, "addr:floor": null, "backrest": null, "playground": null, "capacity": null, "bicycle_parking": null, "information": null, "covered": null, "board_type": null, "maxwidth": null, "contact:instagram": null, "start_date": null, "payment:cash": null, "payment:cards": null, "memorial": null, "inscription": null, "historic": null, "training": null, "amenity": null, "payment:visa_electron": null, "payment:maestro": null, "climbing:boulder": null, "ski:type": null, "ski:repair": null, "ski:rental": null, "shop": null, "addr:unit": null, "payment:visa": null, "payment:mastercard": null, "golf": null, "tourism": null, "internet_access": null, "motor_vehicle": null, "fee": null, "operator": null, "email": null, "check_date": null, "contact:vk": null, "addr:country": null, "addr:city": null, "surveillance": null, "man_made": null, "motorcycle": null, "motorcar": null, "horse": null, "addr:postcode": null, "indoor": "yes", "official_name": null, "bicycle": null, "access": null, "wheelchair": null, "vehicle": null, "foot": null, "phone": null, "addr:street": null, "addr:housenumber": null, "barrier": null, "alt_name": null, "level": null, "door": null, "description": null, "website": null, "sport": null, "name:ru": null, "name:en": null, "entrance": null, "opening_hours": null, "name": null, "contact:website": null, "contact:phone": null, "contact:email": null }, "geometry": { "type": "Point", "coordinates": [ 30.3120984, 60.0013899 ] } },
{ "type": "Feature", "properties": { "full_id": "n9994296285", "osm_id": "9994296285", "osm_type": "node", "leisure": null, "swimming_pool": null, "operator:type": null, "material": null, "bench:type": null, "telegram": null, "contact:telegram": null, "payment:mir": null, "landuse": null, "int_name": null, "payment:debit_cards": null, "payment:credit_cards": null, "internet_access:fee": null, "addr:floor": null, "backrest": null, "playground": null, "capacity": null, "bicycle_parking": null, "information": null, "covered": null, "board_type": null, "maxwidth": null, "contact:instagram": null, "start_date": null, "payment:cash": null, "payment:cards": null, "memorial": null, "inscription": null, "historic": null, "training": null, "amenity": null, "payment:visa_electron": null, "payment:maestro": null, "climbing:boulder": null, "ski:type": null, "ski:repair": null, "ski:rental": null, "shop": null, "addr:unit": null, "payment:visa": null, "payment:mastercard": null, "golf": null, "tourism": null, "internet_access": null, "motor_vehicle": null, "fee": null, "operator": null, "email": null, "check_date": null, "contact:vk": null, "addr:country": null, "addr:city": null, "surveillance": null, "man_made": null, "motorcycle": null, "motorcar": null, "horse": null, "addr:postcode": null, "indoor": null, "official_name": null, "bicycle": null, "access": "private", "wheelchair": null, "vehicle": null, "foot": null, "phone": null, "addr:street": null, "addr:housenumber": null, "barrier": "gate", "alt_name": null, "level": null, "door": null, "description": null, "website": null, "sport": null, "name:ru": null, "name:en": null, "entrance": null, "opening_hours": null, "name": null, "contact:website": null, "contact:phone": null, "contact:email": null }, "geometry": { "type": "Point", "coordinates": [ 30.4995349, 59.9496928 ] } },
{ "type": "Feature", "properties": { "full_id": "n10210589732", "osm_id": "10210589732", "osm_type": "node", "leisure": "sports_centre", "swimming_pool": null, "operator:type": null, "material": null, "bench:type": null, "telegram": null, "contact:telegram": null, "payment:mir": null, "landuse": null, "int_name": null, "payment:debit_cards": null, "payment:credit_cards": null, "internet_access:fee": null, "addr:floor": null, "backrest": null, "playground": null, "capacity": null, "bicycle_parking": null, "information": null, "covered": null, "board_type": null, "maxwidth": null, "contact:instagram": null, "start_date": null, "payment:cash": null, "payment:cards": null, "memorial": null, "inscription": null, "historic": null, "training": null, "amenity": null, "payment:visa_electron": null, "payment:maestro": null, "climbing:boulder": null, "ski:type": null, "ski:repair": null, "ski:rental": null, "shop": null, "addr:unit": null, "payment:visa": null, "payment:mastercard": null, "golf": null, "tourism": null, "internet_access": null, "motor_vehicle": null, "fee": null, "operator": null, "email": null, "check_date": null, "contact:vk": null, "addr:country": null, "addr:city": null, "surveillance": null, "man_made": null, "motorcycle": null, "motorcar": null, "horse": null, "addr:postcode": null, "indoor": null, "official_name": null, "bicycle": null, "access": null, "wheelchair": null, "vehicle": null, "foot": null, "phone": null, "addr:street": null, "addr:housenumber": null, "barrier": null, "alt_name": null, "level": null, "door": null, "description": null, "website": "www.curlingcenter.ru", "sport": "curling", "name:ru": null, "name:en": null, "entrance": null, "opening_hours": "Mo-Su 08:00-22:00", "name": "Центр Кёрлинга", "contact:website": null, "contact:phone": null, "contact:email": null }, "geometry": { "type": "Point", "coordinates": [ 30.4847431, 59.961598 ] } },
{ "type": "Feature", "properties": { "full_id": "n10537504595", "osm_id": "10537504595", "osm_type": "node", "leisure": "sports_centre", "swimming_pool": null, "operator:type": null, "material": null, "bench:type": null, "telegram": null, "contact:telegram": null, "payment:mir": "yes", "landuse": null, "int_name": null, "payment:debit_cards": null, "payment:credit_cards": null, "internet_access:fee": null, "addr:floor": null, "backrest": null, "playground": null, "capacity": null, "bicycle_parking": null, "information": null, "covered": null, "board_type": null, "maxwidth": null, "contact:instagram": null, "start_date": null, "payment:cash": "yes", "payment:cards": null, "memorial": null, "inscription": null, "historic": null, "training": null, "amenity": null, "payment:visa_electron": null, "payment:maestro": null, "climbing:boulder": null, "ski:type": null, "ski:repair": null, "ski:rental": null, "shop": null, "addr:unit": null, "payment:visa": "yes", "payment:mastercard": "yes", "golf": null, "tourism": null, "internet_access": "no", "motor_vehicle": null, "fee": null, "operator": null, "email": null, "check_date": "2023-01-10", "contact:vk": null, "addr:country": null, "addr:city": null, "surveillance": null, "man_made": null, "motorcycle": null, "motorcar": null, "horse": null, "addr:postcode": null, "indoor": null, "official_name": null, "bicycle": null, "access": null, "wheelchair": "limited", "vehicle": null, "foot": null, "phone": null, "addr:street": "улица Ильюшина", "addr:housenumber": "5 к2", "barrier": null, "alt_name": null, "level": null, "door": null, "description": null, "website": null, "sport": "gymnastics", "name:ru": "Джим Кидс", "name:en": "Gym Kids", "entrance": null, "opening_hours": "Mo-Fr 10:00-20:00; Sa, Su 10:00-18:00", "name": "Monkey Fly", "contact:website": "https://kom.monkey-fly.ru", "contact:phone": "+7 812 614-13-20", "contact:email": null }, "geometry": { "type": "Point", "coordinates": [ 30.2518299, 60.0088781 ] } },
{ "type": "Feature", "properties": { "full_id": "n10844067624", "osm_id": "10844067624", "osm_type": "node", "leisure": "sports_centre", "swimming_pool": null, "operator:type": null, "material": null, "bench:type": null, "telegram": null, "contact:telegram": null, "payment:mir": null, "landuse": null, "int_name": null, "payment:debit_cards": null, "payment:credit_cards": null, "internet_access:fee": null, "addr:floor": null, "backrest": null, "playground": null, "capacity": null, "bicycle_parking": null, "information": null, "covered": null, "board_type": null, "maxwidth": null, "contact:instagram": null, "start_date": null, "payment:cash": null, "payment:cards": null, "memorial": null, "inscription": null, "historic": null, "training": null, "amenity": null, "payment:visa_electron": null, "payment:maestro": null, "climbing:boulder": null, "ski:type": null, "ski:repair": null, "ski:rental": null, "shop": null, "addr:unit": null, "payment:visa": null, "payment:mastercard": null, "golf": null, "tourism": null, "internet_access": null, "motor_vehicle": null, "fee": null, "operator": null, "email": null, "check_date": null, "contact:vk": null, "addr:country": null, "addr:city": null, "surveillance": null, "man_made": null, "motorcycle": null, "motorcar": null, "horse": null, "addr:postcode": null, "indoor": null, "official_name": null, "bicycle": null, "access": null, "wheelchair": null, "vehicle": null, "foot": null, "phone": null, "addr:street": null, "addr:housenumber": null, "barrier": null, "alt_name": null, "level": null, "door": null, "description": null, "website": null, "sport": "tennis", "name:ru": null, "name:en": null, "entrance": null, "opening_hours": "Mo-Su 08:00-23:00", "name": "Фреш-теннис", "contact:website": "https://vk.link/spb.tennis", "contact:phone": "+7 812 3314675;+7 812 3341444", "contact:email": null }, "geometry": { "type": "Point", "coordinates": [ 30.3181856, 60.0346917 ] } },
{ "type": "Feature", "properties": { "full_id": "n11007408885", "osm_id": "11007408885", "osm_type": "node", "leisure": null, "swimming_pool": null, "operator:type": null, "material": null, "bench:type": null, "telegram": null, "contact:telegram": null, "payment:mir": null, "landuse": null, "int_name": null, "payment:debit_cards": null, "payment:credit_cards": null, "internet_access:fee": null, "addr:floor": null, "backrest": null, "playground": null, "capacity": null, "bicycle_parking": null, "information": null, "covered": null, "board_type": null, "maxwidth": null, "contact:instagram": null, "start_date": null, "payment:cash": null, "payment:cards": null, "memorial": null, "inscription": null, "historic": null, "training": null, "amenity": null, "payment:visa_electron": null, "payment:maestro": null, "climbing:boulder": null, "ski:type": null, "ski:repair": null, "ski:rental": null, "shop": null, "addr:unit": null, "payment:visa": null, "payment:mastercard": null, "golf": null, "tourism": null, "internet_access": null, "motor_vehicle": null, "fee": null, "operator": null, "email": null, "check_date": null, "contact:vk": null, "addr:country": null, "addr:city": null, "surveillance": null, "man_made": null, "motorcycle": null, "motorcar": null, "horse": null, "addr:postcode": null, "indoor": null, "official_name": null, "bicycle": null, "access": null, "wheelchair": null, "vehicle": null, "foot": null, "phone": null, "addr:street": null, "addr:housenumber": null, "barrier": "gate", "alt_name": null, "level": null, "door": null, "description": null, "website": null, "sport": null, "name:ru": null, "name:en": null, "entrance": null, "opening_hours": null, "name": null, "contact:website": null, "contact:phone": null, "contact:email": null }, "geometry": { "type": "Point", "coordinates": [ 30.493566, 59.958216 ] } },
{ "type": "Feature", "properties": { "full_id": "n11104673362", "osm_id": "11104673362", "osm_type": "node", "leisure": "sports_centre", "swimming_pool": null, "operator:type": null, "material": null, "bench:type": null, "telegram": null, "contact:telegram": null, "payment:mir": null, "landuse": null, "int_name": null, "payment:debit_cards": null, "payment:credit_cards": null, "internet_access:fee": null, "addr:floor": null, "backrest": null, "playground": null, "capacity": null, "bicycle_parking": null, "information": null, "covered": null, "board_type": null, "maxwidth": null, "contact:instagram": null, "start_date": null, "payment:cash": null, "payment:cards": null, "memorial": null, "inscription": null, "historic": null, "training": null, "amenity": null, "payment:visa_electron": null, "payment:maestro": null, "climbing:boulder": null, "ski:type": null, "ski:repair": null, "ski:rental": null, "shop": null, "addr:unit": null, "payment:visa": null, "payment:mastercard": null, "golf": null, "tourism": null, "internet_access": null, "motor_vehicle": null, "fee": null, "operator": null, "email": null, "check_date": null, "contact:vk": null, "addr:country": null, "addr:city": null, "surveillance": null, "man_made": null, "motorcycle": null, "motorcar": null, "horse": null, "addr:postcode": null, "indoor": null, "official_name": null, "bicycle": null, "access": null, "wheelchair": null, "vehicle": null, "foot": null, "phone": null, "addr:street": null, "addr:housenumber": null, "barrier": null, "alt_name": null, "level": null, "door": null, "description": null, "website": null, "sport": null, "name:ru": null, "name:en": null, "entrance": null, "opening_hours": "Mo-Fr 10:00-20:00; Sa-Su 10:00-16:00", "name": "Bambini Gym", "contact:website": "https://bambinigym.ru", "contact:phone": "+7 812 6128312", "contact:email": "urafizra@yandex.ru" }, "geometry": { "type": "Point", "coordinates": [ 30.2282328, 60.0329908 ] } },
{ "type": "Feature", "properties": { "full_id": "n11608384884", "osm_id": "11608384884", "osm_type": "node", "leisure": null, "swimming_pool": null, "operator:type": null, "material": null, "bench:type": null, "telegram": null, "contact:telegram": null, "payment:mir": null, "landuse": null, "int_name": null, "payment:debit_cards": null, "payment:credit_cards": null, "internet_access:fee": null, "addr:floor": null, "backrest": null, "playground": null, "capacity": null, "bicycle_parking": null, "information": null, "covered": null, "board_type": null, "maxwidth": null, "contact:instagram": null, "start_date": null, "payment:cash": null, "payment:cards": null, "memorial": null, "inscription": null, "historic": null, "training": null, "amenity": null, "payment:visa_electron": null, "payment:maestro": null, "climbing:boulder": null, "ski:type": null, "ski:repair": null, "ski:rental": null, "shop": null, "addr:unit": null, "payment:visa": null, "payment:mastercard": null, "golf": null, "tourism": null, "internet_access": null, "motor_vehicle": null, "fee": null, "operator": null, "email": null, "check_date": null, "contact:vk": null, "addr:country": null, "addr:city": null, "surveillance": null, "man_made": null, "motorcycle": null, "motorcar": null, "horse": null, "addr:postcode": null, "indoor": null, "official_name": null, "bicycle": null, "access": null, "wheelchair": null, "vehicle": null, "foot": null, "phone": null, "addr:street": null, "addr:housenumber": null, "barrier": "gate", "alt_name": null, "level": null, "door": null, "description": null, "website": null, "sport": null, "name:ru": null, "name:en": null, "entrance": null, "opening_hours": null, "name": null, "contact:website": null, "contact:phone": null, "contact:email": null }, "geometry": { "type": "Point", "coordinates": [ 30.196209, 59.987735 ] } },
{ "type": "Feature", "properties": { "full_id": "n12357639806", "osm_id": "12357639806", "osm_type": "node", "leisure": "sports_centre", "swimming_pool": null, "operator:type": null, "material": null, "bench:type": null, "telegram": null, "contact:telegram": null, "payment:mir": null, "landuse": null, "int_name": null, "payment:debit_cards": null, "payment:credit_cards": null, "internet_access:fee": null, "addr:floor": null, "backrest": null, "playground": null, "capacity": null, "bicycle_parking": null, "information": null, "covered": null, "board_type": null, "maxwidth": null, "contact:instagram": null, "start_date": null, "payment:cash": null, "payment:cards": null, "memorial": null, "inscription": null, "historic": null, "training": null, "amenity": null, "payment:visa_electron": null, "payment:maestro": null, "climbing:boulder": null, "ski:type": null, "ski:repair": null, "ski:rental": null, "shop": null, "addr:unit": null, "payment:visa": null, "payment:mastercard": null, "golf": null, "tourism": null, "internet_access": null, "motor_vehicle": null, "fee": null, "operator": null, "email": null, "check_date": null, "contact:vk": null, "addr:country": null, "addr:city": null, "surveillance": null, "man_made": null, "motorcycle": null, "motorcar": null, "horse": null, "addr:postcode": null, "indoor": null, "official_name": null, "bicycle": null, "access": null, "wheelchair": null, "vehicle": null, "foot": null, "phone": null, "addr:street": null, "addr:housenumber": null, "barrier": null, "alt_name": null, "level": null, "door": null, "description": null, "website": null, "sport": null, "name:ru": null, "name:en": null, "entrance": null, "opening_hours": "Sa 11:00-13:30; Tu,Th 18:00-20:30", "name": "Piratas BJJ academy", "contact:website": "https://piratasbjj.ru", "contact:phone": "+7 812 3095162;+7 965 0167006", "contact:email": "Piratas.academy@gmail.com" }, "geometry": { "type": "Point", "coordinates": [ 30.3179151, 60.0324321 ] } },
{ "type": "Feature", "properties": { "full_id": "n12357639808", "osm_id": "12357639808", "osm_type": "node", "leisure": "sports_centre", "swimming_pool": null, "operator:type": null, "material": null, "bench:type": null, "telegram": null, "contact:telegram": null, "payment:mir": null, "landuse": null, "int_name": null, "payment:debit_cards": null, "payment:credit_cards": null, "internet_access:fee": null, "addr:floor": null, "backrest": null, "playground": null, "capacity": null, "bicycle_parking": null, "information": null, "covered": null, "board_type": null, "maxwidth": null, "contact:instagram": null, "start_date": null, "payment:cash": null, "payment:cards": null, "memorial": null, "inscription": null, "historic": null, "training": null, "amenity": null, "payment:visa_electron": null, "payment:maestro": null, "climbing:boulder": null, "ski:type": null, "ski:repair": null, "ski:rental": null, "shop": null, "addr:unit": null, "payment:visa": null, "payment:mastercard": null, "golf": null, "tourism": null, "internet_access": null, "motor_vehicle": null, "fee": null, "operator": null, "email": null, "check_date": null, "contact:vk": null, "addr:country": null, "addr:city": null, "surveillance": null, "man_made": null, "motorcycle": null, "motorcar": null, "horse": null, "addr:postcode": null, "indoor": null, "official_name": null, "bicycle": null, "access": null, "wheelchair": null, "vehicle": null, "foot": null, "phone": null, "addr:street": null, "addr:housenumber": null, "barrier": null, "alt_name": null, "level": null, "door": null, "description": null, "website": null, "sport": null, "name:ru": null, "name:en": null, "entrance": null, "opening_hours": "Mo,We,Fr 09:00-10:30,18:00-21:30", "name": "Piratas BJJ academy", "contact:website": "https://piratasbjj.ru", "contact:phone": "+7 953 1414854;+7 965 0167006", "contact:email": "Piratas.academy@gmail.com" }, "geometry": { "type": "Point", "coordinates": [ 30.2171821, 59.9861502 ] } },
{ "type": "Feature", "properties": { "full_id": "n12475897401", "osm_id": "12475897401", "osm_type": "node", "leisure": null, "swimming_pool": null, "operator:type": null, "material": null, "bench:type": null, "telegram": null, "contact:telegram": null, "payment:mir": null, "landuse": null, "int_name": null, "payment:debit_cards": null, "payment:credit_cards": null, "internet_access:fee": null, "addr:floor": null, "backrest": null, "playground": null, "capacity": null, "bicycle_parking": null, "information": null, "covered": null, "board_type": null, "maxwidth": null, "contact:instagram": null, "start_date": null, "payment:cash": null, "payment:cards": null, "memorial": null, "inscription": null, "historic": null, "training": null, "amenity": null, "payment:visa_electron": null, "payment:maestro": null, "climbing:boulder": null, "ski:type": null, "ski:repair": null, "ski:rental": null, "shop": null, "addr:unit": null, "payment:visa": null, "payment:mastercard": null, "golf": null, "tourism": null, "internet_access": null, "motor_vehicle": null, "fee": null, "operator": null, "email": null, "check_date": null, "contact:vk": null, "addr:country": null, "addr:city": null, "surveillance": null, "man_made": null, "motorcycle": null, "motorcar": null, "horse": null, "addr:postcode": null, "indoor": null, "official_name": null, "bicycle": null, "access": null, "wheelchair": null, "vehicle": null, "foot": null, "phone": null, "addr:street": null, "addr:housenumber": null, "barrier": "gate", "alt_name": null, "level": null, "door": null, "description": null, "website": null, "sport": null, "name:ru": null, "name:en": null, "entrance": null, "opening_hours": null, "name": null, "contact:website": null, "contact:phone": null, "contact:email": null }, "geometry": { "type": "Point", "coordinates": [ 30.258328, 60.0015359 ] } },
{ "type": "Feature", "properties": { "full_id": "n13536307485", "osm_id": "13536307485", "osm_type": "node", "leisure": "sports_centre", "swimming_pool": null, "operator:type": null, "material": null, "bench:type": null, "telegram": null, "contact:telegram": null, "payment:mir": null, "landuse": null, "int_name": null, "payment:debit_cards": null, "payment:credit_cards": null, "internet_access:fee": null, "addr:floor": null, "backrest": null, "playground": null, "capacity": null, "bicycle_parking": null, "information": null, "covered": null, "board_type": null, "maxwidth": null, "contact:instagram": null, "start_date": null, "payment:cash": null, "payment:cards": null, "memorial": null, "inscription": null, "historic": null, "training": null, "amenity": null, "payment:visa_electron": null, "payment:maestro": null, "climbing:boulder": null, "ski:type": null, "ski:repair": null, "ski:rental": null, "shop": null, "addr:unit": null, "payment:visa": null, "payment:mastercard": null, "golf": null, "tourism": null, "internet_access": null, "motor_vehicle": null, "fee": null, "operator": null, "email": "Spectre.22@yandex.ru", "check_date": null, "contact:vk": "https://vk.com/spectre22", "addr:country": null, "addr:city": null, "surveillance": null, "man_made": null, "motorcycle": null, "motorcar": null, "horse": null, "addr:postcode": null, "indoor": null, "official_name": null, "bicycle": null, "access": null, "wheelchair": null, "vehicle": null, "foot": null, "phone": "+7 982 3921697", "addr:street": null, "addr:housenumber": null, "barrier": null, "alt_name": null, "level": null, "door": null, "description": null, "website": null, "sport": "soccer", "name:ru": null, "name:en": null, "entrance": null, "opening_hours": "Mo-Su 10:00-23:00", "name": "Спектр", "contact:website": null, "contact:phone": null, "contact:email": null }, "geometry": { "type": "Point", "coordinates": [ 30.235271, 59.992623 ] } },
{ "type": "Feature", "properties": { "full_id": null, "osm_id": null, "osm_type": null, "leisure": null, "swimming_pool": null, "operator:type": null, "material": null, "bench:type": null, "telegram": null, "contact:telegram": null, "payment:mir": null, "landuse": null, "int_name": null, "payment:debit_cards": null, "payment:credit_cards": null, "internet_access:fee": null, "addr:floor": null, "backrest": null, "playground": null, "capacity": null, "bicycle_parking": null, "information": null, "covered": null, "board_type": null, "maxwidth": null, "contact:instagram": null, "start_date": null, "payment:cash": null, "payment:cards": null, "memorial": null, "inscription": null, "historic": null, "training": null, "amenity": null, "payment:visa_electron": null, "payment:maestro": null, "climbing:boulder": null, "ski:type": null, "ski:repair": null, "ski:rental": null, "shop": null, "addr:unit": null, "payment:visa": null, "payment:mastercard": null, "golf": null, "tourism": null, "internet_access": null, "motor_vehicle": null, "fee": null, "operator": null, "email": null, "check_date": null, "contact:vk": null, "addr:country": null, "addr:city": null, "surveillance": null, "man_made": null, "motorcycle": null, "motorcar": null, "horse": null, "addr:postcode": null, "indoor": null, "official_name": null, "bicycle": null, "access": null, "wheelchair": null, "vehicle": null, "foot": null, "phone": null, "addr:street": null, "addr:housenumber": null, "barrier": null, "alt_name": null, "level": null, "door": null, "description": null, "website": null, "sport": null, "name:ru": null, "name:en": null, "entrance": null, "opening_hours": null, "name": null, "contact:website": null, "contact:phone": null, "contact:email": null }, "geometry": { "type": "Point", "coordinates": [ 30.270315957356022, 59.99604836321042 ] } }
]
}
