{
"type": "FeatureCollection",
"name": "Vyborgskiy_district",
"crs": { "type": "name", "properties": { "name": "urn:ogc:def:crs:OGC:1.3:CRS84" } },
"features": [
{ "type": "Feature", "properties": { "full_id": "r1138534", "osm_id": "1138534", "osm_type": "relation", "boundary": "administrative", "name:de": null, "addr:postcode": null, "old_name": null, "url": null, "place": null, "name:ru": null, "name:fi": null, "name:en": null, "wikipedia": "ru:Сампсониевское", "wikidata": "Q3470932", "type": "boundary", "ref": "12", "official_status": "ru:внутригородская территория города федерального значения", "official_name": "муниципальный округ Сампсониевское", "name:uk": "Округ Сампсоніївське", "name": "округ Сампсониевское", "contact:website": "http://www.mo-12.ru", "admin_level": "8", "addr:region": "Санкт-Петербург", "addr:country": "RU" }, "geometry": { "type": "MultiPolygon", "coordinates": [ [ [ [ 30.3674381, 59.9776304 ], [ 30.3675253, 59.9776414 ], [ 30.3674902, 59.9777015 ], [ 30.3670518, 59.978452 ], [ 30.3670293, 59.9784906 ], [ 30.3670152, 59.9785224 ], [ 30.3668032, 59.9789996 ], [ 30.366711, 59.9792071 ], [ 30.3661646, 59.9801343 ], [ 30.3661514, 59.9801498 ], [ 30.3656302, 59.9807613 ], [ 30.365261, 59.9811716 ], [ 30.3650403, 59.9814169 ], [ 30.3642725, 59.9821735 ], [ 30.3636049, 59.9828314 ], [ 30.3628784, 59.9835474 ], [ 30.3627118, 59.9837116 ], [ 30.3626837, 59.9837322 ], [ 30.3625111, 59.9838585 ], [ 30.3622196, 59.9840159 ], [ 30.3612777, 59.9845246 ], [ 30.3584655, 59.9860431 ], [ 30.3579241, 59.9863355 ], [ 30.3576604, 59.9864779 ], [ 30.3575104, 59.9865691 ], [ 30.3573954, 59.9866293 ], [ 30.3571453, 59.9867548 ], [ 30.3568244, 59.9869206 ], [ 30.3558966, 59.9874379 ], [ 30.3556223, 59.9875909 ], [ 30.355017, 59.9879181 ], [ 30.3543785, 59.9882575 ], [ 30.3539199, 59.9884999 ], [ 30.3529993, 59.9889936 ], [ 30.3528164, 59.9890859 ], [ 30.3522991, 59.989356 ], [ 30.3521572, 59.9894206 ], [ 30.3520224, 59.9894774 ], [ 30.3519522, 59.9895064 ], [ 30.3516941, 59.9896025 ], [ 30.3513957, 59.9896959 ], [ 30.3511361, 59.9897534 ], [ 30.3508761, 59.9898076 ], [ 30.350563, 59.9898536 ], [ 30.3500954, 59.9898912 ], [ 30.3496622, 59.9899 ], [ 30.3476211, 59.9898209 ], [ 30.3473983, 59.9898004 ], [ 30.3472746, 59.9898125 ], [ 30.3470623, 59.989864 ], [ 30.3470188, 59.9899186 ], [ 30.3469962, 59.989947 ], [ 30.3470533, 59.9900633 ], [ 30.3470842, 59.9901159 ], [ 30.3470134, 59.9901301 ], [ 30.3467948, 59.9901855 ], [ 30.3464851, 59.9902481 ], [ 30.3443276, 59.9901335 ], [ 30.3439736, 59.9900297 ], [ 30.34379, 59.990037 ], [ 30.3433958, 59.9900896 ], [ 30.3403161, 59.9899431 ], [ 30.3401972, 59.9898916 ], [ 30.3400055, 59.9898606 ], [ 30.3397881, 59.9903607 ], [ 30.3394865, 59.9910937 ], [ 30.3390098, 59.9923136 ], [ 30.3389439, 59.9924226 ], [ 30.3388813, 59.9924765 ], [ 30.3382294, 59.9927755 ], [ 30.3377766, 59.9929772 ], [ 30.3374647, 59.9929476 ], [ 30.336297, 59.9928303 ], [ 30.3356465, 59.9927729 ], [ 30.3354168, 59.9927531 ], [ 30.3345517, 59.9926706 ], [ 30.3341054, 59.9926108 ], [ 30.3331125, 59.9925333 ], [ 30.3322699, 59.9924536 ], [ 30.3321533, 59.9924409 ], [ 30.3320773, 59.9924326 ], [ 30.3312167, 59.9945639 ], [ 30.3310791, 59.994894 ], [ 30.3288066, 59.9943067 ], [ 30.3284834, 59.9942217 ], [ 30.3281196, 59.9941261 ], [ 30.3263572, 59.9936913 ], [ 30.3263993, 59.9936588 ], [ 30.3265957, 59.9934889 ], [ 30.3269112, 59.9931616 ], [ 30.3269369, 59.9931352 ], [ 30.3269728, 59.9930982 ], [ 30.3270177, 59.9930487 ], [ 30.327031, 59.9930341 ], [ 30.3270858, 59.9929692 ], [ 30.3271373, 59.9929036 ], [ 30.3271853, 59.9928374 ], [ 30.3272298, 59.9927705 ], [ 30.3272708, 59.9927032 ], [ 30.3272812, 59.9926843 ], [ 30.3273082, 59.9926352 ], [ 30.3273421, 59.9925669 ], [ 30.3275871, 59.9920437 ], [ 30.3276632, 59.9918905 ], [ 30.3278344, 59.9915271 ], [ 30.3279978, 59.9911803 ], [ 30.3280198, 59.9911335 ], [ 30.3284203, 59.9902833 ], [ 30.3285065, 59.9901002 ], [ 30.3285631, 59.9899908 ], [ 30.3286168, 59.9898749 ], [ 30.3288124, 59.9894535 ], [ 30.3290306, 59.9889835 ], [ 30.3290935, 59.988848 ], [ 30.3291752, 59.9886719 ], [ 30.3292353, 59.9885424 ], [ 30.3292846, 59.9884362 ], [ 30.3295166, 59.9879363 ], [ 30.329949, 59.9870047 ], [ 30.330131, 59.986611 ], [ 30.3301465, 59.9865792 ], [ 30.330777, 59.9852073 ], [ 30.3307792, 59.9851096 ], [ 30.3307304, 59.9850094 ], [ 30.330709, 59.9849838 ], [ 30.330318, 59.9850671 ], [ 30.3302964, 59.9850413 ], [ 30.3302551, 59.9849851 ], [ 30.3301918, 59.9848992 ], [ 30.3301455, 59.9848363 ], [ 30.3296123, 59.984183 ], [ 30.3298608, 59.9835159 ], [ 30.3307264, 59.9830341 ], [ 30.3309025, 59.9829237 ], [ 30.331085, 59.9828094 ], [ 30.3311513, 59.9827723 ], [ 30.3241104, 59.9796575 ], [ 30.323785, 59.9794956 ], [ 30.3236132, 59.9794106 ], [ 30.321754, 59.9784684 ], [ 30.3243158, 59.9773926 ], [ 30.3265248, 59.9762695 ], [ 30.3281352, 59.9752807 ], [ 30.3300763, 59.9736439 ], [ 30.3318113, 59.9715879 ], [ 30.3347022, 59.9674866 ], [ 30.3349604, 59.9671193 ], [ 30.3359944, 59.9651777 ], [ 30.3367621, 59.9604792 ], [ 30.3377014, 59.9573264 ], [ 30.3392661, 59.9554079 ], [ 30.3402206, 59.9546543 ], [ 30.3423533, 59.9535159 ], [ 30.3454149, 59.9522432 ], [ 30.3495316, 59.9519993 ], [ 30.3500329, 59.954067 ], [ 30.3500931, 59.954247 ], [ 30.3501862, 59.954417 ], [ 30.3510756, 59.9556688 ], [ 30.3512895, 59.9559671 ], [ 30.3527109, 59.9579444 ], [ 30.3529653, 59.9582636 ], [ 30.353569, 59.9592033 ], [ 30.3539485, 59.9597902 ], [ 30.3539686, 59.9598427 ], [ 30.3539719, 59.9599116 ], [ 30.3539505, 59.9599868 ], [ 30.3539237, 59.9600674 ], [ 30.3537766, 59.9602637 ], [ 30.3537524, 59.9602959 ], [ 30.3535495, 59.9605656 ], [ 30.3531488, 59.961094 ], [ 30.3529576, 59.9613532 ], [ 30.3528078, 59.9615564 ], [ 30.3526306, 59.9617757 ], [ 30.3524782, 59.9619643 ], [ 30.3523828, 59.9620894 ], [ 30.3521802, 59.9623553 ], [ 30.3520719, 59.9625006 ], [ 30.3519782, 59.9626314 ], [ 30.3518945, 59.9627701 ], [ 30.3517745, 59.9630591 ], [ 30.3514732, 59.9637845 ], [ 30.3513304, 59.9641284 ], [ 30.3512898, 59.9642273 ], [ 30.3509374, 59.9650546 ], [ 30.3508736, 59.965224 ], [ 30.350824, 59.9653484 ], [ 30.3507791, 59.9654651 ], [ 30.3507433, 59.9655504 ], [ 30.3506055, 59.9658921 ], [ 30.3504388, 59.9663154 ], [ 30.3504018, 59.9664036 ], [ 30.3503802, 59.966451 ], [ 30.3502857, 59.9666876 ], [ 30.3500595, 59.9672542 ], [ 30.3499953, 59.9674071 ], [ 30.3499489, 59.9675265 ], [ 30.3498975, 59.9676529 ], [ 30.349802, 59.9678872 ], [ 30.3497624, 59.9679838 ], [ 30.3489592, 59.9697627 ], [ 30.3489099, 59.9698754 ], [ 30.3487459, 59.9702308 ], [ 30.3481084, 59.9716221 ], [ 30.3480036, 59.9718443 ], [ 30.3474998, 59.9729815 ], [ 30.3474296, 59.9731321 ], [ 30.3473852, 59.973224 ], [ 30.3472501, 59.9734347 ], [ 30.3470956, 59.9736379 ], [ 30.3444468, 59.9766834 ], [ 30.3439908, 59.9772112 ], [ 30.3439759, 59.9772694 ], [ 30.3440183, 59.9774097 ], [ 30.3440519, 59.9774869 ], [ 30.3441862, 59.9775005 ], [ 30.3446184, 59.977549 ], [ 30.3450708, 59.9775991 ], [ 30.3453389, 59.9776288 ], [ 30.345428, 59.9776325 ], [ 30.345677, 59.9776732 ], [ 30.3547364, 59.9785988 ], [ 30.3552375, 59.978625 ], [ 30.3596875, 59.9790785 ], [ 30.3601746, 59.9791235 ], [ 30.3606251, 59.9791373 ], [ 30.3610566, 59.9791362 ], [ 30.3613728, 59.9791131 ], [ 30.3616268, 59.979076 ], [ 30.3619117, 59.9790182 ], [ 30.3623859, 59.9788826 ], [ 30.3627096, 59.9787769 ], [ 30.3657854, 59.9776521 ], [ 30.3659485, 59.977618 ], [ 30.366133, 59.977596 ], [ 30.3664856, 59.9775994 ], [ 30.3670817, 59.9776153 ], [ 30.3674381, 59.9776304 ] ] ] ] } },
{ "type": "Feature", "properties": { "full_id": "r1180979", "osm_id": "1180979", "osm_type": "relation", "boundary": "administrative", "name:de": null, "addr:postcode": null, "old_name": null, "url": null, "place": null, "name:ru": null, "name:fi": null, "name:en": null, "wikipedia": "ru:Светлановское", "wikidata": "Q3506322", "type": "boundary", "ref": "13", "official_status": "ru:внутригородская территория города федерального значения", "official_name": "муниципальный округ Светлановское", "name:uk": "Округ Світланівське", "name": "округ Светлановское", "contact:website": "http://www.mo-svetlanovskoe.spb.ru", "admin_level": "8", "addr:region": "Санкт-Петербург", "addr:country": "RU" }, "geometry": { "type": "MultiPolygon", "coordinates": [ [ [ [ 30.3088848, 60.0255341 ], [ 30.3195371, 60.0298918 ], [ 30.3197579, 60.0300863 ], [ 30.3199004, 60.0300826 ], [ 30.320345, 60.0301446 ], [ 30.3204898, 60.0301534 ], [ 30.3208451, 60.0301798 ], [ 30.3379859, 60.0310231 ], [ 30.3380558, 60.0307472 ], [ 30.3382207, 60.0298428 ], [ 30.3383189, 60.0291814 ], [ 30.3384167, 60.0287673 ], [ 30.338496, 60.0287709 ], [ 30.3386094, 60.028777 ], [ 30.338633, 60.028743 ], [ 30.3387146, 60.0286995 ], [ 30.3387853, 60.028657 ], [ 30.3388115, 60.0284899 ], [ 30.3388181, 60.0284405 ], [ 30.3388851, 60.0279271 ], [ 30.3388924, 60.0278711 ], [ 30.3389122, 60.0277195 ], [ 30.3387422, 60.0277119 ], [ 30.3377661, 60.0276667 ], [ 30.3370068, 60.0276412 ], [ 30.33696, 60.0276394 ], [ 30.3345056, 60.0275574 ], [ 30.3343907, 60.0275535 ], [ 30.3338319, 60.0275345 ], [ 30.3337528, 60.0275321 ], [ 30.3330325, 60.027524 ], [ 30.3328917, 60.0275199 ], [ 30.3325825, 60.0275139 ], [ 30.3323522, 60.0275112 ], [ 30.3322336, 60.0275081 ], [ 30.3317653, 60.0275007 ], [ 30.3316164, 60.0274969 ], [ 30.3314906, 60.0274961 ], [ 30.3313991, 60.0274806 ], [ 30.3313109, 60.0274546 ], [ 30.3311196, 60.027355 ], [ 30.3310423, 60.0273055 ], [ 30.3310422, 60.0272342 ], [ 30.3310597, 60.0271444 ], [ 30.3310988, 60.027007 ], [ 30.33111, 60.0269747 ], [ 30.3311295, 60.0269187 ], [ 30.331447, 60.0270182 ], [ 30.3316519, 60.0270888 ], [ 30.3317267, 60.0270463 ], [ 30.3317771, 60.0270177 ], [ 30.3319419, 60.0269122 ], [ 30.3327958, 60.0263342 ], [ 30.3338889, 60.0255164 ], [ 30.3343854, 60.0251886 ], [ 30.3344746, 60.0251315 ], [ 30.3346436, 60.0250232 ], [ 30.3349889, 60.024802 ], [ 30.3350966, 60.024733 ], [ 30.3353601, 60.0245728 ], [ 30.3341092, 60.0241106 ], [ 30.3338581, 60.0240184 ], [ 30.3336854, 60.0240132 ], [ 30.3335169, 60.0239587 ], [ 30.3319275, 60.0233801 ], [ 30.3315523, 60.0232443 ], [ 30.3306635, 60.0229228 ], [ 30.3305139, 60.0228686 ], [ 30.3301449, 60.0227352 ], [ 30.3296454, 60.0225544 ], [ 30.3295893, 60.0225341 ], [ 30.3293353, 60.0224423 ], [ 30.3290649, 60.0223447 ], [ 30.3290202, 60.0223282 ], [ 30.3288623, 60.0222711 ], [ 30.3288099, 60.0222512 ], [ 30.3294913, 60.0218453 ], [ 30.3313403, 60.0206827 ], [ 30.3339798, 60.0190259 ], [ 30.3431075, 60.0132396 ], [ 30.3434662, 60.0130112 ], [ 30.3464433, 60.0111124 ], [ 30.3470715, 60.0107016 ], [ 30.34877, 60.0113709 ], [ 30.3499091, 60.0118246 ], [ 30.3509463, 60.0122376 ], [ 30.3640124, 60.017461 ], [ 30.365461, 60.0180432 ], [ 30.3672755, 60.0187685 ], [ 30.3673145, 60.0183805 ], [ 30.3674804, 60.0175185 ], [ 30.3675625, 60.0171857 ], [ 30.367653, 60.0168491 ], [ 30.367955, 60.0155876 ], [ 30.3679909, 60.0154362 ], [ 30.3680962, 60.0149916 ], [ 30.3681109, 60.0149293 ], [ 30.368356, 60.0139025 ], [ 30.3685577, 60.0130803 ], [ 30.368582, 60.0129721 ], [ 30.3686387, 60.0127329 ], [ 30.3687124, 60.0124286 ], [ 30.368746, 60.0122845 ], [ 30.3691635, 60.0104191 ], [ 30.3691634, 60.0102165 ], [ 30.3691256, 60.0100632 ], [ 30.3690354, 60.0098372 ], [ 30.3690253, 60.0097419 ], [ 30.3690451, 60.0096061 ], [ 30.3691307, 60.0094041 ], [ 30.3692697, 60.0092161 ], [ 30.3693371, 60.0091247 ], [ 30.3694238, 60.0090037 ], [ 30.3695027, 60.0088466 ], [ 30.3695278, 60.008771 ], [ 30.3697977, 60.0076977 ], [ 30.3698529, 60.0072794 ], [ 30.3698408, 60.0072122 ], [ 30.3697907, 60.0071098 ], [ 30.3688995, 60.0057321 ], [ 30.3681267, 60.0045967 ], [ 30.367116, 60.0031001 ], [ 30.3659669, 60.0013645 ], [ 30.365578, 60.0004733 ], [ 30.3648256, 59.9986651 ], [ 30.3647103, 59.9984021 ], [ 30.364645, 59.9982197 ], [ 30.3645587, 59.9979939 ], [ 30.3644571, 59.997768 ], [ 30.364301, 59.997363 ], [ 30.3641075, 59.99699 ], [ 30.3640009, 59.9967307 ], [ 30.3638684, 59.9964417 ], [ 30.3638346, 59.9963885 ], [ 30.3637981, 59.9963348 ], [ 30.3637541, 59.9962898 ], [ 30.3635889, 59.9961891 ], [ 30.3623082, 59.9953778 ], [ 30.3615737, 59.9949372 ], [ 30.3609674, 59.994631 ], [ 30.3607482, 59.9945267 ], [ 30.3604169, 59.9943691 ], [ 30.3593051, 59.9939264 ], [ 30.3580375, 59.9934051 ], [ 30.356119, 59.9926106 ], [ 30.3553653, 59.9922899 ], [ 30.354191, 59.9918044 ], [ 30.3537775, 59.9916333 ], [ 30.3533885, 59.9914709 ], [ 30.3533133, 59.9914399 ], [ 30.353068, 59.9913422 ], [ 30.3528782, 59.9912629 ], [ 30.3526738, 59.9911942 ], [ 30.3524935, 59.9911489 ], [ 30.3523169, 59.9911132 ], [ 30.3521614, 59.9910925 ], [ 30.3520328, 59.9910832 ], [ 30.3517896, 59.9910703 ], [ 30.3508765, 59.991022 ], [ 30.350329, 59.9909978 ], [ 30.3491304, 59.9909286 ], [ 30.3486157, 59.9908854 ], [ 30.3481245, 59.9907578 ], [ 30.3476967, 59.9905534 ], [ 30.3471997, 59.9902152 ], [ 30.3471185, 59.9901465 ], [ 30.3470842, 59.9901159 ], [ 30.3470134, 59.9901301 ], [ 30.3467948, 59.9901855 ], [ 30.3464851, 59.9902481 ], [ 30.3443276, 59.9901335 ], [ 30.3439736, 59.9900297 ], [ 30.34379, 59.990037 ], [ 30.3433958, 59.9900896 ], [ 30.3403161, 59.9899431 ], [ 30.3401972, 59.9898916 ], [ 30.3400055, 59.9898606 ], [ 30.3397881, 59.9903607 ], [ 30.3394865, 59.9910937 ], [ 30.3390098, 59.9923136 ], [ 30.3389439, 59.9924226 ], [ 30.3388813, 59.9924765 ], [ 30.3382294, 59.9927755 ], [ 30.3377766, 59.9929772 ], [ 30.3374647, 59.9929476 ], [ 30.336297, 59.9928303 ], [ 30.3356465, 59.9927729 ], [ 30.3354168, 59.9927531 ], [ 30.3345517, 59.9926706 ], [ 30.3341054, 59.9926108 ], [ 30.3331125, 59.9925333 ], [ 30.3322699, 59.9924536 ], [ 30.3321533, 59.9924409 ], [ 30.3320773, 59.9924326 ], [ 30.3312167, 59.9945639 ], [ 30.3310791, 59.994894 ], [ 30.3288066, 59.9943067 ], [ 30.3284834, 59.9942217 ], [ 30.3282452, 59.9943491 ], [ 30.3281286, 59.9943856 ], [ 30.327817, 59.9945272 ], [ 30.3277169, 59.9945325 ], [ 30.3276073, 59.9945384 ], [ 30.32732, 59.9944304 ], [ 30.3272011, 59.9945096 ], [ 30.3271854, 59.99452 ], [ 30.3270267, 59.9944742 ], [ 30.326655, 59.9948515 ], [ 30.326381, 59.9951436 ], [ 30.325218, 59.9947793 ], [ 30.3245354, 59.9953452 ], [ 30.3244535, 59.9954123 ], [ 30.3256506, 59.9957509 ], [ 30.3258488, 59.99582 ], [ 30.3246195, 59.9969057 ], [ 30.3246067, 59.9969637 ], [ 30.3246753, 59.9970195 ], [ 30.3243697, 59.9972511 ], [ 30.3236707, 59.998022 ], [ 30.3234426, 59.9982284 ], [ 30.3231623, 59.9985188 ], [ 30.3232649, 59.9985547 ], [ 30.3235477, 59.9986475 ], [ 30.3229739, 59.9996483 ], [ 30.322566, 60.0003574 ], [ 30.3222218, 60.0010438 ], [ 30.3221596, 60.0011677 ], [ 30.3219421, 60.0012227 ], [ 30.3217646, 60.0015032 ], [ 30.3216663, 60.0016703 ], [ 30.3212649, 60.0025688 ], [ 30.321041, 60.003008 ], [ 30.3210081, 60.0030697 ], [ 30.3205784, 60.0038746 ], [ 30.3205216, 60.0039102 ], [ 30.3202912, 60.0043356 ], [ 30.3197021, 60.0054626 ], [ 30.3196606, 60.0055878 ], [ 30.3189797, 60.0068814 ], [ 30.3184791, 60.007732 ], [ 30.318258, 60.0080976 ], [ 30.3183019, 60.0081768 ], [ 30.3163863, 60.011617 ], [ 30.3159604, 60.0123923 ], [ 30.3153286, 60.0135427 ], [ 30.3142768, 60.0155215 ], [ 30.3137544, 60.0165033 ], [ 30.3136887, 60.0166331 ], [ 30.3133161, 60.0173083 ], [ 30.3132023, 60.017518 ], [ 30.313115, 60.0176989 ], [ 30.313082, 60.017692 ], [ 30.3129803, 60.0176785 ], [ 30.3128022, 60.017655 ], [ 30.3127214, 60.0176444 ], [ 30.3126116, 60.0178527 ], [ 30.3126008, 60.0178732 ], [ 30.3125736, 60.0179246 ], [ 30.3125365, 60.0179923 ], [ 30.3125081, 60.0180442 ], [ 30.3124749, 60.0181048 ], [ 30.3124465, 60.0181564 ], [ 30.3123008, 60.0184133 ], [ 30.3122797, 60.0184563 ], [ 30.312135, 60.0187119 ], [ 30.3121296, 60.018724 ], [ 30.3121181, 60.0187659 ], [ 30.3120238, 60.0189472 ], [ 30.311984, 60.0189899 ], [ 30.311861, 60.0192267 ], [ 30.3118441, 60.0192655 ], [ 30.3119133, 60.0192762 ], [ 30.3120673, 60.019297 ], [ 30.3122328, 60.0193167 ], [ 30.3121207, 60.0195222 ], [ 30.3122141, 60.0195349 ], [ 30.3093463, 60.024787 ], [ 30.3090026, 60.0254429 ], [ 30.3088848, 60.0255341 ] ] ] ] } },
{ "type": "Feature", "properties": { "full_id": "r1181028", "osm_id": "1181028", "osm_type": "relation", "boundary": "administrative", "name:de": null, "addr:postcode": null, "old_name": null, "url": "http://www.gov.spb.ru/law?d&nd=8414528&nh=0&header=010000006D00#I0", "place": "town", "name:ru": "Левашово", "name:fi": "Levassova", "name:en": "Levashovo", "wikipedia": "ru:Левашово (Санкт-Петербург)", "wikidata": "Q2993085", "type": "boundary", "ref": null, "official_status": "ru:посёлок", "official_name": null, "name:uk": null, "name": "Левашово", "contact:website": null, "admin_level": "8", "addr:region": "Санкт-Петербург", "addr:country": "RU" }, "geometry": { "type": "MultiPolygon", "coordinates": [ [ [ [ 30.1356287, 60.0576144 ], [ 30.1261824, 60.0563231 ], [ 30.1262256, 60.0567296 ], [ 30.1265782, 60.0569864 ], [ 30.1262815, 60.0574705 ], [ 30.1282492, 60.0578568 ], [ 30.1352592, 60.0596817 ], [ 30.1357703, 60.0599375 ], [ 30.136017, 60.0601703 ], [ 30.1361908, 60.0606096 ], [ 30.1361728, 60.061417 ], [ 30.1358872, 60.0633057 ], [ 30.1359164, 60.06407 ], [ 30.1360153, 60.064374 ], [ 30.1363334, 60.0647072 ], [ 30.1367658, 60.0650117 ], [ 30.1373554, 60.0652463 ], [ 30.1378287, 60.0653667 ], [ 30.137983, 60.0654198 ], [ 30.1381578, 60.0659503 ], [ 30.1381411, 60.0663084 ], [ 30.1371228, 60.0679218 ], [ 30.1369157, 60.0682498 ], [ 30.135428, 60.0706078 ], [ 30.1332163, 60.0726424 ], [ 30.1191347, 60.070006 ], [ 30.1160174, 60.0718794 ], [ 30.1121051, 60.0726668 ], [ 30.1042255, 60.0795927 ], [ 30.102799, 60.0808527 ], [ 30.0945407, 60.0853186 ], [ 30.08843, 60.0865811 ], [ 30.0871855, 60.0868775 ], [ 30.0832814, 60.0881452 ], [ 30.0768868, 60.0904474 ], [ 30.0742072, 60.0939662 ], [ 30.0710469, 60.0960743 ], [ 30.070784, 60.0962496 ], [ 30.0729037, 60.0972712 ], [ 30.085124, 60.104261 ], [ 30.0879644, 60.1076002 ], [ 30.0883638, 60.1078002 ], [ 30.0884829, 60.1078658 ], [ 30.0885218, 60.1079192 ], [ 30.0886392, 60.1079795 ], [ 30.0888102, 60.1079827 ], [ 30.0889054, 60.1079734 ], [ 30.0889965, 60.1079463 ], [ 30.0892259, 60.1078618 ], [ 30.0892916, 60.1078524 ], [ 30.0893573, 60.1078544 ], [ 30.08947, 60.1078718 ], [ 30.089525, 60.1078698 ], [ 30.0895853, 60.1078557 ], [ 30.0897208, 60.1078103 ], [ 30.0898468, 60.1077949 ], [ 30.0899515, 60.1077989 ], [ 30.0900413, 60.1077929 ], [ 30.090103, 60.1077635 ], [ 30.0901231, 60.1077294 ], [ 30.0901285, 60.1077013 ], [ 30.0901113, 60.1076749 ], [ 30.0900829, 60.1076118 ], [ 30.0900936, 60.1075717 ], [ 30.090158, 60.1075343 ], [ 30.0903873, 60.1074794 ], [ 30.0905322, 60.1074581 ], [ 30.0906689, 60.1074554 ], [ 30.0908192, 60.1074437 ], [ 30.090909, 60.1074494 ], [ 30.0909626, 60.1074567 ], [ 30.0910391, 60.1074928 ], [ 30.0911196, 60.1074975 ], [ 30.0911544, 60.1074888 ], [ 30.0912033, 60.1074508 ], [ 30.0912134, 60.1073972 ], [ 30.0912403, 60.1073611 ], [ 30.0912979, 60.1073424 ], [ 30.0914347, 60.1073478 ], [ 30.0914817, 60.1073645 ], [ 30.091597, 60.1073705 ], [ 30.0917606, 60.1073792 ], [ 30.0918719, 60.1073939 ], [ 30.0919537, 60.1074454 ], [ 30.0920154, 60.1074935 ], [ 30.0920932, 60.1075262 ], [ 30.0922528, 60.1075309 ], [ 30.0923507, 60.1075416 ], [ 30.0924258, 60.1075456 ], [ 30.0925277, 60.107549 ], [ 30.0926162, 60.107549 ], [ 30.0926699, 60.1075623 ], [ 30.0927168, 60.107573 ], [ 30.0927839, 60.107567 ], [ 30.0928335, 60.107551 ], [ 30.0928844, 60.1075122 ], [ 30.0929368, 60.1074701 ], [ 30.092977, 60.107424 ], [ 30.0929998, 60.1073892 ], [ 30.092981, 60.1073404 ], [ 30.0929072, 60.1072896 ], [ 30.0929036, 60.1072681 ], [ 30.092926, 60.1072529 ], [ 30.0929797, 60.1072335 ], [ 30.0930521, 60.1072081 ], [ 30.0931312, 60.1071987 ], [ 30.0931835, 60.107184 ], [ 30.0932854, 60.1071626 ], [ 30.0933726, 60.107158 ], [ 30.0934638, 60.1071539 ], [ 30.0936542, 60.1071586 ], [ 30.0937749, 60.1071586 ], [ 30.0938648, 60.107166 ], [ 30.0939774, 60.1071566 ], [ 30.0940526, 60.1071372 ], [ 30.0941008, 60.1071299 ], [ 30.0941934, 60.1071052 ], [ 30.0942497, 60.1070724 ], [ 30.094302, 60.1070236 ], [ 30.0943556, 60.1069955 ], [ 30.094416, 60.1069488 ], [ 30.0944643, 60.1068719 ], [ 30.0944951, 60.1068218 ], [ 30.0945474, 60.1067649 ], [ 30.0946252, 60.1067168 ], [ 30.0947218, 60.1067008 ], [ 30.0948022, 60.1067088 ], [ 30.0948894, 60.1067228 ], [ 30.0949323, 60.1067322 ], [ 30.094986, 60.1067629 ], [ 30.0950584, 60.1068077 ], [ 30.095273, 60.1069053 ], [ 30.0953615, 60.1069501 ], [ 30.0954835, 60.1070243 ], [ 30.0955841, 60.1070804 ], [ 30.0957182, 60.1071346 ], [ 30.0957973, 60.1071653 ], [ 30.0958617, 60.107184 ], [ 30.0960347, 60.1072168 ], [ 30.0961621, 60.1072362 ], [ 30.0962399, 60.1072689 ], [ 30.0963204, 60.1073204 ], [ 30.0964357, 60.1073625 ], [ 30.0965323, 60.1073805 ], [ 30.0966986, 60.1073879 ], [ 30.096838, 60.1074026 ], [ 30.0970003, 60.1074146 ], [ 30.0970781, 60.1073952 ], [ 30.097117, 60.1073571 ], [ 30.0971317, 60.1073217 ], [ 30.0971143, 60.1072769 ], [ 30.0970754, 60.1072148 ], [ 30.0970633, 60.107158 ], [ 30.0970432, 60.1071179 ], [ 30.0970486, 60.1070918 ], [ 30.0970969, 60.1070597 ], [ 30.0972005, 60.1070726 ], [ 30.0972725, 60.1071018 ], [ 30.097357, 60.1071292 ], [ 30.0974107, 60.1071593 ], [ 30.0974621, 60.1071657 ], [ 30.0975475, 60.1071426 ], [ 30.0976735, 60.1070918 ], [ 30.0977755, 60.1070704 ], [ 30.0980544, 60.1070009 ], [ 30.0982663, 60.1069361 ], [ 30.0985023, 60.1068879 ], [ 30.0988363, 60.106803 ], [ 30.0991595, 60.1067255 ], [ 30.0993767, 60.1066714 ], [ 30.0996114, 60.1066112 ], [ 30.0998595, 60.106537 ], [ 30.100044, 60.1064899 ], [ 30.1001747, 60.1064628 ], [ 30.1002994, 60.1064414 ], [ 30.1005569, 60.1064274 ], [ 30.100695, 60.1064127 ], [ 30.1008385, 60.106396 ], [ 30.1009874, 60.1063806 ], [ 30.1012462, 60.1063833 ], [ 30.101377, 60.1063756 ], [ 30.1015078, 60.1063679 ], [ 30.1016499, 60.1063806 ], [ 30.1017733, 60.1063813 ], [ 30.1019704, 60.1063759 ], [ 30.1021716, 60.1063599 ], [ 30.1024318, 60.1063606 ], [ 30.1028515, 60.1063666 ], [ 30.1031131, 60.1063579 ], [ 30.1033665, 60.1063452 ], [ 30.1037487, 60.1063352 ], [ 30.1041564, 60.1063178 ], [ 30.1043978, 60.1063131 ], [ 30.1046661, 60.1063138 ], [ 30.1049745, 60.1063332 ], [ 30.1051395, 60.1063405 ], [ 30.1052561, 60.1063399 ], [ 30.1053983, 60.1063272 ], [ 30.1055016, 60.1063051 ], [ 30.1056518, 60.1062703 ], [ 30.1057845, 60.1062523 ], [ 30.1058999, 60.1062389 ], [ 30.1060984, 60.1062262 ], [ 30.1062258, 60.1062289 ], [ 30.1062982, 60.1062483 ], [ 30.106437, 60.1062886 ], [ 30.1066147, 60.1063231 ], [ 30.1068093, 60.1063503 ], [ 30.1069017, 60.1063632 ], [ 30.1070988, 60.1064067 ], [ 30.1072557, 60.1064548 ], [ 30.1073764, 60.1064715 ], [ 30.107536, 60.1064809 ], [ 30.1076205, 60.1064936 ], [ 30.1077734, 60.106537 ], [ 30.1078901, 60.1065551 ], [ 30.1080698, 60.1065611 ], [ 30.1081918, 60.1065718 ], [ 30.1083621, 60.1065952 ], [ 30.1085982, 60.1066486 ], [ 30.1087216, 60.1066687 ], [ 30.1088798, 60.1066774 ], [ 30.1090139, 60.1066928 ], [ 30.1091132, 60.1067068 ], [ 30.109262, 60.1067275 ], [ 30.1093908, 60.1067208 ], [ 30.1095209, 60.1067001 ], [ 30.1096161, 60.1066874 ], [ 30.1097904, 60.1067222 ], [ 30.1098406, 60.1067472 ], [ 30.1099648, 60.106797 ], [ 30.1100428, 60.106819 ], [ 30.1101896, 60.1068396 ], [ 30.1103114, 60.1068599 ], [ 30.1102987, 60.1068993 ], [ 30.1102585, 60.1069213 ], [ 30.1101284, 60.1069294 ], [ 30.1099916, 60.1069227 ], [ 30.1098923, 60.1069 ], [ 30.1097636, 60.1068839 ], [ 30.1096845, 60.1068919 ], [ 30.1096617, 60.1069093 ], [ 30.1096067, 60.1069447 ], [ 30.1095504, 60.1070183 ], [ 30.1095329, 60.1070524 ], [ 30.1095141, 60.1070677 ], [ 30.1094659, 60.1070811 ], [ 30.1094216, 60.1070824 ], [ 30.1092982, 60.1070971 ], [ 30.1092392, 60.1071105 ], [ 30.1091118, 60.1071179 ], [ 30.1090005, 60.1071205 ], [ 30.1089428, 60.1071506 ], [ 30.1089093, 60.1072281 ], [ 30.1089443, 60.1072732 ], [ 30.1089898, 60.1073204 ], [ 30.1090384, 60.1073439 ], [ 30.1091145, 60.1073845 ], [ 30.1091306, 60.1074133 ], [ 30.1091185, 60.1074373 ], [ 30.1090541, 60.1074694 ], [ 30.1090045, 60.1074935 ], [ 30.1090072, 60.1075068 ], [ 30.1090555, 60.1075343 ], [ 30.1091279, 60.1075837 ], [ 30.109144, 60.1076358 ], [ 30.1091386, 60.1076793 ], [ 30.1091199, 60.1077033 ], [ 30.1090863, 60.1077588 ], [ 30.1090796, 60.1077856 ], [ 30.1090756, 60.1078557 ], [ 30.1091118, 60.1078918 ], [ 30.1091641, 60.1079206 ], [ 30.1091802, 60.107942 ], [ 30.1091909, 60.1079674 ], [ 30.1091413, 60.1080375 ], [ 30.1091762, 60.1080703 ], [ 30.1092271, 60.1080783 ], [ 30.1093519, 60.1080723 ], [ 30.1094136, 60.1080456 ], [ 30.1094551, 60.1080202 ], [ 30.1095343, 60.1079613 ], [ 30.1095866, 60.1079506 ], [ 30.109655, 60.1079593 ], [ 30.1096925, 60.1079814 ], [ 30.1097352, 60.108044 ], [ 30.1097555, 60.1080703 ], [ 30.1097475, 60.1081625 ], [ 30.109714, 60.1082126 ], [ 30.1097019, 60.1082962 ], [ 30.1096737, 60.108351 ], [ 30.1096255, 60.1083931 ], [ 30.1095681, 60.1084216 ], [ 30.1095048, 60.1084392 ], [ 30.1094404, 60.1084499 ], [ 30.1093532, 60.1084506 ], [ 30.1092486, 60.1084492 ], [ 30.1091695, 60.1084559 ], [ 30.1090407, 60.108474 ], [ 30.1089576, 60.1084653 ], [ 30.1088624, 60.1084526 ], [ 30.1087604, 60.1084506 ], [ 30.1086666, 60.1084633 ], [ 30.1086169, 60.1084786 ], [ 30.1082978, 60.1086778 ], [ 30.1083031, 60.1086959 ], [ 30.1083259, 60.1087132 ], [ 30.1083849, 60.1087313 ], [ 30.1085123, 60.108744 ], [ 30.1086009, 60.108758 ], [ 30.1086532, 60.1087747 ], [ 30.1087484, 60.1088101 ], [ 30.1088355, 60.1088389 ], [ 30.1088785, 60.1088589 ], [ 30.1088892, 60.1088837 ], [ 30.1088664, 60.1089117 ], [ 30.1087645, 60.1089625 ], [ 30.1087175, 60.1090153 ], [ 30.1086947, 60.109026 ], [ 30.1086357, 60.1090267 ], [ 30.1085687, 60.109006 ], [ 30.1084855, 60.1089766 ], [ 30.1084332, 60.1089325 ], [ 30.1083742, 60.1088903 ], [ 30.1083232, 60.1088743 ], [ 30.1082656, 60.1088797 ], [ 30.1082267, 60.1089037 ], [ 30.1082146, 60.1089358 ], [ 30.108216, 60.1089712 ], [ 30.1082428, 60.1090107 ], [ 30.108279, 60.1090554 ], [ 30.1083031, 60.1090929 ], [ 30.1083045, 60.1091423 ], [ 30.1082924, 60.1091824 ], [ 30.1082937, 60.1092165 ], [ 30.1083487, 60.1092646 ], [ 30.1084158, 60.1093047 ], [ 30.1084667, 60.1093094 ], [ 30.1085164, 60.109302 ], [ 30.1085472, 60.1092787 ], [ 30.108562, 60.1092432 ], [ 30.1085861, 60.1092232 ], [ 30.1086505, 60.1092065 ], [ 30.1087068, 60.1092038 ], [ 30.1087752, 60.1092091 ], [ 30.1088516, 60.1092372 ], [ 30.1089308, 60.1092492 ], [ 30.1090085, 60.1092713 ], [ 30.1090421, 60.1093027 ], [ 30.1090501, 60.1093408 ], [ 30.1090421, 60.1093622 ], [ 30.1090179, 60.1093736 ], [ 30.1089589, 60.1093883 ], [ 30.1089026, 60.1093909 ], [ 30.1088047, 60.109415 ], [ 30.1087363, 60.1094197 ], [ 30.108692, 60.109431 ], [ 30.1086639, 60.1094631 ], [ 30.1086666, 60.1095173 ], [ 30.1087148, 60.109538 ], [ 30.1087564, 60.1095573 ], [ 30.1088127, 60.1095834 ], [ 30.1088718, 60.1096215 ], [ 30.1089241, 60.1096636 ], [ 30.1089804, 60.1097017 ], [ 30.1090072, 60.1097358 ], [ 30.1090233, 60.1097766 ], [ 30.1090407, 60.1097933 ], [ 30.1090367, 60.1098187 ], [ 30.1090313, 60.1098641 ], [ 30.1090153, 60.1098888 ], [ 30.1089925, 60.1099303 ], [ 30.1089562, 60.109961 ], [ 30.1089187, 60.1099744 ], [ 30.1088946, 60.1099984 ], [ 30.1088087, 60.1100532 ], [ 30.1087444, 60.1100907 ], [ 30.1087041, 60.1101221 ], [ 30.1086853, 60.1101588 ], [ 30.1086894, 60.1101896 ], [ 30.1087148, 60.110233 ], [ 30.1087256, 60.1102618 ], [ 30.108743, 60.1102811 ], [ 30.108743, 60.1102958 ], [ 30.1087216, 60.1103313 ], [ 30.1086692, 60.1103707 ], [ 30.1086143, 60.1104155 ], [ 30.108574, 60.1104429 ], [ 30.108566, 60.1104643 ], [ 30.1085405, 60.110509 ], [ 30.1085311, 60.1105371 ], [ 30.1085258, 60.1105685 ], [ 30.1085271, 60.1106079 ], [ 30.108507, 60.110628 ], [ 30.1084828, 60.110644 ], [ 30.1084372, 60.1106694 ], [ 30.1083286, 60.1107135 ], [ 30.1082267, 60.1107416 ], [ 30.1080886, 60.1107911 ], [ 30.1080604, 60.1108205 ], [ 30.1080188, 60.1109261 ], [ 30.1079508, 60.1110264 ], [ 30.1079142, 60.1110804 ], [ 30.1079169, 60.1111332 ], [ 30.1079464, 60.1111593 ], [ 30.1079558, 60.1111934 ], [ 30.1079209, 60.1112235 ], [ 30.1078399, 60.1112631 ], [ 30.1077694, 60.1113103 ], [ 30.1077063, 60.111327 ], [ 30.1076487, 60.1113284 ], [ 30.107591, 60.1113083 ], [ 30.1075186, 60.1112963 ], [ 30.1074663, 60.1113137 ], [ 30.1074462, 60.1113404 ], [ 30.107426, 60.1113651 ], [ 30.1074341, 60.1113952 ], [ 30.1074609, 60.1114233 ], [ 30.1075132, 60.111444 ], [ 30.1075669, 60.1114527 ], [ 30.1076514, 60.1114701 ], [ 30.1077265, 60.1115015 ], [ 30.1077586, 60.1115342 ], [ 30.1077801, 60.1115716 ], [ 30.1077801, 60.1116411 ], [ 30.1077908, 60.1116832 ], [ 30.1078123, 60.1117113 ], [ 30.1078579, 60.1117441 ], [ 30.1079236, 60.1117668 ], [ 30.1080094, 60.1117701 ], [ 30.1080644, 60.1117888 ], [ 30.1081127, 60.1118269 ], [ 30.1081543, 60.1118663 ], [ 30.1081771, 60.1119198 ], [ 30.1081502, 60.1119679 ], [ 30.108051, 60.1120428 ], [ 30.1080459, 60.1121347 ], [ 30.1081556, 60.112405 ], [ 30.1082039, 60.1125253 ], [ 30.1082575, 60.1125921 ], [ 30.1083675, 60.1126202 ], [ 30.1084506, 60.1126202 ], [ 30.1085526, 60.112568 ], [ 30.1085928, 60.1125239 ], [ 30.1086572, 60.1125026 ], [ 30.108743, 60.1125213 ], [ 30.1088288, 60.1126121 ], [ 30.1089898, 60.1126228 ], [ 30.1090676, 60.1126496 ], [ 30.1090622, 60.1127137 ], [ 30.109089, 60.1127632 ], [ 30.1091453, 60.1127899 ], [ 30.1092909, 60.1128576 ], [ 30.1094109, 60.1128915 ], [ 30.1095584, 60.1128821 ], [ 30.1096523, 60.1129062 ], [ 30.1096871, 60.1129396 ], [ 30.1096978, 60.1130195 ], [ 30.1095718, 60.1130866 ], [ 30.1094934, 60.1131584 ], [ 30.1095235, 60.1132176 ], [ 30.1095799, 60.113247 ], [ 30.10984, 60.1132604 ], [ 30.110009, 60.1132523 ], [ 30.110127, 60.1132777 ], [ 30.1102665, 60.1133499 ], [ 30.1104194, 60.113394 ], [ 30.1105213, 60.1133713 ], [ 30.1105672, 60.1133309 ], [ 30.1107171, 60.1131895 ], [ 30.1109371, 60.1131655 ], [ 30.1111409, 60.1131909 ], [ 30.1113027, 60.1132317 ], [ 30.1114038, 60.1132657 ], [ 30.1114547, 60.1133125 ], [ 30.1114762, 60.1133913 ], [ 30.1114601, 60.1134742 ], [ 30.1114775, 60.1135624 ], [ 30.1115468, 60.1136434 ], [ 30.1116304, 60.1136733 ], [ 30.1117833, 60.113686 ], [ 30.1118772, 60.1136827 ], [ 30.1119744, 60.1136425 ], [ 30.1120569, 60.1136005 ], [ 30.1122352, 60.113531 ], [ 30.1122996, 60.1135083 ], [ 30.1124364, 60.1135116 ], [ 30.1124887, 60.1135437 ], [ 30.112545, 60.1135865 ], [ 30.1126255, 60.1136246 ], [ 30.1128039, 60.1136533 ], [ 30.1129809, 60.113664 ], [ 30.1130748, 60.1136466 ], [ 30.1131526, 60.1136479 ], [ 30.1131901, 60.113672 ], [ 30.1131928, 60.1136947 ], [ 30.1131365, 60.1137241 ], [ 30.1130545, 60.1137718 ], [ 30.1130319, 60.1138444 ], [ 30.113056, 60.1138979 ], [ 30.1131177, 60.113938 ], [ 30.113233, 60.1139928 ], [ 30.1133403, 60.1140141 ], [ 30.1134127, 60.1140529 ], [ 30.1136005, 60.1141745 ], [ 30.1136675, 60.1142614 ], [ 30.1136756, 60.1143616 ], [ 30.1137614, 60.1144365 ], [ 30.113858, 60.1144766 ], [ 30.114027, 60.1144458 ], [ 30.1141557, 60.1144004 ], [ 30.1143325, 60.1143353 ], [ 30.1147091, 60.1140059 ], [ 30.1195941, 60.1126061 ], [ 30.1239058, 60.1142362 ], [ 30.1251019, 60.1135811 ], [ 30.1274073, 60.1144876 ], [ 30.1337336, 60.1121818 ], [ 30.1386815, 60.1143407 ], [ 30.1378024, 60.114848 ], [ 30.1380238, 60.1151482 ], [ 30.1376914, 60.116287 ], [ 30.1376914, 60.1168046 ], [ 30.1379615, 60.1170531 ], [ 30.1380446, 60.1178087 ], [ 30.1383355, 60.118316 ], [ 30.1386679, 60.1185334 ], [ 30.1382508, 60.1189422 ], [ 30.1379961, 60.1189837 ], [ 30.138875, 60.1200381 ], [ 30.1525282, 60.1173423 ], [ 30.173362, 60.1132411 ], [ 30.2103563, 60.105954 ], [ 30.2183323, 60.1043694 ], [ 30.2242395, 60.1031964 ], [ 30.2257665, 60.1028573 ], [ 30.2277099, 60.1023533 ], [ 30.2294219, 60.1018362 ], [ 30.2311812, 60.1012166 ], [ 30.2332304, 60.100378 ], [ 30.2352575, 60.0994008 ], [ 30.2369474, 60.0984096 ], [ 30.2382761, 60.097502 ], [ 30.2452439, 60.0919357 ], [ 30.2398813, 60.089635 ], [ 30.2380322, 60.0888885 ], [ 30.2360069, 60.0881828 ], [ 30.2333589, 60.0873391 ], [ 30.2310631, 60.0866773 ], [ 30.2281321, 60.0859715 ], [ 30.2250439, 60.0853222 ], [ 30.2214273, 60.0847011 ], [ 30.2182258, 60.0842839 ], [ 30.2143702, 60.083873 ], [ 30.2117536, 60.0836911 ], [ 30.209439, 60.0836032 ], [ 30.2069105, 60.0834056 ], [ 30.204445, 60.0831358 ], [ 30.2012498, 60.0826841 ], [ 30.2004887, 60.0825586 ], [ 30.1977527, 60.0819971 ], [ 30.1951138, 60.081396 ], [ 30.1922181, 60.0805527 ], [ 30.1896499, 60.0796716 ], [ 30.1874142, 60.0787791 ], [ 30.1863822, 60.0783272 ], [ 30.1853808, 60.0778496 ], [ 30.1842664, 60.0772783 ], [ 30.1832108, 60.0766762 ], [ 30.1823992, 60.0762206 ], [ 30.1810859, 60.0753513 ], [ 30.1800607, 60.074609 ], [ 30.1730592, 60.0692581 ], [ 30.171361, 60.068093 ], [ 30.1697728, 60.0671005 ], [ 30.1679095, 60.0660726 ], [ 30.1658732, 60.0650565 ], [ 30.1644422, 60.0643817 ], [ 30.1632708, 60.0638873 ], [ 30.1597721, 60.0625651 ], [ 30.1572484, 60.0616744 ], [ 30.1543158, 60.0608112 ], [ 30.1513766, 60.0600996 ], [ 30.149537, 60.0596857 ], [ 30.1478165, 60.0593573 ], [ 30.143767, 60.0586983 ], [ 30.1356287, 60.0576144 ] ] ] ] } },
{ "type": "Feature", "properties": { "full_id": "r1181029", "osm_id": "1181029", "osm_type": "relation", "boundary": "administrative", "name:de": null, "addr:postcode": null, "old_name": null, "url": null, "place": null, "name:ru": null, "name:fi": null, "name:en": null, "wikipedia": "ru:Сосновское (округ)", "wikidata": "Q3491344", "type": "boundary", "ref": "14", "official_status": "ru:внутригородская территория города федерального значения", "official_name": "муниципальный округ Сосновское", "name:uk": "Округ Сосновське", "name": "округ Сосновское", "contact:website": "http://mososnovskoe.sankt-peterburg.info", "admin_level": "8", "addr:region": "Санкт-Петербург", "addr:country": "RU" }, "geometry": { "type": "MultiPolygon", "coordinates": [ [ [ [ 30.3282257, 60.043837 ], [ 30.329116, 60.0436536 ], [ 30.334608, 60.0425292 ], [ 30.3469708, 60.0400121 ], [ 30.3590649, 60.0375555 ], [ 30.3657383, 60.0361959 ], [ 30.3667471, 60.0360009 ], [ 30.3660606, 60.0352735 ], [ 30.3654163, 60.0343654 ], [ 30.3651017, 60.0334615 ], [ 30.364966, 60.0330131 ], [ 30.3648499, 60.0321357 ], [ 30.3648662, 60.0317869 ], [ 30.3649192, 60.0314225 ], [ 30.3652255, 60.0297057 ], [ 30.3660748, 60.0253985 ], [ 30.3668449, 60.0214913 ], [ 30.3672517, 60.019399 ], [ 30.3672865, 60.0191606 ], [ 30.3672755, 60.0187685 ], [ 30.365461, 60.0180432 ], [ 30.3640124, 60.017461 ], [ 30.3509463, 60.0122376 ], [ 30.3499091, 60.0118246 ], [ 30.34877, 60.0113709 ], [ 30.3470715, 60.0107016 ], [ 30.3464433, 60.0111124 ], [ 30.3434662, 60.0130112 ], [ 30.3431075, 60.0132396 ], [ 30.3339798, 60.0190259 ], [ 30.3313403, 60.0206827 ], [ 30.3294913, 60.0218453 ], [ 30.3288099, 60.0222512 ], [ 30.3288623, 60.0222711 ], [ 30.3290202, 60.0223282 ], [ 30.3290649, 60.0223447 ], [ 30.3293353, 60.0224423 ], [ 30.3295893, 60.0225341 ], [ 30.3296454, 60.0225544 ], [ 30.3301449, 60.0227352 ], [ 30.3305139, 60.0228686 ], [ 30.3306635, 60.0229228 ], [ 30.3315523, 60.0232443 ], [ 30.3319275, 60.0233801 ], [ 30.3335169, 60.0239587 ], [ 30.3336854, 60.0240132 ], [ 30.3338581, 60.0240184 ], [ 30.3341092, 60.0241106 ], [ 30.3353601, 60.0245728 ], [ 30.3350966, 60.024733 ], [ 30.3349889, 60.024802 ], [ 30.3346436, 60.0250232 ], [ 30.3344746, 60.0251315 ], [ 30.3343854, 60.0251886 ], [ 30.3338889, 60.0255164 ], [ 30.3327958, 60.0263342 ], [ 30.3319419, 60.0269122 ], [ 30.3317771, 60.0270177 ], [ 30.3317267, 60.0270463 ], [ 30.3316519, 60.0270888 ], [ 30.331447, 60.0270182 ], [ 30.3311295, 60.0269187 ], [ 30.33111, 60.0269747 ], [ 30.3310988, 60.027007 ], [ 30.3310597, 60.0271444 ], [ 30.3310422, 60.0272342 ], [ 30.3310423, 60.0273055 ], [ 30.3311196, 60.027355 ], [ 30.3313109, 60.0274546 ], [ 30.3313991, 60.0274806 ], [ 30.3314906, 60.0274961 ], [ 30.3316164, 60.0274969 ], [ 30.3317653, 60.0275007 ], [ 30.3322336, 60.0275081 ], [ 30.3323522, 60.0275112 ], [ 30.3325825, 60.0275139 ], [ 30.3328917, 60.0275199 ], [ 30.3330325, 60.027524 ], [ 30.3337528, 60.0275321 ], [ 30.3338319, 60.0275345 ], [ 30.3343907, 60.0275535 ], [ 30.3345056, 60.0275574 ], [ 30.33696, 60.0276394 ], [ 30.3370068, 60.0276412 ], [ 30.3377661, 60.0276667 ], [ 30.3387422, 60.0277119 ], [ 30.3389122, 60.0277195 ], [ 30.3388924, 60.0278711 ], [ 30.3388851, 60.0279271 ], [ 30.3388181, 60.0284405 ], [ 30.3388115, 60.0284899 ], [ 30.3387853, 60.028657 ], [ 30.3387146, 60.0286995 ], [ 30.338633, 60.028743 ], [ 30.3386094, 60.028777 ], [ 30.338496, 60.0287709 ], [ 30.3384167, 60.0287673 ], [ 30.3383189, 60.0291814 ], [ 30.3382207, 60.0298428 ], [ 30.3380558, 60.0307472 ], [ 30.3379859, 60.0310231 ], [ 30.3208451, 60.0301798 ], [ 30.3204898, 60.0301534 ], [ 30.320345, 60.0301446 ], [ 30.3199004, 60.0300826 ], [ 30.3200765, 60.0305792 ], [ 30.3201856, 60.0309233 ], [ 30.320252, 60.0312016 ], [ 30.3205389, 60.0327333 ], [ 30.320567, 60.0329432 ], [ 30.3205979, 60.0332192 ], [ 30.320621, 60.0333635 ], [ 30.3206556, 60.0335061 ], [ 30.3207076, 60.0336455 ], [ 30.3208214, 60.0338586 ], [ 30.3209736, 60.0340691 ], [ 30.3282257, 60.043837 ] ] ] ] } },
{ "type": "Feature", "properties": { "full_id": "r1181030", "osm_id": "1181030", "osm_type": "relation", "boundary": "administrative", "name:de": null, "addr:postcode": null, "old_name": "округ № 15", "url": null, "place": null, "name:ru": null, "name:fi": null, "name:en": null, "wikipedia": "ru:Суздальское (муниципальный округ)", "wikidata": "Q3350078", "type": "boundary", "ref": "15", "official_status": "ru:внутригородская территория города федерального значения", "official_name": "муниципальный округ Суздальское", "name:uk": null, "name": "округ Суздальское", "contact:website": null, "admin_level": "8", "addr:region": "Санкт-Петербург", "addr:country": "RU" }, "geometry": { "type": "MultiPolygon", "coordinates": [ [ [ [ 30.3625524, 60.058218 ], [ 30.3615033, 60.0570194 ], [ 30.3608049, 60.057132 ], [ 30.3469708, 60.0400121 ], [ 30.3590649, 60.0375555 ], [ 30.3657383, 60.0361959 ], [ 30.3667471, 60.0360009 ], [ 30.3836956, 60.0550392 ], [ 30.3856467, 60.0572068 ], [ 30.3873932, 60.0591782 ], [ 30.3854023, 60.059742 ], [ 30.3855703, 60.0607187 ], [ 30.3825363, 60.0667134 ], [ 30.3788151, 60.0740902 ], [ 30.3786754, 60.0740781 ], [ 30.3785175, 60.0740577 ], [ 30.3775216, 60.0739289 ], [ 30.3766535, 60.0738153 ], [ 30.3759381, 60.0737237 ], [ 30.3756292, 60.0736841 ], [ 30.3754002, 60.073654 ], [ 30.3750337, 60.0736091 ], [ 30.3749325, 60.0734076 ], [ 30.3748326, 60.0732861 ], [ 30.3744012, 60.0727619 ], [ 30.3734914, 60.0716564 ], [ 30.373172, 60.0712683 ], [ 30.3727635, 60.0707719 ], [ 30.3723092, 60.0702264 ], [ 30.3721694, 60.07005 ], [ 30.3719744, 60.0698112 ], [ 30.3718407, 60.0696511 ], [ 30.3716369, 60.0693892 ], [ 30.3716053, 60.0693534 ], [ 30.3715195, 60.0692505 ], [ 30.3702984, 60.0677524 ], [ 30.3702143, 60.0676494 ], [ 30.3700038, 60.0673915 ], [ 30.3698556, 60.0672099 ], [ 30.3696403, 60.0669462 ], [ 30.3693437, 60.0665794 ], [ 30.368529, 60.0655717 ], [ 30.3679209, 60.0648206 ], [ 30.3677719, 60.0646396 ], [ 30.3671382, 60.0638547 ], [ 30.3668326, 60.0634835 ], [ 30.3662996, 60.0628315 ], [ 30.3658301, 60.0622528 ], [ 30.3655012, 60.0618482 ], [ 30.3652982, 60.061599 ], [ 30.3646984, 60.0608572 ], [ 30.3645116, 60.0606279 ], [ 30.3643043, 60.060378 ], [ 30.3634115, 60.0592715 ], [ 30.3632291, 60.0590462 ], [ 30.3631083, 60.0589001 ], [ 30.3627007, 60.0584 ], [ 30.3625524, 60.058218 ] ] ] ] } },
{ "type": "Feature", "properties": { "full_id": "r1181031", "osm_id": "1181031", "osm_type": "relation", "boundary": "administrative", "name:de": "Pargola", "addr:postcode": "194362", "old_name": null, "url": "http://www.gov.spb.ru/law?d&nd=8414528&nh=0&header=010000006B00#I0", "place": "town", "name:ru": "Парголово", "name:fi": "Parkala", "name:en": "Pargolovo", "wikipedia": "ru:Парголово", "wikidata": "Q905431", "type": "boundary", "ref": null, "official_status": "ru:посёлок", "official_name": null, "name:uk": null, "name": "Парголово", "contact:website": null, "admin_level": "8", "addr:region": "Санкт-Петербург", "addr:country": "RU" }, "geometry": { "type": "MultiPolygon", "coordinates": [ [ [ [ 30.274327, 60.068717 ], [ 30.2753256, 60.0679713 ], [ 30.2762871, 60.0672534 ], [ 30.2764504, 60.0671566 ], [ 30.2776144, 60.0664668 ], [ 30.2789888, 60.0659101 ], [ 30.2803721, 60.0655627 ], [ 30.2824516, 60.065251 ], [ 30.284772, 60.0649971 ], [ 30.286905, 60.0647878 ], [ 30.2878867, 60.0647433 ], [ 30.2895288, 60.0647433 ], [ 30.2907426, 60.0648279 ], [ 30.2922955, 60.0650728 ], [ 30.298452, 60.0668523 ], [ 30.2992349, 60.0663257 ], [ 30.3020704, 60.0671145 ], [ 30.3024915, 60.067221 ], [ 30.3028612, 60.0673079 ], [ 30.3032432, 60.0673845 ], [ 30.303608, 60.0674453 ], [ 30.3039912, 60.0674985 ], [ 30.3043841, 60.0675417 ], [ 30.3048891, 60.0675856 ], [ 30.3052384, 60.0676081 ], [ 30.3057593, 60.067628 ], [ 30.3062171, 60.0676304 ], [ 30.3067391, 60.0676198 ], [ 30.3072709, 60.0675929 ], [ 30.3076848, 60.0675602 ], [ 30.3080957, 60.0675107 ], [ 30.3084375, 60.0674655 ], [ 30.3087863, 60.0674049 ], [ 30.3096534, 60.0672326 ], [ 30.3286385, 60.0633572 ], [ 30.3410626, 60.0608208 ], [ 30.3425167, 60.062735 ], [ 30.3428956, 60.0631968 ], [ 30.3436106, 60.0640984 ], [ 30.3441569, 60.0649665 ], [ 30.3453251, 60.0664306 ], [ 30.3461136, 60.0671435 ], [ 30.3465035, 60.0676072 ], [ 30.3469043, 60.0681013 ], [ 30.348823, 60.0704599 ], [ 30.3502907, 60.0722672 ], [ 30.3521184, 60.0745173 ], [ 30.3608744, 60.0852802 ], [ 30.3620238, 60.0867407 ], [ 30.3625745, 60.0873457 ], [ 30.3632367, 60.0879988 ], [ 30.3643695, 60.0889454 ], [ 30.3652525, 60.0895944 ], [ 30.3669801, 60.0907368 ], [ 30.3632337, 60.092016 ], [ 30.3614742, 60.0921213 ], [ 30.359419, 60.0919665 ], [ 30.340771, 60.0908465 ], [ 30.3329732, 60.0898075 ], [ 30.3310152, 60.0903745 ], [ 30.3088302, 60.0957146 ], [ 30.3081821, 60.0956903 ], [ 30.3031048, 60.0910995 ], [ 30.2918368, 60.093898 ], [ 30.2918302, 60.0959631 ], [ 30.2893844, 60.0963801 ], [ 30.2884203, 60.0961344 ], [ 30.2874353, 60.0961796 ], [ 30.2823231, 60.098937 ], [ 30.2809014, 60.0997409 ], [ 30.2756022, 60.1028892 ], [ 30.2749185, 60.1078343 ], [ 30.2748766, 60.1081376 ], [ 30.2732902, 60.1080851 ], [ 30.2730023, 60.1096699 ], [ 30.2714315, 60.1102879 ], [ 30.2712577, 60.1111106 ], [ 30.2714872, 60.1111177 ], [ 30.2716257, 60.111186 ], [ 30.2716619, 60.111394 ], [ 30.2715636, 60.1115355 ], [ 30.2712431, 60.1118513 ], [ 30.2711834, 60.1119456 ], [ 30.2710763, 60.1135433 ], [ 30.270766, 60.1163527 ], [ 30.2710353, 60.1163833 ], [ 30.2710959, 60.1163902 ], [ 30.2707473, 60.1165948 ], [ 30.2699497, 60.1172033 ], [ 30.268932, 60.1179561 ], [ 30.2678944, 60.1186985 ], [ 30.2672541, 60.1191293 ], [ 30.2666927, 60.1193516 ], [ 30.2661168, 60.1195573 ], [ 30.2660673, 60.1196207 ], [ 30.266386, 60.1200359 ], [ 30.2663981, 60.1204195 ], [ 30.2663089, 60.1205719 ], [ 30.2660327, 60.1209932 ], [ 30.2659434, 60.1213298 ], [ 30.2659179, 60.121715 ], [ 30.2659222, 60.1223035 ], [ 30.2657722, 60.1225758 ], [ 30.2655737, 60.1228412 ], [ 30.265125, 60.123332 ], [ 30.2645029, 60.1237239 ], [ 30.2629136, 60.1243378 ], [ 30.261422, 60.1247145 ], [ 30.2600495, 60.1251612 ], [ 30.2595209, 60.1254553 ], [ 30.2592415, 60.125653 ], [ 30.2590333, 60.1256058 ], [ 30.2517849, 60.1228202 ], [ 30.2377516, 60.1191909 ], [ 30.235842, 60.1185007 ], [ 30.2355604, 60.118474 ], [ 30.2354424, 60.1184628 ], [ 30.235197, 60.1184418 ], [ 30.2342548, 60.1183635 ], [ 30.2341786, 60.1185717 ], [ 30.2339091, 60.1185401 ], [ 30.2336364, 60.1184983 ], [ 30.2307662, 60.1185672 ], [ 30.2293139, 60.1184758 ], [ 30.2257276, 60.1182297 ], [ 30.2248792, 60.1180788 ], [ 30.2239964, 60.1177406 ], [ 30.2231477, 60.1170376 ], [ 30.2215753, 60.1167773 ], [ 30.2196546, 60.1166722 ], [ 30.2192447, 60.116497 ], [ 30.2199245, 60.1156217 ], [ 30.2201196, 60.1155265 ], [ 30.2189562, 60.1151327 ], [ 30.213709, 60.1160858 ], [ 30.2086165, 60.1169781 ], [ 30.2069779, 60.1170858 ], [ 30.1953118, 60.1172754 ], [ 30.193866, 60.1172989 ], [ 30.1895864, 60.1173872 ], [ 30.1895969, 60.1173498 ], [ 30.1894769, 60.1173526 ], [ 30.188827, 60.1173666 ], [ 30.1884327, 60.1173724 ], [ 30.1878416, 60.1173828 ], [ 30.187467, 60.1173925 ], [ 30.1873173, 60.1173969 ], [ 30.1868083, 60.1174118 ], [ 30.186746, 60.1174143 ], [ 30.1862377, 60.1174464 ], [ 30.1857359, 60.1174905 ], [ 30.1852949, 60.1175312 ], [ 30.1848234, 60.1175753 ], [ 30.1844272, 60.1176145 ], [ 30.1834955, 60.1177269 ], [ 30.1829601, 60.1178029 ], [ 30.182206, 60.1179147 ], [ 30.1809927, 60.1181397 ], [ 30.1791631, 60.1185229 ], [ 30.177791, 60.1188089 ], [ 30.1770883, 60.1177313 ], [ 30.1754288, 60.1154631 ], [ 30.173362, 60.1132411 ], [ 30.2103563, 60.105954 ], [ 30.2183323, 60.1043694 ], [ 30.2242395, 60.1031964 ], [ 30.2257665, 60.1028573 ], [ 30.2277099, 60.1023533 ], [ 30.2294219, 60.1018362 ], [ 30.2311812, 60.1012166 ], [ 30.2332304, 60.100378 ], [ 30.2352575, 60.0994008 ], [ 30.2369474, 60.0984096 ], [ 30.2382761, 60.097502 ], [ 30.2452439, 60.0919357 ], [ 30.2398813, 60.089635 ], [ 30.2380322, 60.0888885 ], [ 30.2360069, 60.0881828 ], [ 30.2333589, 60.0873391 ], [ 30.2310631, 60.0866773 ], [ 30.2281321, 60.0859715 ], [ 30.2250439, 60.0853222 ], [ 30.2214273, 60.0847011 ], [ 30.2182258, 60.0842839 ], [ 30.2143702, 60.083873 ], [ 30.2117536, 60.0836911 ], [ 30.209439, 60.0836032 ], [ 30.2069105, 60.0834056 ], [ 30.204445, 60.0831358 ], [ 30.2012498, 60.0826841 ], [ 30.2004887, 60.0825586 ], [ 30.1977527, 60.0819971 ], [ 30.1951138, 60.081396 ], [ 30.1922181, 60.0805527 ], [ 30.1896499, 60.0796716 ], [ 30.1874142, 60.0787791 ], [ 30.1863822, 60.0783272 ], [ 30.1853808, 60.0778496 ], [ 30.1842664, 60.0772783 ], [ 30.1832108, 60.0766762 ], [ 30.1823992, 60.0762206 ], [ 30.1810859, 60.0753513 ], [ 30.1800607, 60.074609 ], [ 30.1730592, 60.0692581 ], [ 30.171361, 60.068093 ], [ 30.1697728, 60.0671005 ], [ 30.1679095, 60.0660726 ], [ 30.1658732, 60.0650565 ], [ 30.1644422, 60.0643817 ], [ 30.1632708, 60.0638873 ], [ 30.1597721, 60.0625651 ], [ 30.1572484, 60.0616744 ], [ 30.1543158, 60.0608112 ], [ 30.1513766, 60.0600996 ], [ 30.149537, 60.0596857 ], [ 30.1478165, 60.0593573 ], [ 30.143767, 60.0586983 ], [ 30.1356287, 60.0576144 ], [ 30.1355577, 60.0573327 ], [ 30.135233, 60.0566423 ], [ 30.134861, 60.0561642 ], [ 30.1345089, 60.0542081 ], [ 30.131254, 60.0511236 ], [ 30.1340902, 60.0487356 ], [ 30.1933177, 60.0638996 ], [ 30.1944228, 60.0629711 ], [ 30.1948022, 60.0626521 ], [ 30.1950774, 60.062421 ], [ 30.1943392, 60.0622605 ], [ 30.1944743, 60.0621023 ], [ 30.1945615, 60.0619945 ], [ 30.1958426, 60.0604713 ], [ 30.2022251, 60.062125 ], [ 30.2101937, 60.0603711 ], [ 30.2141129, 60.0612733 ], [ 30.2227842, 60.0513212 ], [ 30.2252849, 60.0521704 ], [ 30.2257035, 60.0523141 ], [ 30.2259421, 60.052396 ], [ 30.2273798, 60.052942 ], [ 30.2297012, 60.0537008 ], [ 30.2318671, 60.0544215 ], [ 30.2361721, 60.0558822 ], [ 30.241171, 60.0575736 ], [ 30.2491164, 60.0602592 ], [ 30.2505129, 60.0607276 ], [ 30.2511362, 60.060939 ], [ 30.2521047, 60.0612595 ], [ 30.2582518, 60.0633569 ], [ 30.2585371, 60.0634535 ], [ 30.2602901, 60.0640468 ], [ 30.2611085, 60.0643238 ], [ 30.2619132, 60.0645961 ], [ 30.2663552, 60.0660887 ], [ 30.2683975, 60.0667906 ], [ 30.2702498, 60.0674174 ], [ 30.2703797, 60.0674611 ], [ 30.272435, 60.0681048 ], [ 30.272562, 60.0681438 ], [ 30.2729829, 60.0682877 ], [ 30.2731211, 60.0683317 ], [ 30.2740025, 60.0686123 ], [ 30.2741029, 60.0686445 ], [ 30.2741816, 60.0686699 ], [ 30.2742579, 60.0686948 ], [ 30.274327, 60.068717 ] ] ] ] } },
{ "type": "Feature", "properties": { "full_id": "r1181032", "osm_id": "1181032", "osm_type": "relation", "boundary": "administrative", "name:de": null, "addr:postcode": null, "old_name": null, "url": null, "place": null, "name:ru": null, "name:fi": null, "name:en": null, "wikipedia": "ru:Шувалово-Озерки (муниципальный округ)", "wikidata": "Q2964615", "type": "boundary", "ref": "17", "official_status": "ru:внутригородская территория города федерального значения", "official_name": "муниципальный округ Шувалово-Озерки", "name:uk": "Округ Шувалове-Озерки", "name": "округ Шувалово-Озерки", "contact:website": "http://mo-shuvalovo-ozerki.spb.ru", "admin_level": "8", "addr:region": "Санкт-Петербург", "addr:country": "RU" }, "geometry": { "type": "MultiPolygon", "coordinates": [ [ [ [ 30.3410626, 60.0608208 ], [ 30.339816, 60.0591556 ], [ 30.3385347, 60.0573956 ], [ 30.3381784, 60.0570157 ], [ 30.3379448, 60.0569464 ], [ 30.3353143, 60.05341 ], [ 30.3347937, 60.0526956 ], [ 30.3345422, 60.0523505 ], [ 30.3282257, 60.043837 ], [ 30.3209736, 60.0340691 ], [ 30.3208214, 60.0338586 ], [ 30.3207076, 60.0336455 ], [ 30.3206556, 60.0335061 ], [ 30.320621, 60.0333635 ], [ 30.3205979, 60.0332192 ], [ 30.320567, 60.0329432 ], [ 30.3205389, 60.0327333 ], [ 30.320252, 60.0312016 ], [ 30.3201856, 60.0309233 ], [ 30.3200765, 60.0305792 ], [ 30.3199004, 60.0300826 ], [ 30.3197579, 60.0300863 ], [ 30.3195371, 60.0298918 ], [ 30.3088848, 60.0255341 ], [ 30.3088162, 60.0255872 ], [ 30.3086057, 60.0260868 ], [ 30.3083198, 60.0266092 ], [ 30.3066934, 60.0295806 ], [ 30.3066327, 60.0295857 ], [ 30.3065719, 60.0295907 ], [ 30.3056629, 60.0313813 ], [ 30.3056185, 60.0314712 ], [ 30.3049804, 60.0325712 ], [ 30.3046699, 60.0331065 ], [ 30.3031923, 60.0358227 ], [ 30.3029513, 60.0362658 ], [ 30.3027647, 60.0366483 ], [ 30.302727, 60.0367421 ], [ 30.3027402, 60.0368393 ], [ 30.3024219, 60.0374054 ], [ 30.3023089, 60.0377858 ], [ 30.3019744, 60.0383962 ], [ 30.3016265, 60.0390064 ], [ 30.3005433, 60.0410092 ], [ 30.3001597, 60.0417356 ], [ 30.3000714, 60.0418717 ], [ 30.2998967, 60.0420474 ], [ 30.2998339, 60.0421537 ], [ 30.2997723, 60.0421721 ], [ 30.2995132, 60.0425828 ], [ 30.2994762, 60.0428743 ], [ 30.2993529, 60.0432521 ], [ 30.2985429, 60.0446892 ], [ 30.2983338, 60.0446576 ], [ 30.2982128, 60.0446364 ], [ 30.2980656, 60.0448718 ], [ 30.2978568, 60.0452056 ], [ 30.2978192, 60.0452577 ], [ 30.2977329, 60.045251 ], [ 30.2975537, 60.0455939 ], [ 30.2974039, 60.0458799 ], [ 30.2974556, 60.0458866 ], [ 30.2973134, 60.0461451 ], [ 30.2971836, 60.0463809 ], [ 30.2971658, 60.0464091 ], [ 30.2970029, 60.0466659 ], [ 30.2968485, 60.0469484 ], [ 30.2967109, 60.0471999 ], [ 30.296578, 60.0474882 ], [ 30.2965534, 60.0475065 ], [ 30.2965296, 60.0475242 ], [ 30.2963764, 60.0478693 ], [ 30.2962783, 60.0481231 ], [ 30.2961813, 60.048374 ], [ 30.2961433, 60.0485672 ], [ 30.2961384, 60.0485952 ], [ 30.29611, 60.0486693 ], [ 30.2959782, 60.0489715 ], [ 30.2958055, 60.0493772 ], [ 30.2956476, 60.0496824 ], [ 30.2955674, 60.0498133 ], [ 30.2953805, 60.0501184 ], [ 30.2952036, 60.0504072 ], [ 30.2949401, 60.0508372 ], [ 30.2948575, 60.0509672 ], [ 30.2946822, 60.0512432 ], [ 30.2944402, 60.0515624 ], [ 30.2942388, 60.0518208 ], [ 30.294025, 60.052095 ], [ 30.2937894, 60.0523645 ], [ 30.2935817, 60.0525761 ], [ 30.2934169, 60.0527396 ], [ 30.2932234, 60.0528944 ], [ 30.2927435, 60.0532011 ], [ 30.292864, 60.0532894 ], [ 30.2924903, 60.0535768 ], [ 30.2918229, 60.0541186 ], [ 30.2915839, 60.0543188 ], [ 30.2914653, 60.0544163 ], [ 30.2912134, 60.0546236 ], [ 30.2910201, 60.0547366 ], [ 30.2905083, 60.0551744 ], [ 30.2903522, 60.0553079 ], [ 30.2901377, 60.055481 ], [ 30.2896728, 60.0558891 ], [ 30.289612, 60.0559411 ], [ 30.2891294, 60.0564128 ], [ 30.2880189, 60.0573268 ], [ 30.2878831, 60.0574411 ], [ 30.2847678, 60.05996 ], [ 30.2810682, 60.0629093 ], [ 30.2794322, 60.0642381 ], [ 30.2740025, 60.0686123 ], [ 30.2741029, 60.0686445 ], [ 30.2741816, 60.0686699 ], [ 30.2742579, 60.0686948 ], [ 30.274327, 60.068717 ], [ 30.2753256, 60.0679713 ], [ 30.2762871, 60.0672534 ], [ 30.2764504, 60.0671566 ], [ 30.2776144, 60.0664668 ], [ 30.2789888, 60.0659101 ], [ 30.2803721, 60.0655627 ], [ 30.2824516, 60.065251 ], [ 30.284772, 60.0649971 ], [ 30.286905, 60.0647878 ], [ 30.2878867, 60.0647433 ], [ 30.2895288, 60.0647433 ], [ 30.2907426, 60.0648279 ], [ 30.2922955, 60.0650728 ], [ 30.298452, 60.0668523 ], [ 30.2992349, 60.0663257 ], [ 30.3020704, 60.0671145 ], [ 30.3024915, 60.067221 ], [ 30.3028612, 60.0673079 ], [ 30.3032432, 60.0673845 ], [ 30.303608, 60.0674453 ], [ 30.3039912, 60.0674985 ], [ 30.3043841, 60.0675417 ], [ 30.3048891, 60.0675856 ], [ 30.3052384, 60.0676081 ], [ 30.3057593, 60.067628 ], [ 30.3062171, 60.0676304 ], [ 30.3067391, 60.0676198 ], [ 30.3072709, 60.0675929 ], [ 30.3076848, 60.0675602 ], [ 30.3080957, 60.0675107 ], [ 30.3084375, 60.0674655 ], [ 30.3087863, 60.0674049 ], [ 30.3096534, 60.0672326 ], [ 30.3286385, 60.0633572 ], [ 30.3410626, 60.0608208 ] ] ] ] } },
{ "type": "Feature", "properties": { "full_id": "r1181033", "osm_id": "1181033", "osm_type": "relation", "boundary": "administrative", "name:de": null, "addr:postcode": null, "old_name": "округ Парнас", "url": null, "place": null, "name:ru": null, "name:fi": null, "name:en": null, "wikipedia": "ru:Сергиевское (округ)", "wikidata": "Q3365622", "type": "boundary", "ref": "16", "official_status": "ru:внутригородская территория города федерального значения", "official_name": "муниципальный округ Сергиевское", "name:uk": "Округ Сергіївське", "name": "округ Сергиевское", "contact:website": null, "admin_level": "8", "addr:region": "Санкт-Петербург", "addr:country": "RU" }, "geometry": { "type": "MultiPolygon", "coordinates": [ [ [ [ 30.3669801, 60.0907368 ], [ 30.3683113, 60.0902839 ], [ 30.3706651, 60.0877197 ], [ 30.373529, 60.0805134 ], [ 30.3738526, 60.0802533 ], [ 30.3751746, 60.0798301 ], [ 30.376525, 60.0786363 ], [ 30.3768761, 60.0785843 ], [ 30.3771936, 60.0773858 ], [ 30.3788151, 60.0740902 ], [ 30.3786754, 60.0740781 ], [ 30.3785175, 60.0740577 ], [ 30.3775216, 60.0739289 ], [ 30.3766535, 60.0738153 ], [ 30.3759381, 60.0737237 ], [ 30.3756292, 60.0736841 ], [ 30.3754002, 60.073654 ], [ 30.3750337, 60.0736091 ], [ 30.3749325, 60.0734076 ], [ 30.3748326, 60.0732861 ], [ 30.3744012, 60.0727619 ], [ 30.3734914, 60.0716564 ], [ 30.373172, 60.0712683 ], [ 30.3727635, 60.0707719 ], [ 30.3723092, 60.0702264 ], [ 30.3721694, 60.07005 ], [ 30.3719744, 60.0698112 ], [ 30.3718407, 60.0696511 ], [ 30.3716369, 60.0693892 ], [ 30.3716053, 60.0693534 ], [ 30.3715195, 60.0692505 ], [ 30.3702984, 60.0677524 ], [ 30.3702143, 60.0676494 ], [ 30.3700038, 60.0673915 ], [ 30.3698556, 60.0672099 ], [ 30.3696403, 60.0669462 ], [ 30.3693437, 60.0665794 ], [ 30.368529, 60.0655717 ], [ 30.3679209, 60.0648206 ], [ 30.3677719, 60.0646396 ], [ 30.3671382, 60.0638547 ], [ 30.3668326, 60.0634835 ], [ 30.3662996, 60.0628315 ], [ 30.3658301, 60.0622528 ], [ 30.3655012, 60.0618482 ], [ 30.3652982, 60.061599 ], [ 30.3646984, 60.0608572 ], [ 30.3645116, 60.0606279 ], [ 30.3643043, 60.060378 ], [ 30.3634115, 60.0592715 ], [ 30.3632291, 60.0590462 ], [ 30.3631083, 60.0589001 ], [ 30.3627007, 60.0584 ], [ 30.3625524, 60.058218 ], [ 30.3615033, 60.0570194 ], [ 30.3608049, 60.057132 ], [ 30.3469708, 60.0400121 ], [ 30.334608, 60.0425292 ], [ 30.329116, 60.0436536 ], [ 30.3282257, 60.043837 ], [ 30.3345422, 60.0523505 ], [ 30.3347937, 60.0526956 ], [ 30.3353143, 60.05341 ], [ 30.3379448, 60.0569464 ], [ 30.3381784, 60.0570157 ], [ 30.3385347, 60.0573956 ], [ 30.339816, 60.0591556 ], [ 30.3410626, 60.0608208 ], [ 30.3425167, 60.062735 ], [ 30.3428956, 60.0631968 ], [ 30.3436106, 60.0640984 ], [ 30.3441569, 60.0649665 ], [ 30.3453251, 60.0664306 ], [ 30.3461136, 60.0671435 ], [ 30.3465035, 60.0676072 ], [ 30.3469043, 60.0681013 ], [ 30.348823, 60.0704599 ], [ 30.3502907, 60.0722672 ], [ 30.3521184, 60.0745173 ], [ 30.3608744, 60.0852802 ], [ 30.3620238, 60.0867407 ], [ 30.3625745, 60.0873457 ], [ 30.3632367, 60.0879988 ], [ 30.3643695, 60.0889454 ], [ 30.3652525, 60.0895944 ], [ 30.3669801, 60.0907368 ] ] ] ] } }
]
}
