{
"type": "FeatureCollection",
"name": "ВУЗ_ССУЗ",
"crs": { "type": "name", "properties": { "name": "urn:ogc:def:crs:OGC:1.3:CRS84" } },
"features": [
{ "type": "Feature", "properties": { "full_id": null, "osm_id": null, "osm_type": null, "amenity": null, "indoor": null, "lit": null, "faces": null, "date": null, "camera:type": null, "camera:mount": null, "camera:direction": null, "surveillance:type": null, "level": null, "door": null, "inscription_1": null, "check_date:opening_hours": null, "addr:flats": null, "addr:unit": null, "short_name:en": null, "name:de": null, "internet_access:ssid": null, "subject:wikipedia": null, "subject:wikidata": null, "memorial:subject": null, "memorial": null, "inscription": null, "historic": null, "was:amenity": null, "contact:instagram": null, "operator:wikipedia": null, "operator:type": null, "internet_access:fee": null, "tourism": null, "artwork_type": null, "ref:signed": null, "maxwidth:physical": null, "name:fr": null, "visibility": null, "support": null, "display": null, "maxwidth": null, "horse": null, "short_name": null, "old_name": null, "alt_name": null, "motor_vehicle": null, "department:name": null, "department": null, "faculty:name": null, "faculty": null, "internet_access": null, "contact:youtube": null, "contact:website": null, "contact:vk": null, "contact:phone": null, "contact:email": null, "motorcycle": null, "addr:country": null, "addr:city": null, "wikipedia": null, "wikidata": null, "addr:floor": null, "motorcar": null, "surveillance:zone": null, "surveillance": null, "man_made": null, "official_name": null, "fax": null, "email": null, "check_date": null, "name:ru": null, "name:en": null, "description": null, "phone": null, "branch": null, "ref": null, "post_box:type": null, "post_box:design": null, "operator:wikidata": null, "drive_through": null, "design:year": null, "collection_times": null, "website": null, "office": null, "railway": null, "operator": null, "opening_hours": null, "foot": null, "bicycle": null, "addr:street": null, "addr:postcode": null, "addr:housenumber": null, "name": null, "wheelchair": null, "material": null, "locked": null, "access": null, "vehicle": null, "barrier": null, "entrance": null }, "geometry": { "type": "Point", "coordinates": [ 30.276312903098837, 60.010351761418192 ] } },
{ "type": "Feature", "properties": { "full_id": null, "osm_id": null, "osm_type": null, "amenity": null, "indoor": null, "lit": null, "faces": null, "date": null, "camera:type": null, "camera:mount": null, "camera:direction": null, "surveillance:type": null, "level": null, "door": null, "inscription_1": null, "check_date:opening_hours": null, "addr:flats": null, "addr:unit": null, "short_name:en": null, "name:de": null, "internet_access:ssid": null, "subject:wikipedia": null, "subject:wikidata": null, "memorial:subject": null, "memorial": null, "inscription": null, "historic": null, "was:amenity": null, "contact:instagram": null, "operator:wikipedia": null, "operator:type": null, "internet_access:fee": null, "tourism": null, "artwork_type": null, "ref:signed": null, "maxwidth:physical": null, "name:fr": null, "visibility": null, "support": null, "display": null, "maxwidth": null, "horse": null, "short_name": null, "old_name": null, "alt_name": null, "motor_vehicle": null, "department:name": null, "department": null, "faculty:name": null, "faculty": null, "internet_access": null, "contact:youtube": null, "contact:website": null, "contact:vk": null, "contact:phone": null, "contact:email": null, "motorcycle": null, "addr:country": null, "addr:city": null, "wikipedia": null, "wikidata": null, "addr:floor": null, "motorcar": null, "surveillance:zone": null, "surveillance": null, "man_made": null, "official_name": null, "fax": null, "email": null, "check_date": null, "name:ru": null, "name:en": null, "description": null, "phone": null, "branch": null, "ref": null, "post_box:type": null, "post_box:design": null, "operator:wikidata": null, "drive_through": null, "design:year": null, "collection_times": null, "website": null, "office": null, "railway": null, "operator": null, "opening_hours": null, "foot": null, "bicycle": null, "addr:street": null, "addr:postcode": null, "addr:housenumber": null, "name": null, "wheelchair": null, "material": null, "locked": null, "access": null, "vehicle": null, "barrier": null, "entrance": null }, "geometry": { "type": "Point", "coordinates": [ 30.432716041360536, 59.935143434898556 ] } },
{ "type": "Feature", "properties": { "full_id": null, "osm_id": null, "osm_type": null, "amenity": null, "indoor": null, "lit": null, "faces": null, "date": null, "camera:type": null, "camera:mount": null, "camera:direction": null, "surveillance:type": null, "level": null, "door": null, "inscription_1": null, "check_date:opening_hours": null, "addr:flats": null, "addr:unit": null, "short_name:en": null, "name:de": null, "internet_access:ssid": null, "subject:wikipedia": null, "subject:wikidata": null, "memorial:subject": null, "memorial": null, "inscription": null, "historic": null, "was:amenity": null, "contact:instagram": null, "operator:wikipedia": null, "operator:type": null, "internet_access:fee": null, "tourism": null, "artwork_type": null, "ref:signed": null, "maxwidth:physical": null, "name:fr": null, "visibility": null, "support": null, "display": null, "maxwidth": null, "horse": null, "short_name": null, "old_name": null, "alt_name": null, "motor_vehicle": null, "department:name": null, "department": null, "faculty:name": null, "faculty": null, "internet_access": null, "contact:youtube": null, "contact:website": null, "contact:vk": null, "contact:phone": null, "contact:email": null, "motorcycle": null, "addr:country": null, "addr:city": null, "wikipedia": null, "wikidata": null, "addr:floor": null, "motorcar": null, "surveillance:zone": null, "surveillance": null, "man_made": null, "official_name": null, "fax": null, "email": null, "check_date": null, "name:ru": null, "name:en": null, "description": null, "phone": null, "branch": null, "ref": null, "post_box:type": null, "post_box:design": null, "operator:wikidata": null, "drive_through": null, "design:year": null, "collection_times": null, "website": null, "office": null, "railway": null, "operator": null, "opening_hours": null, "foot": null, "bicycle": null, "addr:street": null, "addr:postcode": null, "addr:housenumber": null, "name": null, "wheelchair": null, "material": null, "locked": null, "access": null, "vehicle": null, "barrier": null, "entrance": null }, "geometry": { "type": "Point", "coordinates": [ 30.475648860654552, 59.956486896487107 ] } },
{ "type": "Feature", "properties": { "full_id": null, "osm_id": null, "osm_type": null, "amenity": null, "indoor": null, "lit": null, "faces": null, "date": null, "camera:type": null, "camera:mount": null, "camera:direction": null, "surveillance:type": null, "level": null, "door": null, "inscription_1": null, "check_date:opening_hours": null, "addr:flats": null, "addr:unit": null, "short_name:en": null, "name:de": null, "internet_access:ssid": null, "subject:wikipedia": null, "subject:wikidata": null, "memorial:subject": null, "memorial": null, "inscription": null, "historic": null, "was:amenity": null, "contact:instagram": null, "operator:wikipedia": null, "operator:type": null, "internet_access:fee": null, "tourism": null, "artwork_type": null, "ref:signed": null, "maxwidth:physical": null, "name:fr": null, "visibility": null, "support": null, "display": null, "maxwidth": null, "horse": null, "short_name": null, "old_name": null, "alt_name": null, "motor_vehicle": null, "department:name": null, "department": null, "faculty:name": null, "faculty": null, "internet_access": null, "contact:youtube": null, "contact:website": null, "contact:vk": null, "contact:phone": null, "contact:email": null, "motorcycle": null, "addr:country": null, "addr:city": null, "wikipedia": null, "wikidata": null, "addr:floor": null, "motorcar": null, "surveillance:zone": null, "surveillance": null, "man_made": null, "official_name": null, "fax": null, "email": null, "check_date": null, "name:ru": null, "name:en": null, "description": null, "phone": null, "branch": null, "ref": null, "post_box:type": null, "post_box:design": null, "operator:wikidata": null, "drive_through": null, "design:year": null, "collection_times": null, "website": null, "office": null, "railway": null, "operator": null, "opening_hours": null, "foot": null, "bicycle": null, "addr:street": null, "addr:postcode": null, "addr:housenumber": null, "name": null, "wheelchair": null, "material": null, "locked": null, "access": null, "vehicle": null, "barrier": null, "entrance": null }, "geometry": { "type": "Point", "coordinates": [ 30.422333594864622, 59.989850000460812 ] } },
{ "type": "Feature", "properties": { "full_id": null, "osm_id": null, "osm_type": null, "amenity": null, "indoor": null, "lit": null, "faces": null, "date": null, "camera:type": null, "camera:mount": null, "camera:direction": null, "surveillance:type": null, "level": null, "door": null, "inscription_1": null, "check_date:opening_hours": null, "addr:flats": null, "addr:unit": null, "short_name:en": null, "name:de": null, "internet_access:ssid": null, "subject:wikipedia": null, "subject:wikidata": null, "memorial:subject": null, "memorial": null, "inscription": null, "historic": null, "was:amenity": null, "contact:instagram": null, "operator:wikipedia": null, "operator:type": null, "internet_access:fee": null, "tourism": null, "artwork_type": null, "ref:signed": null, "maxwidth:physical": null, "name:fr": null, "visibility": null, "support": null, "display": null, "maxwidth": null, "horse": null, "short_name": null, "old_name": null, "alt_name": null, "motor_vehicle": null, "department:name": null, "department": null, "faculty:name": null, "faculty": null, "internet_access": null, "contact:youtube": null, "contact:website": null, "contact:vk": null, "contact:phone": null, "contact:email": null, "motorcycle": null, "addr:country": null, "addr:city": null, "wikipedia": null, "wikidata": null, "addr:floor": null, "motorcar": null, "surveillance:zone": null, "surveillance": null, "man_made": null, "official_name": null, "fax": null, "email": null, "check_date": null, "name:ru": null, "name:en": null, "description": null, "phone": null, "branch": null, "ref": null, "post_box:type": null, "post_box:design": null, "operator:wikidata": null, "drive_through": null, "design:year": null, "collection_times": null, "website": null, "office": null, "railway": null, "operator": null, "opening_hours": null, "foot": null, "bicycle": null, "addr:street": null, "addr:postcode": null, "addr:housenumber": null, "name": null, "wheelchair": null, "material": null, "locked": null, "access": null, "vehicle": null, "barrier": null, "entrance": null }, "geometry": { "type": "Point", "coordinates": [ 30.227497866651831, 60.023251358158788 ] } },
{ "type": "Feature", "properties": { "full_id": null, "osm_id": null, "osm_type": null, "amenity": null, "indoor": null, "lit": null, "faces": null, "date": null, "camera:type": null, "camera:mount": null, "camera:direction": null, "surveillance:type": null, "level": null, "door": null, "inscription_1": null, "check_date:opening_hours": null, "addr:flats": null, "addr:unit": null, "short_name:en": null, "name:de": null, "internet_access:ssid": null, "subject:wikipedia": null, "subject:wikidata": null, "memorial:subject": null, "memorial": null, "inscription": null, "historic": null, "was:amenity": null, "contact:instagram": null, "operator:wikipedia": null, "operator:type": null, "internet_access:fee": null, "tourism": null, "artwork_type": null, "ref:signed": null, "maxwidth:physical": null, "name:fr": null, "visibility": null, "support": null, "display": null, "maxwidth": null, "horse": null, "short_name": null, "old_name": null, "alt_name": null, "motor_vehicle": null, "department:name": null, "department": null, "faculty:name": null, "faculty": null, "internet_access": null, "contact:youtube": null, "contact:website": null, "contact:vk": null, "contact:phone": null, "contact:email": null, "motorcycle": null, "addr:country": null, "addr:city": null, "wikipedia": null, "wikidata": null, "addr:floor": null, "motorcar": null, "surveillance:zone": null, "surveillance": null, "man_made": null, "official_name": null, "fax": null, "email": null, "check_date": null, "name:ru": null, "name:en": null, "description": null, "phone": null, "branch": null, "ref": null, "post_box:type": null, "post_box:design": null, "operator:wikidata": null, "drive_through": null, "design:year": null, "collection_times": null, "website": null, "office": null, "railway": null, "operator": null, "opening_hours": null, "foot": null, "bicycle": null, "addr:street": null, "addr:postcode": null, "addr:housenumber": null, "name": null, "wheelchair": null, "material": null, "locked": null, "access": null, "vehicle": null, "barrier": null, "entrance": null }, "geometry": { "type": "Point", "coordinates": [ 30.275102786869013, 60.008161888664027 ] } },
{ "type": "Feature", "properties": { "full_id": null, "osm_id": null, "osm_type": null, "amenity": null, "indoor": null, "lit": null, "faces": null, "date": null, "camera:type": null, "camera:mount": null, "camera:direction": null, "surveillance:type": null, "level": null, "door": null, "inscription_1": null, "check_date:opening_hours": null, "addr:flats": null, "addr:unit": null, "short_name:en": null, "name:de": null, "internet_access:ssid": null, "subject:wikipedia": null, "subject:wikidata": null, "memorial:subject": null, "memorial": null, "inscription": null, "historic": null, "was:amenity": null, "contact:instagram": null, "operator:wikipedia": null, "operator:type": null, "internet_access:fee": null, "tourism": null, "artwork_type": null, "ref:signed": null, "maxwidth:physical": null, "name:fr": null, "visibility": null, "support": null, "display": null, "maxwidth": null, "horse": null, "short_name": null, "old_name": null, "alt_name": null, "motor_vehicle": null, "department:name": null, "department": null, "faculty:name": null, "faculty": null, "internet_access": null, "contact:youtube": null, "contact:website": null, "contact:vk": null, "contact:phone": null, "contact:email": null, "motorcycle": null, "addr:country": null, "addr:city": null, "wikipedia": null, "wikidata": null, "addr:floor": null, "motorcar": null, "surveillance:zone": null, "surveillance": null, "man_made": null, "official_name": null, "fax": null, "email": null, "check_date": null, "name:ru": null, "name:en": null, "description": null, "phone": null, "branch": null, "ref": null, "post_box:type": null, "post_box:design": null, "operator:wikidata": null, "drive_through": null, "design:year": null, "collection_times": null, "website": null, "office": null, "railway": null, "operator": null, "opening_hours": null, "foot": null, "bicycle": null, "addr:street": null, "addr:postcode": null, "addr:housenumber": null, "name": null, "wheelchair": null, "material": null, "locked": null, "access": null, "vehicle": null, "barrier": null, "entrance": null }, "geometry": { "type": "Point", "coordinates": [ 30.289301483968863, 59.986592049788648 ] } },
{ "type": "Feature", "properties": { "full_id": null, "osm_id": null, "osm_type": null, "amenity": null, "indoor": null, "lit": null, "faces": null, "date": null, "camera:type": null, "camera:mount": null, "camera:direction": null, "surveillance:type": null, "level": null, "door": null, "inscription_1": null, "check_date:opening_hours": null, "addr:flats": null, "addr:unit": null, "short_name:en": null, "name:de": null, "internet_access:ssid": null, "subject:wikipedia": null, "subject:wikidata": null, "memorial:subject": null, "memorial": null, "inscription": null, "historic": null, "was:amenity": null, "contact:instagram": null, "operator:wikipedia": null, "operator:type": null, "internet_access:fee": null, "tourism": null, "artwork_type": null, "ref:signed": null, "maxwidth:physical": null, "name:fr": null, "visibility": null, "support": null, "display": null, "maxwidth": null, "horse": null, "short_name": null, "old_name": null, "alt_name": null, "motor_vehicle": null, "department:name": null, "department": null, "faculty:name": null, "faculty": null, "internet_access": null, "contact:youtube": null, "contact:website": null, "contact:vk": null, "contact:phone": null, "contact:email": null, "motorcycle": null, "addr:country": null, "addr:city": null, "wikipedia": null, "wikidata": null, "addr:floor": null, "motorcar": null, "surveillance:zone": null, "surveillance": null, "man_made": null, "official_name": null, "fax": null, "email": null, "check_date": null, "name:ru": null, "name:en": null, "description": null, "phone": null, "branch": null, "ref": null, "post_box:type": null, "post_box:design": null, "operator:wikidata": null, "drive_through": null, "design:year": null, "collection_times": null, "website": null, "office": null, "railway": null, "operator": null, "opening_hours": null, "foot": null, "bicycle": null, "addr:street": null, "addr:postcode": null, "addr:housenumber": null, "name": null, "wheelchair": null, "material": null, "locked": null, "access": null, "vehicle": null, "barrier": null, "entrance": null }, "geometry": { "type": "Point", "coordinates": [ 30.315047145212198, 60.021186779438551 ] } },
{ "type": "Feature", "properties": { "full_id": null, "osm_id": null, "osm_type": null, "amenity": null, "indoor": null, "lit": null, "faces": null, "date": null, "camera:type": null, "camera:mount": null, "camera:direction": null, "surveillance:type": null, "level": null, "door": null, "inscription_1": null, "check_date:opening_hours": null, "addr:flats": null, "addr:unit": null, "short_name:en": null, "name:de": null, "internet_access:ssid": null, "subject:wikipedia": null, "subject:wikidata": null, "memorial:subject": null, "memorial": null, "inscription": null, "historic": null, "was:amenity": null, "contact:instagram": null, "operator:wikipedia": null, "operator:type": null, "internet_access:fee": null, "tourism": null, "artwork_type": null, "ref:signed": null, "maxwidth:physical": null, "name:fr": null, "visibility": null, "support": null, "display": null, "maxwidth": null, "horse": null, "short_name": null, "old_name": null, "alt_name": null, "motor_vehicle": null, "department:name": null, "department": null, "faculty:name": null, "faculty": null, "internet_access": null, "contact:youtube": null, "contact:website": null, "contact:vk": null, "contact:phone": null, "contact:email": null, "motorcycle": null, "addr:country": null, "addr:city": null, "wikipedia": null, "wikidata": null, "addr:floor": null, "motorcar": null, "surveillance:zone": null, "surveillance": null, "man_made": null, "official_name": null, "fax": null, "email": null, "check_date": null, "name:ru": null, "name:en": null, "description": null, "phone": null, "branch": null, "ref": null, "post_box:type": null, "post_box:design": null, "operator:wikidata": null, "drive_through": null, "design:year": null, "collection_times": null, "website": null, "office": null, "railway": null, "operator": null, "opening_hours": null, "foot": null, "bicycle": null, "addr:street": null, "addr:postcode": null, "addr:housenumber": null, "name": null, "wheelchair": null, "material": null, "locked": null, "access": null, "vehicle": null, "barrier": null, "entrance": null }, "geometry": { "type": "Point", "coordinates": [ 30.431365621799483, 59.984233914507243 ] } },
{ "type": "Feature", "properties": { "full_id": null, "osm_id": null, "osm_type": null, "amenity": null, "indoor": null, "lit": null, "faces": null, "date": null, "camera:type": null, "camera:mount": null, "camera:direction": null, "surveillance:type": null, "level": null, "door": null, "inscription_1": null, "check_date:opening_hours": null, "addr:flats": null, "addr:unit": null, "short_name:en": null, "name:de": null, "internet_access:ssid": null, "subject:wikipedia": null, "subject:wikidata": null, "memorial:subject": null, "memorial": null, "inscription": null, "historic": null, "was:amenity": null, "contact:instagram": null, "operator:wikipedia": null, "operator:type": null, "internet_access:fee": null, "tourism": null, "artwork_type": null, "ref:signed": null, "maxwidth:physical": null, "name:fr": null, "visibility": null, "support": null, "display": null, "maxwidth": null, "horse": null, "short_name": null, "old_name": null, "alt_name": null, "motor_vehicle": null, "department:name": null, "department": null, "faculty:name": null, "faculty": null, "internet_access": null, "contact:youtube": null, "contact:website": null, "contact:vk": null, "contact:phone": null, "contact:email": null, "motorcycle": null, "addr:country": null, "addr:city": null, "wikipedia": null, "wikidata": null, "addr:floor": null, "motorcar": null, "surveillance:zone": null, "surveillance": null, "man_made": null, "official_name": null, "fax": null, "email": null, "check_date": null, "name:ru": null, "name:en": null, "description": null, "phone": null, "branch": null, "ref": null, "post_box:type": null, "post_box:design": null, "operator:wikidata": null, "drive_through": null, "design:year": null, "collection_times": null, "website": null, "office": null, "railway": null, "operator": null, "opening_hours": null, "foot": null, "bicycle": null, "addr:street": null, "addr:postcode": null, "addr:housenumber": null, "name": null, "wheelchair": null, "material": null, "locked": null, "access": null, "vehicle": null, "barrier": null, "entrance": null }, "geometry": { "type": "Point", "coordinates": [ 30.491454030894737, 59.961735457919225 ] } },
{ "type": "Feature", "properties": { "full_id": null, "osm_id": null, "osm_type": null, "amenity": null, "indoor": null, "lit": null, "faces": null, "date": null, "camera:type": null, "camera:mount": null, "camera:direction": null, "surveillance:type": null, "level": null, "door": null, "inscription_1": null, "check_date:opening_hours": null, "addr:flats": null, "addr:unit": null, "short_name:en": null, "name:de": null, "internet_access:ssid": null, "subject:wikipedia": null, "subject:wikidata": null, "memorial:subject": null, "memorial": null, "inscription": null, "historic": null, "was:amenity": null, "contact:instagram": null, "operator:wikipedia": null, "operator:type": null, "internet_access:fee": null, "tourism": null, "artwork_type": null, "ref:signed": null, "maxwidth:physical": null, "name:fr": null, "visibility": null, "support": null, "display": null, "maxwidth": null, "horse": null, "short_name": null, "old_name": null, "alt_name": null, "motor_vehicle": null, "department:name": null, "department": null, "faculty:name": null, "faculty": null, "internet_access": null, "contact:youtube": null, "contact:website": null, "contact:vk": null, "contact:phone": null, "contact:email": null, "motorcycle": null, "addr:country": null, "addr:city": null, "wikipedia": null, "wikidata": null, "addr:floor": null, "motorcar": null, "surveillance:zone": null, "surveillance": null, "man_made": null, "official_name": null, "fax": null, "email": null, "check_date": null, "name:ru": null, "name:en": null, "description": null, "phone": null, "branch": null, "ref": null, "post_box:type": null, "post_box:design": null, "operator:wikidata": null, "drive_through": null, "design:year": null, "collection_times": null, "website": null, "office": null, "railway": null, "operator": null, "opening_hours": null, "foot": null, "bicycle": null, "addr:street": null, "addr:postcode": null, "addr:housenumber": null, "name": null, "wheelchair": null, "material": null, "locked": null, "access": null, "vehicle": null, "barrier": null, "entrance": null }, "geometry": { "type": "Point", "coordinates": [ 30.303423014236699, 59.984132145959073 ] } },
{ "type": "Feature", "properties": { "full_id": null, "osm_id": null, "osm_type": null, "amenity": null, "indoor": null, "lit": null, "faces": null, "date": null, "camera:type": null, "camera:mount": null, "camera:direction": null, "surveillance:type": null, "level": null, "door": null, "inscription_1": null, "check_date:opening_hours": null, "addr:flats": null, "addr:unit": null, "short_name:en": null, "name:de": null, "internet_access:ssid": null, "subject:wikipedia": null, "subject:wikidata": null, "memorial:subject": null, "memorial": null, "inscription": null, "historic": null, "was:amenity": null, "contact:instagram": null, "operator:wikipedia": null, "operator:type": null, "internet_access:fee": null, "tourism": null, "artwork_type": null, "ref:signed": null, "maxwidth:physical": null, "name:fr": null, "visibility": null, "support": null, "display": null, "maxwidth": null, "horse": null, "short_name": null, "old_name": null, "alt_name": null, "motor_vehicle": null, "department:name": null, "department": null, "faculty:name": null, "faculty": null, "internet_access": null, "contact:youtube": null, "contact:website": null, "contact:vk": null, "contact:phone": null, "contact:email": null, "motorcycle": null, "addr:country": null, "addr:city": null, "wikipedia": null, "wikidata": null, "addr:floor": null, "motorcar": null, "surveillance:zone": null, "surveillance": null, "man_made": null, "official_name": null, "fax": null, "email": null, "check_date": null, "name:ru": null, "name:en": null, "description": null, "phone": null, "branch": null, "ref": null, "post_box:type": null, "post_box:design": null, "operator:wikidata": null, "drive_through": null, "design:year": null, "collection_times": null, "website": null, "office": null, "railway": null, "operator": null, "opening_hours": null, "foot": null, "bicycle": null, "addr:street": null, "addr:postcode": null, "addr:housenumber": null, "name": null, "wheelchair": null, "material": null, "locked": null, "access": null, "vehicle": null, "barrier": null, "entrance": null }, "geometry": { "type": "Point", "coordinates": [ 30.306046686526898, 59.98999560950837 ] } },
{ "type": "Feature", "properties": { "full_id": null, "osm_id": null, "osm_type": null, "amenity": null, "indoor": null, "lit": null, "faces": null, "date": null, "camera:type": null, "camera:mount": null, "camera:direction": null, "surveillance:type": null, "level": null, "door": null, "inscription_1": null, "check_date:opening_hours": null, "addr:flats": null, "addr:unit": null, "short_name:en": null, "name:de": null, "internet_access:ssid": null, "subject:wikipedia": null, "subject:wikidata": null, "memorial:subject": null, "memorial": null, "inscription": null, "historic": null, "was:amenity": null, "contact:instagram": null, "operator:wikipedia": null, "operator:type": null, "internet_access:fee": null, "tourism": null, "artwork_type": null, "ref:signed": null, "maxwidth:physical": null, "name:fr": null, "visibility": null, "support": null, "display": null, "maxwidth": null, "horse": null, "short_name": null, "old_name": null, "alt_name": null, "motor_vehicle": null, "department:name": null, "department": null, "faculty:name": null, "faculty": null, "internet_access": null, "contact:youtube": null, "contact:website": null, "contact:vk": null, "contact:phone": null, "contact:email": null, "motorcycle": null, "addr:country": null, "addr:city": null, "wikipedia": null, "wikidata": null, "addr:floor": null, "motorcar": null, "surveillance:zone": null, "surveillance": null, "man_made": null, "official_name": null, "fax": null, "email": null, "check_date": null, "name:ru": null, "name:en": null, "description": null, "phone": null, "branch": null, "ref": null, "post_box:type": null, "post_box:design": null, "operator:wikidata": null, "drive_through": null, "design:year": null, "collection_times": null, "website": null, "office": null, "railway": null, "operator": null, "opening_hours": null, "foot": null, "bicycle": null, "addr:street": null, "addr:postcode": null, "addr:housenumber": null, "name": null, "wheelchair": null, "material": null, "locked": null, "access": null, "vehicle": null, "barrier": null, "entrance": null }, "geometry": { "type": "Point", "coordinates": [ 30.286074507355316, 60.004033347440533 ] } }
]
}
